{
"type": "FeatureCollection",
"name": "forest",
"crs": { "type": "name", "properties": { "name": "urn:ogc:def:crs:OGC:1.3:CRS84" } },
"xy_coordinate_resolution": 1e-07,
"features": [
{"type":"Feature","properties":{},"geometry":{"type":"Polygon","coordinates":[[[14.1335707,55.979577],[14.1334865,55.9795465],[14.1334912,55.97937],[14.1335712,55.9791331],[14.1336816,55.9790558],[14.1340367,55.9790774],[14.1344061,55.9791194],[14.134586,55.9791921],[14.1345762,55.9792751],[14.1344945,55.9795731],[14.1342756,55.9796271],[14.133947,55.9796115],[14.1335707,55.979577]]]}},
{"type":"Feature","properties":{},"geometry":{"type":"Polygon","coordinates":[[[14.1282657,55.9798359],[14.1282157,55.979907],[14.1279493,55.9799039],[14.127734,55.9798989],[14.1275776,55.9798801],[14.1275057,55.9797568],[14.1274847,55.9796272],[14.1273548,55.9795796],[14.1271851,55.9795684],[14.1271011,55.9795296],[14.1270402,55.9794258],[14.1269176,55.9793314],[14.1267843,55.97924],[14.1267886,55.9791706],[14.1268525,55.9791281],[14.1270083,55.9791152],[14.1272445,55.9790778],[14.1272352,55.9790024],[14.1272232,55.9789255],[14.1276042,55.9788618],[14.1277115,55.9788446],[14.1278118,55.9788879],[14.1282657,55.9798359]]]}},
{"type":"Feature","properties":{},"geometry":{"type":"Polygon","coordinates":[[[14.130091,55.9804028],[14.1300241,55.9802583],[14.1297227,55.9802584],[14.1294361,55.9801708],[14.1287749,55.9802134],[14.1286614,55.9801808],[14.1285372,55.9799899],[14.1285975,55.97989],[14.1293538,55.9797428],[14.1298747,55.9798413],[14.1302238,55.9797987],[14.1305046,55.9798622],[14.1305351,55.9799148],[14.1304675,55.9800615],[14.1305154,55.9801955],[14.1302364,55.9804096],[14.130091,55.9804028]]]}},
{"type":"Feature","properties":{},"geometry":{"type":"Polygon","coordinates":[[[14.1329731,55.9804341],[14.1331069,55.9803911],[14.1332323,55.9803226],[14.1332711,55.9802319],[14.1334427,55.9801933],[14.133581,55.9802575],[14.1336195,55.980476],[14.1334701,55.9805537],[14.1334737,55.9806095],[14.133623,55.9806887],[14.1337576,55.9806955],[14.1338482,55.9806392],[14.134308,55.9806218],[14.1344511,55.9806497],[14.1347639,55.9806964],[14.1349626,55.9806727],[14.13504,55.9806301],[14.1351088,55.9805634],[14.1352781,55.9805504],[14.1354941,55.9805976],[14.1356477,55.9806089],[14.1357437,55.9805556],[14.1357185,55.9804999],[14.135529,55.9804254],[14.1351977,55.9804015],[14.1349046,55.9804166],[14.1347158,55.9803874],[14.1346395,55.9803274],[14.1346034,55.9802567],[14.1344681,55.9802091],[14.1342896,55.9801527],[14.1339827,55.9801438],[14.1338037,55.9800602],[14.1336339,55.9800385],[14.1333575,55.9800851],[14.1330784,55.9801258],[14.1329369,55.9801959],[14.1328556,55.9803215],[14.1328134,55.980376],[14.1328655,55.9804331],[14.1329731,55.9804341]]]}},
{"type":"Feature","properties":{},"geometry":{"type":"Polygon","coordinates":[[[14.135839,55.9817754],[14.1357334,55.9815708],[14.1357564,55.9813293],[14.1355965,55.9810979],[14.1353312,55.9809997],[14.1346736,55.9809337],[14.1339955,55.9809251],[14.1334745,55.9809881],[14.1332038,55.9808839],[14.1328053,55.9808678],[14.1325975,55.9809926],[14.1326255,55.9810619],[14.132682,55.9811453],[14.1326605,55.9812306],[14.1325002,55.9812948],[14.1324378,55.9814339],[14.1326214,55.9814692],[14.1329708,55.9814463],[14.1335898,55.9814551],[14.1341674,55.9815668],[14.1348647,55.9817563],[14.1354807,55.981913],[14.1357079,55.9819843],[14.1358632,55.9819382],[14.135839,55.9817754]]]}},
{"type":"Feature","properties":{},"geometry":{"type":"Polygon","coordinates":[[[14.1315995,55.9813371],[14.1313761,55.9813307],[14.1311842,55.9812789],[14.1311373,55.9812098],[14.1312389,55.9810071],[14.1314047,55.9807785],[14.1315846,55.9807534],[14.1318889,55.98077],[14.1320981,55.9808926],[14.1320572,55.981024],[14.1318693,55.9812211],[14.1317414,55.9812949],[14.1315995,55.9813371]]]}},
{"type":"Feature","properties":{},"geometry":{"type":"Polygon","coordinates":[[[14.130632,55.9807447],[14.1304558,55.9806627],[14.1303732,55.98055],[14.1304601,55.9804349],[14.1308077,55.9801344],[14.1309531,55.9801412],[14.1311255,55.9803168],[14.1311092,55.9804768],[14.130924,55.9806648],[14.130632,55.9807447]]]}},
{"type":"Feature","properties":{},"geometry":{"type":"Polygon","coordinates":[[[14.1301832,55.9794528],[14.1299732,55.9794463],[14.1297489,55.9793841],[14.1298085,55.979242],[14.129995,55.9791309],[14.1301894,55.9791737],[14.1302217,55.9793394],[14.1301832,55.9794528]]]}},
{"type":"Feature","properties":{},"geometry":{"type":"Polygon","coordinates":[[[14.1417161,55.9809655],[14.1416648,55.9811166],[14.1414238,55.9811872],[14.1411648,55.9811433],[14.1410227,55.9810083],[14.1410524,55.9808543],[14.1412333,55.9807327],[14.1413601,55.9805902],[14.1414276,55.980442],[14.1414628,55.980288],[14.1414495,55.9801372],[14.1413771,55.9799897],[14.1413962,55.9798418],[14.141545,55.9797324],[14.1417044,55.9796079],[14.1417881,55.9794627],[14.1417103,55.9793122],[14.1415201,55.9792016],[14.1412611,55.9791546],[14.1410443,55.9790653],[14.141101,55.9789141],[14.1413636,55.9788494],[14.1416328,55.9788601],[14.1418761,55.9789252],[14.1421336,55.9788786],[14.1423635,55.9787899],[14.1426321,55.9787644],[14.1427955,55.9788842],[14.1427657,55.9790352],[14.1427467,55.9791861],[14.1426522,55.9793284],[14.1425794,55.9794797],[14.1425281,55.9796338],[14.1424609,55.979797],[14.142388,55.9799453],[14.1423421,55.9800963],[14.1422693,55.9802476],[14.1421749,55.9803959],[14.1420587,55.9805323],[14.1417161,55.9809655]]]}},
{"type":"Feature","properties":{},"geometry":{"type":"Polygon","coordinates":[[[14.131273,55.9782634],[14.13119,55.978291],[14.1310552,55.9782766],[14.1309176,55.9782471],[14.1307932,55.9782115],[14.1306769,55.9781699],[14.1306057,55.9780964],[14.1305749,55.9780226],[14.1306789,55.9779647],[14.1308163,55.9779791],[14.1309247,55.9780253],[14.1310144,55.9780822],[14.1312426,55.9782138],[14.131273,55.9782634]]]}},
{"type":"Feature","properties":{},"geometry":{"type":"Polygon","coordinates":[[[14.1325764,55.9801559],[14.1326763,55.9800136],[14.1325129,55.9798937],[14.1322501,55.9799434],[14.1321016,55.9800769],[14.1321632,55.9802244],[14.1324273,55.9802532],[14.1325764,55.9801559]]]}},
{"type":"Feature","properties":{},"geometry":{"type":"Polygon","coordinates":[[[14.1279697,55.9807919],[14.1276955,55.9808053],[14.1274212,55.9808098],[14.1272097,55.9807143],[14.1271804,55.9805606],[14.1273778,55.980457],[14.1276464,55.9804315],[14.1279161,55.9804724],[14.1281737,55.9804258],[14.1283958,55.9805152],[14.1283874,55.9806661],[14.1279697,55.9807919]]]}},
{"type":"Feature","properties":{},"geometry":{"type":"Polygon","coordinates":[[[14.1282426,55.9803621],[14.1280432,55.980345],[14.1277788,55.9802981],[14.1275094,55.9802783],[14.1272462,55.9803098],[14.1269832,55.9803504],[14.126724,55.9802944],[14.1264651,55.9802535],[14.1261958,55.9802398],[14.1261665,55.9800891],[14.1262718,55.9799467],[14.1265466,55.9799725],[14.1268265,55.9799741],[14.1270956,55.9799787],[14.12737,55.9799773],[14.1276663,55.98],[14.1279414,55.9800378],[14.1282111,55.9800817],[14.1284119,55.9801832],[14.1283762,55.9803041],[14.1282426,55.9803621]]]}},
{"type":"Feature","properties":{},"geometry":{"type":"Polygon","coordinates":[[[14.1324109,55.9825432],[14.1322232,55.9822545],[14.1321,55.9819595],[14.1322028,55.9816633],[14.1327399,55.9816002],[14.1332776,55.9815733],[14.1338061,55.981643],[14.1343032,55.9817671],[14.1348002,55.9818852],[14.1352761,55.9820276],[14.135784,55.9821517],[14.1363027,55.9822818],[14.1367999,55.9824059],[14.1373075,55.9825119],[14.1378475,55.9826298],[14.1383762,55.9827055],[14.1388838,55.9828115],[14.1393281,55.9829962],[14.1396338,55.9832601],[14.139918,55.9835242],[14.1398794,55.9837944],[14.1395502,55.9840631],[14.1391555,55.9842763],[14.1389115,55.9843334],[14.1386174,55.9842791],[14.1381837,55.9840883],[14.1377712,55.9838792],[14.1373378,55.9837004],[14.1368511,55.9835581],[14.1363433,55.9834401],[14.1358251,55.9833462],[14.1353069,55.9832523],[14.1347992,55.9831403],[14.1342917,55.9830343],[14.1337733,55.9829284],[14.1332762,55.9828042],[14.1327686,55.9826982],[14.1324109,55.9825432]]]}},
{"type":"Feature","properties":{},"geometry":{"type":"Polygon","coordinates":[[[14.1317778,55.9826641],[14.1313843,55.9826193],[14.1310879,55.9825967],[14.1308452,55.9825617],[14.130519,55.9825242],[14.130228,55.9824985],[14.1299793,55.9824274],[14.1297707,55.982341],[14.1296877,55.982364],[14.1297547,55.982516],[14.1298379,55.9826664],[14.1299424,55.9828077],[14.1299933,55.9829583],[14.1300603,55.9831058],[14.1301628,55.9832908],[14.1303388,55.9833578],[14.1306131,55.9833443],[14.1308763,55.9833128],[14.1311393,55.9832722],[14.1314131,55.9832316],[14.1316707,55.9831881],[14.1319282,55.9831415],[14.1322024,55.983122],[14.1324192,55.983053],[14.1324896,55.9829153],[14.1323742,55.9827711],[14.1321256,55.982706],[14.1317778,55.9826641]]]}},
{"type":"Feature","properties":{},"geometry":{"type":"Polygon","coordinates":[[[14.1319839,55.9860571],[14.1314465,55.9861081],[14.1309314,55.9862012],[14.1304051,55.9862703],[14.1303126,55.9862089],[14.130497,55.9859681],[14.1307725,55.9857012],[14.130994,55.9854226],[14.1311076,55.9851263],[14.1310494,55.9848185],[14.1309257,55.9845299],[14.1307595,55.9842411],[14.1305718,55.9839524],[14.1302968,55.9835462],[14.130352,55.9834614],[14.13066,55.983415],[14.1311763,55.9833576],[14.1316489,55.9832964],[14.1321698,55.9832274],[14.1324732,55.9831851],[14.13264,55.9832253],[14.1327452,55.9834088],[14.1326982,55.9834935],[14.1322286,55.9835759],[14.1321595,55.983629],[14.1322314,55.9839092],[14.1323413,55.9842149],[14.1325505,55.9845035],[14.132713,55.9847349],[14.132824,55.9847721],[14.1331757,55.9847265],[14.133308,55.9847515],[14.1334867,55.9851503],[14.1336121,55.9854106],[14.1337506,55.9856513],[14.1337105,55.9858325],[14.1332304,55.98593],[14.1319839,55.9860571]]]}},
{"type":"Feature","properties":{},"geometry":{"type":"Polygon","coordinates":[[[14.1302182,55.9859933],[14.1299751,55.9862661],[14.12946,55.9863653],[14.1289451,55.9864705],[14.1283964,55.9864853],[14.1280909,55.9862335],[14.127914,55.9859447],[14.1276941,55.9856623],[14.1274956,55.9853676],[14.1272973,55.985085],[14.1270881,55.9847965],[14.1269901,55.9845586],[14.1271123,55.9844585],[14.127512,55.984384],[14.1280707,55.9843208],[14.1285966,55.9842276],[14.1291003,55.9840984],[14.1293867,55.9838374],[14.1293624,55.9836686],[14.1295389,55.9835998],[14.1299682,55.9835222],[14.1301356,55.9835606],[14.1302812,55.9839113],[14.1304689,55.9842],[14.1306244,55.9844948],[14.1307906,55.9847897],[14.1308709,55.9850909],[14.1306819,55.9853815],[14.1302182,55.9859933]]]}},
{"type":"Feature","properties":{},"geometry":{"type":"Polygon","coordinates":[[[14.1276136,55.9838435],[14.1281176,55.9837323],[14.1286436,55.9836451],[14.1291696,55.983558],[14.1298131,55.9834204],[14.1299296,55.9833037],[14.1298627,55.9831562],[14.1296965,55.9828674],[14.1295625,55.9825664],[14.129332,55.98229],[14.1288667,55.9821355],[14.1283057,55.9820539],[14.1277877,55.9819721],[14.1272594,55.9819144],[14.1267306,55.9818206],[14.1262126,55.9817387],[14.125527,55.9816019],[14.1253997,55.9817202],[14.1255166,55.9819595],[14.125672,55.9822483],[14.1257844,55.9825434],[14.1259721,55.9828381],[14.1261383,55.9831329],[14.1263474,55.9834215],[14.1265243,55.9837102],[14.1266462,55.9839238],[14.1269265,55.9839541],[14.1276136,55.9838435]]]}},
{"type":"Feature","properties":{},"geometry":{"type":"Polygon","coordinates":[[[14.1281199,55.9818784],[14.1286482,55.981936],[14.1289671,55.981693],[14.1288331,55.981392],[14.1286131,55.9811035],[14.1281162,55.9809854],[14.1275774,55.9809459],[14.1270491,55.9808882],[14.1265108,55.9808789],[14.1259725,55.9808635],[14.1251807,55.9808162],[14.1249018,55.980872],[14.1249537,55.9810919],[14.1250969,55.9812964],[14.1255198,55.9814873],[14.1260487,55.9815872],[14.1266202,55.9816507],[14.1281199,55.9818784]]]}},
{"type":"Feature","properties":{},"geometry":{"type":"Polygon","coordinates":[[[14.1230825,55.9811798],[14.1228126,55.9811299],[14.1225431,55.9811011],[14.122268,55.9810633],[14.1219932,55.9810405],[14.1217237,55.9810087],[14.1214644,55.9809467],[14.1213277,55.9808146],[14.1214277,55.9806723],[14.1216971,55.9806951],[14.121977,55.9806967],[14.122257,55.9807073],[14.1225315,55.980712],[14.1228006,55.9807167],[14.1230698,55.9807274],[14.1233444,55.980735],[14.1236191,55.9807517],[14.1238884,55.9807685],[14.1241575,55.9807701],[14.1244267,55.9807808],[14.1246857,55.9808248],[14.1246936,55.9809756],[14.1247068,55.9811294],[14.124822,55.9812676],[14.1246572,55.9813921],[14.124393,55.9813603],[14.1241341,55.9813193],[14.1230825,55.9811798]]]}},
{"type":"Feature","properties":{},"geometry":{"type":"Polygon","coordinates":[[[14.1225842,55.9829925],[14.1224182,55.9827037],[14.1222412,55.982409],[14.1220858,55.9821141],[14.1219304,55.9818192],[14.1217751,55.9815304],[14.121609,55.9812416],[14.1221352,55.9811665],[14.1226531,55.9812484],[14.1231712,55.9813423],[14.1237317,55.9813938],[14.1242497,55.9814817],[14.1247781,55.9815454],[14.1250621,55.9818034],[14.1253247,55.9820736],[14.125523,55.9823562],[14.125657,55.9826572],[14.1258286,55.982949],[14.1259841,55.9832499],[14.1261719,55.9835506],[14.1263219,55.9838365],[14.1265489,55.9842305],[14.1267917,55.9846049],[14.1266502,55.984675],[14.1265478,55.984665],[14.1262859,55.9842741],[14.126164,55.9840575],[14.1259804,55.9840192],[14.1253038,55.9841131],[14.1247781,55.9842184],[14.1242413,55.9842995],[14.1237035,55.9843264],[14.1232701,55.9841476],[14.123104,55.9838588],[14.1229487,55.9835699],[14.1225842,55.9829925]]]}},
{"type":"Feature","properties":{},"geometry":{"type":"Polygon","coordinates":[[[14.1289438,55.97781],[14.1288591,55.9777981],[14.1288058,55.9777462],[14.1288347,55.9776955],[14.1289145,55.9776696],[14.1290199,55.9776906],[14.1290576,55.9777385],[14.1290257,55.9777853],[14.1289438,55.97781]]]}},
{"type":"Feature","properties":{},"geometry":{"type":"Polygon","coordinates":[[[14.1306133,55.9776908],[14.1305671,55.9777296],[14.1304623,55.9777409],[14.1303837,55.9777083],[14.1303799,55.9776518],[14.1304141,55.9776158],[14.1304777,55.9776016],[14.1305911,55.9776324],[14.1306133,55.9776908]]]}},
{"type":"Feature","properties":{},"geometry":{"type":"Polygon","coordinates":[[[14.1324363,55.977925],[14.132317,55.9779209],[14.1322847,55.9778589],[14.132349,55.9777949],[14.1324229,55.9778009],[14.1325287,55.977845],[14.1325125,55.9778992],[14.1324363,55.977925]]]}},
{"type":"Feature","properties":{},"geometry":{"type":"Polygon","coordinates":[[[14.1333291,55.9783566],[14.1331077,55.9783593],[14.1329612,55.9783418],[14.1329445,55.9782742],[14.1331482,55.9782302],[14.1333499,55.9782371],[14.1336063,55.9782915],[14.1336241,55.97834],[14.1335564,55.9783666],[14.1334372,55.9783672],[14.1333291,55.9783566]]]}}
]
}
