{
"type": "FeatureCollection",
"name": "gemensamma_ytor",
"crs": { "type": "name", "properties": { "name": "urn:ogc:def:crs:OGC:1.3:CRS84" } },
"xy_coordinate_resolution": 1e-07,
"features": [
{"type":"Feature","properties":{"fid":31,"handle":2281,"block":-1,"etype":18,"space":0,"layer":"J26_Gemensamma ytor","olinetype":"BYLAYER","linetype":"","color":"0,0,255,255","ocolor":5,"color24":-1,"transparency":0,"lweight":-1,"linewidth":0.0,"ltscale":1.0,"visible":1,"width":0.0,"thickness":0.0,"ext":"(3:0,0,0.1)"},"geometry":{"type":"LineString","coordinates":[[14.1362543,55.9804588,0.0],[14.13625,55.9803941,0.0],[14.1362547,55.980293,0.0],[14.1366128,55.9802964,0.0],[14.1369004,55.9804524,0.0],[14.1368253,55.9806668,0.0],[14.1362683,55.9806697,0.0],[14.1362543,55.9804588,0.0]]}},
{"type":"Feature","properties":{"fid":32,"handle":2285,"block":-1,"etype":18,"space":0,"layer":"J26_Gemensamma ytor","olinetype":"BYLAYER","linetype":"","color":"0,0,255,255","ocolor":5,"color24":-1,"transparency":0,"lweight":-1,"linewidth":0.0,"ltscale":1.0,"visible":1,"width":0.0,"thickness":0.0,"ext":"(3:0,0,0.1)"},"geometry":{"type":"LineString","coordinates":[[14.1273876,55.9769624,0.0],[14.1273969,55.9772191,0.0],[14.1279351,55.9772029,0.0],[14.1279599,55.9769953,0.0],[14.1273876,55.9769624,0.0]]}},
{"type":"Feature","properties":{"fid":63,"handle":2393,"block":-1,"etype":18,"space":0,"layer":"J26_Gemensamma ytor","olinetype":"BYLAYER","linetype":"","color":"0,0,255,255","ocolor":5,"color24":-1,"transparency":0,"lweight":-1,"linewidth":0.0,"ltscale":1.0,"visible":1,"width":0.0,"thickness":0.0,"ext":"(3:0,0,0.1)"},"geometry":{"type":"LineString","coordinates":[[14.1328379,55.9783626,0.0],[14.1330202,55.9781674,0.0],[14.1332906,55.9782766,0.0],[14.1334461,55.9783031,0.0],[14.1334132,55.9783857,0.0],[14.1328379,55.9783626,0.0]]}},
{"type":"Feature","properties":{"fid":79,"handle":2413,"block":-1,"etype":18,"space":0,"layer":"J26_Gemensamma ytor","olinetype":"BYLAYER","linetype":"","color":"0,0,255,255","ocolor":5,"color24":-1,"transparency":0,"lweight":-1,"linewidth":0.0,"ltscale":1.0,"visible":1,"width":0.0,"thickness":0.0,"ext":"(3:0,0,0.1)"},"geometry":{"type":"LineString","coordinates":[[14.1335724,55.9790286,0.0],[14.1346422,55.9791281,0.0],[14.1344826,55.9796671,0.0],[14.1334128,55.9795676,0.0],[14.1335724,55.9790286,0.0]]}},
{"type":"Feature","properties":{"fid":142,"handle":2634,"block":-1,"etype":18,"space":0,"layer":"J26_Gemensamma ytor","olinetype":"BYLAYER","linetype":"","color":"0,0,255,255","ocolor":5,"color24":-1,"transparency":0,"lweight":-1,"linewidth":0.0,"ltscale":1.0,"visible":1,"width":0.0,"thickness":0.0,"ext":"(3:0,0,0.1)"},"geometry":{"type":"LineString","coordinates":[[14.1389852,55.9807337,0.0],[14.1394952,55.9808054,0.0],[14.1393432,55.9809717,0.0],[14.1390737,55.9809634,0.0],[14.1389245,55.980924,0.0],[14.1388612,55.9807811,0.0],[14.1384586,55.9807157,0.0],[14.1384949,55.980535,0.0],[14.1388499,55.9803407,0.0],[14.1391313,55.9804071,0.0],[14.1389852,55.9807337,0.0]]}},
{"type":"Feature","properties":{"fid":143,"handle":2635,"block":-1,"etype":18,"space":0,"layer":"J26_Gemensamma ytor","olinetype":"BYLAYER","linetype":"","color":"0,0,255,255","ocolor":5,"color24":-1,"transparency":0,"lweight":-1,"linewidth":0.0,"ltscale":1.0,"visible":1,"width":0.0,"thickness":0.0,"ext":"(3:0,0,0.1)"},"geometry":{"type":"LineString","coordinates":[[14.1409118,55.9807766,0.0],[14.1405521,55.9807114,0.0],[14.1401444,55.9809266,0.0],[14.1400803,55.9809784,0.0],[14.14048,55.981109,0.0],[14.1407564,55.9811747,0.0],[14.1407867,55.9811136,0.0],[14.1408122,55.9810122,0.0],[14.1409118,55.9807766,0.0]]}},
{"type":"Feature","properties":{"fid":144,"handle":2638,"block":-1,"etype":18,"space":0,"layer":"J26_Gemensamma ytor","olinetype":"BYLAYER","linetype":"","color":"0,0,255,255","ocolor":5,"color24":-1,"transparency":0,"lweight":-1,"linewidth":0.0,"ltscale":1.0,"visible":1,"width":0.0,"thickness":0.0,"ext":"(3:0,0,0.1)"},"geometry":{"type":"LineString","coordinates":[[14.1390311,55.9819258,0.0],[14.1388258,55.9818259,0.0],[14.1386595,55.9816781,0.0],[14.1387284,55.9815995,0.0],[14.1388149,55.9815659,0.0],[14.1390759,55.9815819,0.0],[14.1392136,55.9817247,0.0],[14.1392246,55.9819094,0.0],[14.1390311,55.9819258,0.0]]}},
{"type":"Feature","properties":{"fid":145,"handle":2639,"block":-1,"etype":18,"space":0,"layer":"J26_Gemensamma ytor","olinetype":"BYLAYER","linetype":"","color":"0,0,255,255","ocolor":5,"color24":-1,"transparency":0,"lweight":-1,"linewidth":0.0,"ltscale":1.0,"visible":1,"width":0.0,"thickness":0.0,"ext":"(3:0,0,0.1)"},"geometry":{"type":"LineString","coordinates":[[14.1318992,55.9817002,0.0],[14.131535,55.9817459,0.0],[14.1314354,55.9816007,0.0],[14.1318311,55.9815658,0.0],[14.1318992,55.9817002,0.0]]}},
{"type":"Feature","properties":{"fid":146,"handle":2640,"block":-1,"etype":18,"space":0,"layer":"J26_Gemensamma ytor","olinetype":"BYLAYER","linetype":"","color":"0,0,255,255","ocolor":5,"color24":-1,"transparency":0,"lweight":-1,"linewidth":0.0,"ltscale":1.0,"visible":1,"width":0.0,"thickness":0.0,"ext":"(3:0,0,0.1)"},"geometry":{"type":"LineString","coordinates":[[14.1407072,55.9790073,0.0],[14.1404029,55.9790298,0.0],[14.1404209,55.9786644,0.0],[14.1406733,55.978695,0.0],[14.1407072,55.9790073,0.0]]}},
{"type":"Feature","properties":{"fid":147,"handle":2641,"block":-1,"etype":18,"space":0,"layer":"J26_Gemensamma ytor","olinetype":"BYLAYER","linetype":"","color":"0,0,255,255","ocolor":5,"color24":-1,"transparency":0,"lweight":-1,"linewidth":0.0,"ltscale":1.0,"visible":1,"width":0.0,"thickness":0.0,"ext":"(3:0,0,0.1)"},"geometry":{"type":"LineString","coordinates":[[14.140982,55.9805217,0.0],[14.1407097,55.9805131,0.0],[14.1407049,55.9802639,0.0],[14.1409842,55.9802571,0.0],[14.140982,55.9805217,0.0]]}},
{"type":"Feature","properties":{"fid":148,"handle":2642,"block":-1,"etype":18,"space":0,"layer":"J26_Gemensamma ytor","olinetype":"BYLAYER","linetype":"","color":"0,0,255,255","ocolor":5,"color24":-1,"transparency":0,"lweight":-1,"linewidth":0.0,"ltscale":1.0,"visible":1,"width":0.0,"thickness":0.0,"ext":"(3:0,0,0.1)"},"geometry":{"type":"LineString","coordinates":[[14.1357342,55.9817965,0.0],[14.1362315,55.9817987,0.0],[14.1362074,55.9820336,0.0],[14.1357452,55.982028,0.0]]}},
{"type":"Feature","properties":{"fid":149,"handle":2643,"block":-1,"etype":18,"space":0,"layer":"J26_Gemensamma ytor","olinetype":"BYLAYER","linetype":"","color":"0,0,255,255","ocolor":5,"color24":-1,"transparency":0,"lweight":-1,"linewidth":0.0,"ltscale":1.0,"visible":1,"width":0.0,"thickness":0.0,"ext":"(3:0,0,0.1)"},"geometry":{"type":"LineString","coordinates":[[14.1403673,55.9826681,0.0],[14.1401065,55.9826289,0.0],[14.1401863,55.9823829,0.0],[14.1404572,55.9824103,0.0],[14.1403673,55.9826681,0.0]]}},
{"type":"Feature","properties":{"fid":218,"handle":3058,"block":-1,"etype":18,"space":0,"layer":"J26_Gemensamma ytor","olinetype":"BYLAYER","linetype":"","color":"0,0,255,255","ocolor":5,"color24":-1,"transparency":0,"lweight":-1,"linewidth":0.0,"ltscale":1.0,"visible":1,"width":0.0,"thickness":0.0,"ext":"(3:0,0,0.1)"},"geometry":{"type":"LineString","coordinates":[[14.1334801,55.9789563,0.0],[14.1347711,55.9790764,0.0],[14.1345749,55.9797394,0.0],[14.1332838,55.9796193,0.0],[14.1334801,55.9789563,0.0]]}},
{"type":"Feature","properties":{"fid":1294,"handle":78617,"block":-1,"etype":18,"space":0,"layer":"J26_Gemensamma ytor","olinetype":"BYLAYER","linetype":"","color":"0,0,255,255","ocolor":5,"color24":-1,"transparency":0,"lweight":-1,"linewidth":0.0,"ltscale":1.0,"visible":1,"width":0.0,"thickness":0.0,"ext":"(3:0,0,0.1)"},"geometry":{"type":"LineString","coordinates":[[14.1321401,55.9798347,0.0],[14.1325876,55.9799261,0.0],[14.1327987,55.9799691,0.0],[14.1328366,55.9799348,0.0],[14.1331034,55.9796469,0.0],[14.1331299,55.9795775,0.0],[14.1325567,55.9795715,0.0],[14.1321401,55.9798347,0.0]]}}
]
}
