{
"type": "FeatureCollection",
"name": "opening_main_paths",
"crs": { "type": "name", "properties": { "name": "urn:ogc:def:crs:OGC:1.3:CRS84" } },
"xy_coordinate_resolution": 1e-07,
"features": [
{"type":"Feature","properties":{},"geometry":{"type":"LineString","coordinates":[[14.1402118,55.9797379],[14.1400633,55.9790579],[14.1395607,55.9789954],[14.1382879,55.9789635],[14.1380871,55.9792724],[14.1374181,55.9793617],[14.1360476,55.9791675],[14.1362023,55.979587],[14.1362147,55.9797024],[14.1373363,55.9798475],[14.1387682,55.97992],[14.1393247,55.9800533],[14.1390872,55.9803772],[14.1389089,55.9807658],[14.1386655,55.9807345],[14.13883,55.9814234],[14.1387035,55.9814418],[14.1387043,55.9814891],[14.1397245,55.9825228],[14.137796,55.9821184],[14.1362636,55.9820345],[14.136232,55.9804334],[14.1357924,55.9803468],[14.1352599,55.9800684],[14.1350787,55.9799687],[14.1347927,55.979911],[14.1345045,55.9797171],[14.1333361,55.9796195],[14.1325809,55.9795997],[14.132032,55.979934],[14.1312786,55.9800326],[14.1308301,55.9800467],[14.1300689,55.9806367],[14.1296539,55.9807631],[14.1294801,55.9807877],[14.1293446,55.9808979],[14.1288377,55.9808916],[14.1253194,55.9807615],[14.1245724,55.980271]]}},
{"type":"Feature","properties":{},"geometry":{"type":"LineString","coordinates":[[14.1318079,55.9788163],[14.1314985,55.978297],[14.1308645,55.9779391],[14.1302887,55.9779213],[14.1302888,55.9776016],[14.1302776,55.9775603],[14.1304373,55.9773167],[14.128822,55.9769964],[14.1277075,55.9769577],[14.1273322,55.9769271],[14.1273424,55.9772289],[14.1275565,55.9774113],[14.1280227,55.9778382],[14.12824,55.9782159],[14.1282998,55.9783222],[14.128332,55.9783575],[14.1284912,55.978407],[14.1289525,55.978532],[14.1293546,55.9785891],[14.1301085,55.9788457],[14.130699,55.9788013],[14.1312671,55.9799735],[14.1307819,55.9799996],[14.1307229,55.9799467],[14.1307209,55.9798223],[14.1303026,55.9797446],[14.1299017,55.9797673],[14.1293563,55.9796665],[14.1290354,55.9797362],[14.1285197,55.9798395],[14.1284315,55.9799376],[14.1273964,55.9799163],[14.1271822,55.979725],[14.1258907,55.979847],[14.1250803,55.9796794]]}},
{"type":"Feature","properties":{},"geometry":{"type":"LineString","coordinates":[[14.1421216,55.980616],[14.1468548,55.9807866],[14.1465815,55.9814925],[14.1416365,55.9812934],[14.1411415,55.9820063],[14.1414598,55.9820994],[14.1462986,55.9822576],[14.1460156,55.9830169],[14.1406483,55.9828317],[14.1403949,55.9828331],[14.1402081,55.9830294],[14.1362658,55.9821736],[14.1341347,55.98164],[14.1335947,55.9815481],[14.1329498,55.981504],[14.1323269,55.9815072],[14.1311463,55.9816317],[14.130408,55.9816828],[14.129711,55.9816745],[14.1293946,55.9816998],[14.1292473,55.9817302],[14.1291535,55.9818076],[14.1290804,55.9818612],[14.1290558,55.9819694],[14.1290684,55.9820167],[14.1287811,55.9820411],[14.1271406,55.9818038],[14.1251134,55.9814885],[14.1248489,55.9811287],[14.1247584,55.9807533],[14.1238526,55.9802369]]}},
{"type":"Feature","properties":{},"geometry":{"type":"LineString","coordinates":[[14.1402118,55.9797379],[14.1400633,55.9790579],[14.1395607,55.9789954],[14.1382879,55.9789635],[14.1380871,55.9792724],[14.1374181,55.9793617],[14.1360476,55.9791675],[14.1362023,55.979587],[14.1362147,55.9797024],[14.1373363,55.9798475],[14.1387682,55.97992],[14.1393247,55.9800533],[14.1390872,55.9803772],[14.1389089,55.9807658],[14.1386655,55.9807345],[14.13883,55.9814234],[14.1387035,55.9814418],[14.1387043,55.9814891],[14.1397245,55.9825228],[14.137796,55.9821184],[14.1362636,55.9820345],[14.136232,55.9804334],[14.1357924,55.9803468],[14.1352599,55.9800684],[14.1350787,55.9799687],[14.1347927,55.979911],[14.1345045,55.9797171],[14.1333361,55.9796195],[14.1325809,55.9795997],[14.132032,55.979934],[14.1312786,55.9800326],[14.1308301,55.9800467],[14.1300689,55.9806367],[14.1296539,55.9807631],[14.1294801,55.9807877],[14.1293446,55.9808979],[14.1288377,55.9808916],[14.1253194,55.9807615],[14.1245724,55.980271]]}},
{"type":"Feature","properties":{},"geometry":{"type":"LineString","coordinates":[[14.1318079,55.9788163],[14.1314985,55.978297],[14.1308645,55.9779391],[14.1302887,55.9779213],[14.1302888,55.9776016],[14.1302776,55.9775603],[14.1304373,55.9773167],[14.128822,55.9769964],[14.1277075,55.9769577],[14.1273322,55.9769271],[14.1273424,55.9772289],[14.1275565,55.9774113],[14.1280227,55.9778382],[14.12824,55.9782159],[14.1282998,55.9783222],[14.128332,55.9783575],[14.1284912,55.978407],[14.1289525,55.978532],[14.1293546,55.9785891],[14.1301085,55.9788457],[14.130699,55.9788013],[14.1312671,55.9799735],[14.1307819,55.9799996],[14.1307229,55.9799467],[14.1307209,55.9798223],[14.1303026,55.9797446],[14.1299017,55.9797673],[14.1293563,55.9796665],[14.1290354,55.9797362],[14.1285197,55.9798395],[14.1284315,55.9799376],[14.1273964,55.9799163],[14.1271822,55.979725],[14.1258907,55.979847],[14.1250803,55.9796794]]}},
{"type":"Feature","properties":{},"geometry":{"type":"LineString","coordinates":[[14.1421216,55.980616],[14.1468548,55.9807866],[14.1465815,55.9814925],[14.1416365,55.9812934],[14.1411415,55.9820063],[14.1414598,55.9820994],[14.1462986,55.9822576],[14.1460156,55.9830169],[14.1406483,55.9828317],[14.1403949,55.9828331],[14.1402081,55.9830294],[14.1362658,55.9821736],[14.1341347,55.98164],[14.1335947,55.9815481],[14.1329498,55.981504],[14.1323269,55.9815072],[14.1311463,55.9816317],[14.130408,55.9816828],[14.129711,55.9816745],[14.1293946,55.9816998],[14.1292473,55.9817302],[14.1291535,55.9818076],[14.1290804,55.9818612],[14.1290558,55.9819694],[14.1290684,55.9820167],[14.1287811,55.9820411],[14.1271406,55.9818038],[14.1251134,55.9814885],[14.1248489,55.9811287],[14.1247584,55.9807533],[14.1238526,55.9802369]]}}
]
}
