{
"type": "FeatureCollection",
"name": "outline",
"crs": { "type": "name", "properties": { "name": "urn:ogc:def:crs:OGC:1.3:CRS84" } },
"xy_coordinate_resolution": 1e-07,
"features": [
{"type":"Feature","properties":{},"geometry":{"type":"Polygon","coordinates":[[[14.1225943,55.9832689],[14.1205099,55.9796829],[14.1206961,55.9792486],[14.1206961,55.9792486],[14.1214078,55.9790155],[14.1263618,55.9782492],[14.1267242,55.9779113],[14.1267242,55.9779113],[14.1267427,55.9774715],[14.1257075,55.9764333],[14.1258884,55.9763531],[14.1258884,55.9763531],[14.1292411,55.9765917],[14.1324532,55.9772088],[14.1335534,55.9775668],[14.1356501,55.9781355],[14.136143,55.9782239],[14.1372589,55.9782976],[14.1430179,55.9784978],[14.148189,55.978681],[14.1502084,55.9787499],[14.1503238,55.9791858],[14.1504986,55.9798411],[14.1506298,55.980312],[14.1509251,55.9812006],[14.1511986,55.982094],[14.1514579,55.9829505],[14.1516511,55.9835934],[14.1517399,55.9839528],[14.1481499,55.9839158],[14.1468254,55.9839001],[14.1466532,55.9839086],[14.1467036,55.9830835],[14.1446763,55.9830099],[14.144372,55.9830403],[14.1443832,55.9838182],[14.1443832,55.9838182],[14.1444151,55.9839051],[14.1444344,55.9844561],[14.1442761,55.9844854],[14.1438699,55.9848435],[14.1431712,55.9852904],[14.1429163,55.9854448],[14.1429163,55.9854448],[14.1416528,55.9848463],[14.1405183,55.984238],[14.1394482,55.9846025],[14.1385385,55.9843269],[14.1369561,55.9836577],[14.1333336,55.982872],[14.1333336,55.982872],[14.1325111,55.9827253],[14.1324385,55.9827768],[14.133891,55.985841],[14.1332698,55.9859109],[14.1275757,55.986722],[14.1275757,55.986722],[14.1260819,55.9839683],[14.1232151,55.9843765],[14.1225943,55.9832689]]]}}
]
}
