{"type":"FeatureCollection","name":"program","features":[{"type":"Feature","properties":{"fid":39,"handle":2315,"block":-1,"etype":18,"space":0,"layer":"J26_Program","olinetype":"BYLAYER","linetype":"","color":"0,0,255,255","ocolor":5,"color24":-1,"transparency":0,"lweight":-1,"linewidth":0,"ltscale":1,"visible":1,"width":0,"thickness":0,"ext":"(3:0,0,0.1)","name":"labyrint"},"geometry":{"type":"LineString","coordinates":[[14.12610411155214,55.98274026162906],[14.126099584356794,55.98273019100495],[14.12609680824001,55.982719923579836],[14.126095808904042,55.98270955441832],[14.126096595600155,55.98269917952684],[14.126099161043031,55.98268889496484],[14.126103481478264,55.982678795955316],[14.126109516902357,55.98266897600321],[14.12611721143315,55.98265952602965],[14.12612649382727,55.982650533530126],[14.126137278139797,55.982642081764396],[14.126149464520035,55.98263424898565],[14.126162940136032,55.982627107715935],[14.126177580219291,55.98262072407472],[14.126193249219966,55.98261515716675],[14.127889682120191,55.98207467229981],[14.127906747791295,55.98206984521502],[14.127924583897652,55.982065987152495],[14.127943015157252,55.982063136026795],[14.127961860439436,55.98206131985693],[14.127980934544906,55.98206055649108],[14.128000050025689,55.98206085343107],[14.128019019027208,55.982062207758794],[14.128037655134362,55.98206460616476],[14.128821946643603,55.982188731392206],[14.128842151265012,55.982192616873526],[14.12886146392534,55.982197728531446],[14.129174188871565,55.98229269509209],[14.129190017367645,55.982298067290415],[14.1292048524227,55.9823042636414],[14.129218557390375,55.98231122707036],[14.129231006033368,55.98231889343712],[14.129242083686195,55.98232719212655],[14.129251688311397,55.98233604669922],[14.129259731439424,55.982345375595386],[14.129266138983562,55.98235509288622],[14.129772208362581,55.98325309894556],[14.129777120986976,55.98326364670753],[14.12978010667181,55.98327441789665],[14.129781134957621,55.98328530263288],[14.129780195352902,55.983296189877734],[14.1297772974412,55.983306968567035],[14.129772470783417,55.98331752874392],[14.129765764616321,55.98332776268056],[14.12975724735032,55.98333756597713],[14.129747005871632,55.98334683862682],[14.129735144655987,55.98335548603607],[14.12972178470286,55.98336341998959],[14.129707062301136,55.983370559550146],[14.129691127638793,55.983376831884506],[14.129674143270773,55.98338217300619],[14.12965628246069,55.98338652842837],[14.128241541809015,55.98368491049808],[14.128237266423044,55.98368587811713],[14.128226689250393,55.98368843827607],[14.128218414351656,55.98369070978964],[14.128210343037352,55.98369320002231],[14.128202493766505,55.98369590327901],[14.128194884490211,55.98369881337747],[14.12818753261084,55.9837019236623],[14.128180454941681,55.98370522702054],[14.12817366766955,55.98370871589731],[14.128167186316652,55.983712382313776],[14.128161025705422,55.98371621788514],[14.128155199925617,55.98372021383919],[14.128149722300533,55.98372436103746],[14.12814460535739,55.98372864999549],[14.128139860798653,55.98373307090448],[14.128135499475153,55.983737613653965],[14.128131531361275,55.98374226785472],[14.128127965532128,55.98374702286276],[14.128124810142825,55.98375186780349],[14.12812207240983,55.983756791596626],[14.12811975859444,55.98376178298155],[14.12811787398846,55.983766830543125],[14.128116422902131,55.98377192273758],[14.128115408654208,55.98377704791927],[14.128114833564442,55.98378219436699],[14.128114698948233,55.9837873503108],[14.128115005113617,55.98379250395924],[14.128115938162628,55.98379893007253],[14.128116421363444,55.98380149596451],[14.128199630216468,55.98416068536043],[14.12820115667618,55.98417157876529],[14.128200706223511,55.98418250268283],[14.128198283474706,55.984193345124105],[14.128193913265475,55.98420399493542],[14.128187640396458,55.98421434293772],[14.128179529173995,55.98422428304597],[14.128169662750931,55.984233713356645],[14.128158142274206,55.9842425371925],[14.128145085847958,55.984250664093615],[14.128130627322765,55.98425801074489],[14.128114914923465,55.98426450183005],[14.12809810972959,55.98427007080389],[14.128080384023994,55.9842746605745],[14.12806191952664,55.9842782240885],[14.127211625225977,55.984415803257484],[14.127193356900463,55.984418226977596],[14.12717475392674,55.984419645772974],[14.127155992514847,55.98442004620452],[14.127137250375622,55.984419424479384],[14.127118705037336,55.98441778648654],[14.127100532164093,55.98441514774133],[14.12708290389186,55.98441153323837],[14.127065987197954,55.98440697721468],[14.127049942319356,55.98440152282557],[14.127034921234921,55.98439522173575],[14.127021066225785,55.98438813362998],[14.127008508527656,55.984380325647656],[14.126997367087741,55.98437187174693],[14.126987747438069,55.984362852004146],[14.126979740695901,55.98435335185525],[14.126973422700699,55.984343461286606],[14.12610411155214,55.98274026162906]]}},{"type":"Feature","properties":{"fid":140,"handle":2626,"block":-1,"etype":18,"space":0,"layer":"J26_Program","olinetype":"BYLAYER","linetype":"","color":"0,0,255,255","ocolor":5,"color24":-1,"transparency":0,"lweight":-1,"linewidth":0,"ltscale":1,"visible":0,"width":0,"thickness":0,"ext":"(3:0,0,0.1)","name":"vagorna"},"geometry":{"type":"LineString","coordinates":[[14.130369946961071,55.98260923679133],[14.130379548626902,55.982600438942804],[14.130390606880699,55.98259219372171],[14.130403020831729,55.982584576353204],[14.130416677220776,55.982577656334236],[14.130431451453466,55.98257149679939],[14.130447208737005,55.98256615394505],[14.130463805309951,55.98256167651657],[14.130481089753802,55.98255810536359],[14.130498904374432,55.98255547306738],[14.130517086640792,55.98255380364361],[14.130535470667702,55.98255311232318],[14.130553888729287,55.98255340541334],[14.130645289359334,55.98255731001969],[14.130672618303272,55.982559587767305],[14.13163224243626,55.98267939319303],[14.131633226552207,55.98267951303776],[14.131636182179772,55.98267986393923],[14.131637168481443,55.982679978028706],[14.131909623595215,55.98271066472268],[14.131914425108542,55.98271113520665],[14.13192647203436,55.98271214080184],[14.131936167136685,55.98271267164931],[14.131945897801264,55.98271292774328],[14.131955639166566,55.9827129084295],[14.131965366342586,55.982712613757286],[14.131975054475458,55.98271204447953],[14.131984678811568,55.98271120205077],[14.13199421476013,55.98271008862349],[14.13200363795598,55.98270870704256],[14.132012924322266,55.98270706083805],[14.132024334868289,55.98270467687434],[14.132028856860188,55.98270365853819],[14.132139500475422,55.9826769047451],[14.132143749181255,55.98267580821874],[14.132154244001422,55.982672924911554],[14.132162427815457,55.982670393825515],[14.132170382547107,55.982667643646366],[14.132178089470916,55.98266468084805],[14.132185530444003,55.98266151240535],[14.13219268794988,55.98265814577695],[14.132199545139219,55.98265458888822],[14.132206085869493,55.982650850112485],[14.132212294743617,55.98264693825102],[14.132218157145605,55.98264286251254],[14.132223659274905,55.982638632491756],[14.132228788179043,55.982634258146604],[14.132233531784482,55.98262974977445],[14.132237878924615,55.982625117988334],[14.132241819365946,55.98262037369193],[14.132245343832542,55.98261552805368],[14.132249220103967,55.98260935695136],[14.132250663796077,55.98260686702102],[14.132280892751805,55.982550071917444],[14.13228218698092,55.98254738959513],[14.132285111287185,55.98254064298537],[14.132286950414986,55.98253518710671],[14.13228828504714,55.982529685494455],[14.132289111644377,55.982524152738996],[14.13228942801474,55.982518603513455],[14.132289233319428,55.9825130525346],[14.132288528074996,55.982507514523796],[14.132287314152,55.982502004168076],[14.132285164282488,55.98249516701724],[14.132284178222651,55.98249244400647],[14.131945368935764,55.98166667252118],[14.131942045762129,55.98165625283851],[14.131940563007298,55.981645701147194],[14.131940934932347,55.98163511894376],[14.131943157958228,55.98162460801813],[14.131947210700233,55.98161426947447],[14.13195305417377,55.98160420275888],[14.131960632169392,55.98159450470252],[14.131969871793526,55.98158526859043],[14.131980684169674,55.98157658326419],[14.131992965293351,55.98156853226731],[14.132006597032507,55.98156119304172],[14.13202144826386,55.98155463618279],[14.132037376134155,55.98154892476039],[14.13205422743426,55.98154411371213],[14.132071840072848,55.98154024931504],[14.13209004463552,55.98153736874035],[14.132108666014359,55.981535499696015],[14.132224328764503,55.98152714110176],[14.132242139213854,55.98152632095407],[14.13243150900677,55.98152252786279],[14.132432900161554,55.98152250280797],[14.132645641016284,55.98151910094281],[14.132909301389104,55.98151483743599],[14.13292628727782,55.98151498141594],[14.133140002063941,55.98152206744604],[14.133147984654693,55.98152242527593],[14.133510044465284,55.981542894094666],[14.133524207557004,55.9815439927661],[14.133538186272029,55.981545675359484],[14.133862169390252,55.98159176232727],[14.133877677219832,55.981594360424744],[14.133892741060015,55.98159767683136],[14.135535050913319,55.98200453920264],[14.135744868283611,55.982056001693174],[14.135747567845156,55.9820566776694],[14.136503076226287,55.982249758296334],[14.136505660855976,55.98225039341251],[14.136513467165226,55.9822522358752],[14.136516085140357,55.9822528286662],[14.13804672451392,55.98258489313791],[14.138049217179796,55.982585445066334],[14.138243963281457,55.98262944379623],[14.13826106562147,55.98263386266254],[14.13827731597822,55.98263919369981],[14.138292559376087,55.98264538606741],[14.138306650442335,55.98265238071034],[14.138319454793496,55.98266011092254],[14.138330850316954,55.982668502982975],[14.13834072833551,55.982677476858655],[14.138348994643827,55.9826869469679],[14.138355570406876,55.982696822996594],[14.138360392911808,55.98270701075924],[14.138363416166065,55.982717413097475],[14.138364611336064,55.982727930806405],[14.138363967022226,55.98273846358085],[14.138361489367748,55.98274891097184],[14.138357202000073,55.982759173344625],[14.138351145805615,55.98276915282881],[14.138343378539886,55.98277875425183],[14.138333974276737,55.9827878860466],[14.13832302270197,55.98279646112461],[14.13831062825805,55.98280439770674],[14.136985574100033,55.98357357230838],[14.136971249403414,55.98358108204577],[14.13695563454338,55.983587738426635],[14.136938891234681,55.98359347251415],[14.136921192879097,55.983598224923156],[14.136902722769577,55.983601946435286],[14.136883672191933,55.983604598508606],[14.136864238443755,55.983606153676895],[14.13684462279104,55.983606595834004],[14.136825028383734,55.98360592040075],[14.136805658151744,55.98360413437223],[14.136786712703245,55.98360125624551],[14.136768388247026,55.98359731582797],[14.13675087456041,55.9835923539286],[14.136688453356518,55.98357237430993],[14.13668489696903,55.98357129078654],[14.136675909473981,55.98356868791822],[14.13666857101714,55.98356677669525],[14.136659224903596,55.98356460477032],[14.136655453348297,55.98356377980901],[14.134013759786217,55.98302140660405],[14.134009625995454,55.98302061678273],[14.133997135088514,55.983018405616164],[14.13399294160784,55.983017721326384],[14.13347784643084,55.982940703881305],[14.1334736243755,55.98294012927097],[14.133463018378498,55.98293882666517],[14.133454460244439,55.982937999640896],[14.133445844207621,55.98293738911776],[14.13343718775866,55.98293699633513],[14.133426336168885,55.98293677847926],[14.13342199136092,55.98293674605084],[14.132830319069875,55.98293978639477],[14.132825422845235,55.982939881163695],[14.13281320330278,55.982940291738245],[14.132803472929044,55.98294089733614],[14.132791390864629,55.98294199924226],[14.132786577124765,55.98294250880101],[14.132373615078619,55.98299233189965],[14.1323513737244,55.98299426375343],[14.132328881536946,55.98299473313315],[14.131962808289224,55.98299041339436],[14.131943659434176,55.98298965290717],[14.1309523573526,55.98292241330263],[14.130935725739224,55.982920869965575],[14.13091939851019,55.98291852014096],[14.130903500371604,55.982915381776586],[14.130474474623599,55.98281869892621],[14.130457571485863,55.98281434850004],[14.130441496159216,55.98280910728064],[14.130426398195569,55.98280302402822],[14.130412418054027,55.982796155336594],[14.130399685794156,55.98278856510665],[14.13038831986601,55.98278032395183],[14.130378426008177,55.98277150854125],[14.130370096264091,55.982762200886384],[14.130363408125762,55.982752487578054],[14.130339422757702,55.98271192048541],[14.130334186490575,55.98270126140835],[14.130330926770148,55.98269035858082],[14.130329677796707,55.982679326398504],[14.130330452673126,55.98266828061434],[14.13033324326746,55.9826573371238],[14.130338020298334,55.98264661074898],[14.130344733642241,55.98263621403387],[14.130353312859524,55.9826262560635],[14.130369946961071,55.98260923679133]]}},{"type":"Feature","properties":{"fid":141,"handle":2627,"block":-1,"etype":18,"space":0,"layer":"J26_Program","olinetype":"BYLAYER","linetype":"","color":"0,0,255,255","ocolor":5,"color24":-1,"transparency":-2,"lweight":-2,"linewidth":0,"ltscale":1,"visible":1,"width":0,"thickness":0,"ext":"(3:0,0,0.1)","name":"riktningens-borg"},"geometry":{"type":"LineString","coordinates":[[14.140772806891269,55.97876397791139],[14.140778172593183,55.97875373534236],[14.140785320416411,55.97874383942326],[14.14079418044111,55.97873438695386],[14.140804665999237,55.97872547039617],[14.140816674522332,55.978717176969944],[14.140830088544865,55.97870958779954],[14.14084477685327,55.978702777120475],[14.140860595769444,55.97869681155311],[14.14087739055619,55.97869174945116],[14.140894996930781,55.97868764033083],[14.14091324267193,55.97868452438651],[14.140931949304372,55.97868243209749],[14.14095093384464,55.97868138393008],[14.140970010590905,55.97868139013714],[14.142664984988155,55.978728885531545],[14.142683755485008,55.978729928063835],[14.142702254223844,55.978731991417405],[14.14272030429205,55.978735055859374],[14.142737733067765,55.97873909208298],[14.142754373870721,55.97874406148778],[14.142770067556249,55.97874991654891],[14.142784664037256,55.978756601271435],[14.142798023719552,55.97876405172596],[14.142810018836874,55.97877219665996],[14.142820534672778,55.97878095817917],[14.142829470657752,55.978790252492594],[14.142836741331038,55.97879999071375],[14.142842277157984,55.97881007971076],[14.142846025195064,55.97882042299703],[14.14286725814803,55.978898437959025],[14.142869144997666,55.97890855526599],[14.14286932089873,55.978918727025544],[14.142867784287048,55.97892886286503],[14.142864548813588,55.97893887273068],[14.142519887689176,55.979777313647915],[14.142519218879759,55.97977899148089],[14.142390072439872,55.98011774220452],[14.142385349702797,55.98012775021506],[14.142378934938723,55.98013745904943],[14.14206219999995,55.980554199999986],[14.141750429458485,55.98096437324391],[14.141748710310937,55.98096679587074],[14.141744677089394,55.98097290590087],[14.141741876999014,55.980977874102216],[14.141738916326558,55.9809841733411],[14.141737840695747,55.98098670949097],[14.141701888858307,55.981081629725594],[14.141697067035016,55.981091859001054],[14.141690478192013,55.98110177500063],[14.141682185643294,55.98111128243678],[14.141672269074741,55.98112028994796],[14.14166082377843,55.98112871097656],[14.141647959736934,55.98113646460077],[14.14163380056648,55.98114347631206],[14.141618482329065,55.981149678731406],[14.141602152224971,55.98115501225652],[14.141485581831297,55.981188913268646],[14.141468940816537,55.98119320405712],[14.141451647172035,55.981196592112816],[14.141433856943594,55.981199046864205],[14.141415730657961,55.98120054616133],[14.1413974318743,55.98120107647554],[14.141379125708323,55.98120063302165],[14.141360977342353,55.98119921980106],[14.141343150534803,55.98119684956575],[14.141220706798162,55.98117708893373],[14.141203183784192,55.98117374355579],[14.141186314788174,55.981169473676026],[14.14117025522845,55.98116431863396],[14.14115515306566,55.981158325924376],[14.141141147439493,55.98115155075968],[14.141128367386772,55.981144055561174],[14.141116930652592,55.981135909384044],[14.14110694260552,55.98112718728102],[14.141028008522408,55.9810503750642],[14.141018931438927,55.98104037212251],[14.141011759469285,55.981029896042045],[14.14100657011083,55.98101906002531],[14.14100341943704,55.9810079811641],[14.141002341491669,55.980996779174255],[14.141003347920963,55.98098557510204],[14.141022970294753,55.980878543965915],[14.141025799232926,55.980868141101354],[14.141030425585866,55.98085794182562],[14.141036805368605,55.98084804310506],[14.14104487792614,55.980838539048534],[14.141054566510117,55.980829520012634],[14.141065779008551,55.98082107174278],[14.141196331877762,55.980732116558094],[14.141199780054432,55.98072962180102],[14.141208065305428,55.98072325096501],[14.141214147529892,55.98071794836165],[14.141221047704995,55.980711080243715],[14.141223664859124,55.980708287125964],[14.14133975125535,55.98057506496554],[14.141342030504628,55.9805722469067],[14.141347361778122,55.98056511795587],[14.141351034198786,55.980559289572504],[14.141354872282152,55.980551866125964],[14.141356255641497,55.980548871374474],[14.141382108352705,55.98048545158029],[14.141383041386916,55.98048287458823],[14.14138509170546,55.98047640529627],[14.14138627900123,55.98047119269314],[14.141387010956896,55.980465953916834],[14.14138728583414,55.980460701410195],[14.141387102980287,55.98045544764859],[14.141386462829818,55.98045020511046],[14.141385366903362,55.98044498624748],[14.141383817804076,55.980439803455155],[14.141381819211455,55.98043466904336],[14.141379375872585,55.98042959520687],[14.141376493590897,55.98042459399678],[14.141373179212374,55.98041967729166],[14.1413694406092,55.980414856769194],[14.141365286661149,55.980410143878714],[14.141360727234654,55.98040554981408],[14.14135577315897,55.98040108548669],[14.141350436200762,55.98039676149984],[14.14134472903619,55.98039258812358],[14.141338665220443,55.98038857527013],[14.141332259156059,55.98038473247059],[14.14132552605823,55.980381068852],[14.14131848191887,55.980377593115875],[14.141311143469082,55.980374313517665],[14.141303528138348,55.980371237846654],[14.14129565401398,55.98036837340789],[14.14128753979819,55.98036572700488],[14.14127920476326,55.98036330492308],[14.141270668705705,55.98036111291522],[14.141259769783291,55.98035866635116],[14.141255366793624,55.98035774701369],[14.141198024909068,55.980346656965345],[14.141180710619853,55.98034277443927],[14.141164147583607,55.9803379744023],[14.141148490690135,55.980332301742294],[14.141133886355222,55.980325809507384],[14.1411204711514,55.98031855840998],[14.14110837053078,55.98031061625901],[14.141097697651894,55.9803020573258],[14.141088552321495,55.98029296164944],[14.14108102006124,55.98028341428835],[14.14107517130796,55.98027350452482],[14.14107106075501,55.980263325030116],[14.140945922309797,55.97986460149055],[14.140944656422668,55.97985998317407],[14.140843417955578,55.979428481443314],[14.140842688268503,55.97942491175939],[14.140774661404722,55.97903467323217],[14.140774081861561,55.97903052050906],[14.140758159186603,55.97887873071025],[14.14075798411293,55.9788680644429],[14.140763239197668,55.97879506804133],[14.14076491534054,55.9787845711007],[14.140768413433996,55.97877421568331],[14.140772806891269,55.97876397791139]]}},{"type":"Feature","properties":{"fid":null,"handle":null,"block":null,"etype":null,"space":null,"layer":null,"olinetype":null,"linetype":null,"color":null,"ocolor":null,"color24":null,"transparency":null,"lweight":null,"linewidth":null,"ltscale":null,"visible":null,"width":null,"thickness":null,"ext":null,"name":"karantan"},"geometry":{"type":"LineString","coordinates":[[14.124742762675297,55.98092565370233],[14.124738128780582,55.980915554297766],[14.124735258602964,55.980905251840895],[14.124734178934187,55.98089484250532],[14.124734899851527,55.980884423462314],[14.124737414623771,55.980874091973675],[14.124741699774102,55.980863944483815],[14.12474771529932,55.980854075719456],[14.124755405043306,55.980844577805314],[14.124764697221293,55.98083553940417],[14.124775505090009,55.98082704488922],[14.12478772775745,55.980819173556434],[14.124801251124731,55.980811998884356],[14.124815948951209,55.98080558784818],[14.124831684032923,55.9808000002946],[14.124848309483403,55.98079528838308],[14.124865670104809,55.980791496099016],[14.124883603836693,55.980788658843146],[14.124901943268783,55.980786803101054],[14.124920517203718,55.980785946195965],[14.124939152255116,55.98078609612702],[14.128652537424117,55.980916487513475],[14.128671630081984,55.980917694076616],[14.12869041347009,55.98091995733204],[14.12870870122096,55.98092325482393],[14.12872631188467,55.980927553834775],[14.128743070729158,55.98093281171007],[14.128758811473864,55.980938976281536],[14.12877337793954,55.98094598638468],[14.128786625597833,55.98095377246561],[14.128798423005296,55.98096225727124],[14.12880865310757,55.980971356615655],[14.128817214400806,55.98098098021552],[14.128824021938831,55.98099103258576],[14.128829008176009,55.98100141398696],[14.128938168080447,55.98128420916403],[14.128938995128733,55.98128617302676],[14.128941225847397,55.98129105882954],[14.12894327006509,55.98129492680088],[14.128946147121582,55.981299705686716],[14.128947361968155,55.981301605399935],[14.12900590525993,55.981388022538255],[14.129011854803178,55.981398341673675],[14.12901592349673,55.98140894272614],[14.129079637646816,55.98162807519263],[14.129081441698169,55.98163622665328],[14.129082132380505,55.981644431265984],[14.129084623755043,55.98179934138633],[14.129083812150855,55.98181024889715],[14.129081034956233,55.98182105472518],[14.129053856302411,55.98189868948591],[14.129049488552948,55.98190863669504],[14.129043454791312,55.981918307432565],[14.12903580937231,55.98192761457827],[14.129026621169746,55.98193647428726],[14.129015972955994,55.981944806745446],[14.129003960656359,55.98195253688847],[14.128951140410502,55.98198343514416],[14.128938076432812,55.981990394442875],[14.128923907567234,55.98199664058428],[14.128908757722117,55.98200211894492],[14.128892759384797,55.98200678161572],[14.128824495205741,55.98202445828292],[14.12880672041734,55.98202847379728],[14.128788321006772,55.98203148251052],[14.128769478673526,55.982033454710724],[14.128750379491196,55.98203437092184],[14.128731212069896,55.982034222095976],[14.128712165693639,55.982033009702846],[14.12869342845105,55.982030745715214],[14.128136230298512,55.98194701139596],[14.128131710521757,55.9819463971407],[14.12812035346032,55.98194501503967],[14.128111185487299,55.98194415595797],[14.128101954136772,55.9819435451842],[14.12809268088358,55.98194318413922],[14.128083387299252,55.98194307366291],[14.12807409500281,55.98194321401226],[14.128064825610686,55.981943604860795],[14.128055600685636,55.98194424529927],[14.128046441686923,55.981945133837904],[14.12803736992117,55.98194626840967],[14.128028406490682,55.9819476463754],[14.1280195722468,55.98194926452957],[14.128010887740254,55.98195111910795],[14.128002373173274,55.98195320579633],[14.127991964421565,55.98195609898433],[14.127987850101594,55.98195731265989],[14.126207070581648,55.98251371045013],[14.126190083924845,55.982518420687846],[14.126172352824895,55.982522175321954],[14.126154048552275,55.982524938085206],[14.126135347914055,55.982526682291116],[14.126116431546038,55.98252739109179],[14.126097482167875,55.9825270576407],[14.126078682818093,55.98252568515878],[14.126060215086001,55.98252328690324],[14.126042257357621,55.982519886039704],[14.12602498309256,55.98251551541824],[14.126008559148469,55.98251021725615],[14.12599314416928,55.982504042730135],[14.125978887052804,55.98249705148195],[14.125965925512455,55.982489311042315],[14.125954384747038,55.98248089617862],[14.125944376231432,55.98247188817259],[14.125935996639829,55.982462374035336],[14.125929326911967,55.98245244566671],[14.125439541457505,55.98159801067843],[14.12543793792363,55.981595438458505],[14.125433642366282,55.98158906983199],[14.125429751727342,55.98158407990489],[14.125425415828406,55.98157920621146],[14.125420645724587,55.98157446117784],[14.1254154535778,55.98156985690188],[14.125409852626468,55.98156540512295],[14.125403857150788,55.98156111719122],[14.125397482436831,55.981557004039104],[14.125389057895077,55.98155209277247],[14.12538559873569,55.981550175511316],[14.125002331540522,55.981348213849664],[14.12498857720648,55.98134017811187],[14.124976374803213,55.98133139280569],[14.124965854026714,55.98132195130855],[14.124957126699025,55.98131195397229],[14.12495028557974,55.981301507056564],[14.124742762675297,55.98092565370233]]}},{"type":"Feature","properties":{"fid":70000,"handle":null,"block":null,"etype":null,"space":null,"layer":null,"olinetype":null,"linetype":null,"color":null,"ocolor":null,"color24":null,"transparency":null,"lweight":null,"linewidth":null,"ltscale":null,"visible":null,"width":null,"thickness":null,"ext":null,"name":"rover"},"geometry":{"type":"LineString","coordinates":[[14.137195030598242,55.98372584845911],[14.137179272345243,55.98372033540302],[14.137164535606953,55.98371399956734],[14.137150957179065,55.983706899765586],[14.137138663104858,55.983699101902744],[14.137127767505186,55.983690678363715],[14.137118371519147,55.98368170734129],[14.137110562365265,55.98367227211025],[14.137104412531897,55.98366246025442],[14.137099979104395,55.983652362853654],[14.137097303235244,55.98364207363832],[14.137096409762096,55.98363168811924],[14.137097306977282,55.983621302701124],[14.137099986550872,55.98361101378767],[14.137104423608069,55.983600916886694],[14.137110576960147,55.98359110572355],[14.137118389486846,55.983581671371134],[14.137127788666637,55.983572701404476],[14.137138687249948,55.98356427908793],[14.137150984069082,55.98355648260214],[14.138506657876146,55.98277615717517],[14.138520490415393,55.98276893934279],[14.138535520040005,55.98276251410919],[14.138551602238566,55.98275694325343],[14.138568582379307,55.982752280339625],[14.138586297196872,55.98274857020198],[14.13860457636211,55.982745848513666],[14.13862324411977,55.982744141443874],[14.13864212097835,55.982743465406166],[14.138661025435885,55.98274382690065],[14.138679775725045,55.9827452224516],[14.138698191560806,55.982747638640646],[14.138716095873852,55.98275105223608],[14.13959981782113,55.98294708430021],[14.139612386131652,55.98295016594379],[14.13989935047885,55.983027445803884],[14.139915783657084,55.983032433770035],[14.139931276544258,55.983038288269405],[14.139945683612279,55.98304495430957],[14.139958869532155,55.98305236927512],[14.139970710445173,55.983060463515805],[14.139981095126325,55.98306916100075],[14.139989926029095,55.98307838003263],[14.13999712020175,55.9830880340151],[14.140002610066558,55.9830980322661],[14.140006344054612,55.983108280869764],[14.140060720882618,55.983306086256206],[14.140062717660328,55.983317055317606],[14.140062703385114,55.983328081109256],[14.14006067820427,55.98333904854092],[14.140056663255494,55.98334984313156],[14.13997946422858,55.98351467123398],[14.139978160550065,55.98351784174175],[14.139975332113718,55.983525813579064],[14.139973761289996,55.983532253116024],[14.139972668201658,55.98354035743414],[14.139972405700354,55.983543607427954],[14.13996952530823,55.983651046088475],[14.139968311065644,55.983661624233974],[14.139965247664065,55.98367208471327],[14.139960364656226,55.983682326608694],[14.13995370914964,55.983692251111314],[14.13994534535218,55.98370176247422],[14.139683032304335,55.98396639754321],[14.139674525156517,55.9839741842658],[14.139664872428861,55.983981541061965],[14.139339876599829,55.98420845679414],[14.139327885108932,55.984216066766585],[14.139314669264525,55.984223013215626],[14.139130595007241,55.984311028617405],[14.139115515251563,55.9843175463395],[14.139099359568307,55.98432319995565],[14.139082285605143,55.984327934297525],[14.13906445997056,55.98433170316711],[14.13904605660808,55.98433446978757],[14.139027255098858,55.98433620716199],[14.139008238909295,55.98433689833696],[14.138989193600704,55.984336536567966],[14.138970305018557,55.98433512538517],[14.138951757478933,55.98433267855898],[14.138411588699789,55.98424545658195],[14.138393669427536,55.98424202159548],[14.13837643873265,55.98423762004674],[14.138360062744908,55.98423229437339],[14.138344699353238,55.984226095922985],[14.13730957062196,55.98376359756594],[14.137306445405974,55.983762258694405],[14.137298514536424,55.983759002494914],[14.137291986337898,55.98375654500309],[14.13728360724631,55.98375366143888],[14.137280213101075,55.98375254614531],[14.137195030598242,55.98372584845911]]}}]}