{
"type": "FeatureCollection",
"name": "roads",
"crs": { "type": "name", "properties": { "name": "urn:ogc:def:crs:OGC:1.3:CRS84" } },
"xy_coordinate_resolution": 1e-07,
"features": [
{"type":"Feature","properties":{"width":1.0,"name":"Norrbys väg"},"geometry":{"type":"LineString","coordinates":[[14.1390905,55.984502],[14.1398119,55.9839509],[14.140039,55.9836862],[14.1400787,55.983463],[14.1402378,55.9830283],[14.140372,55.982833],[14.1404741,55.9824432],[14.1406714,55.9816921],[14.1408074,55.9811724],[14.1409314,55.9807987],[14.1409938,55.9806362],[14.1410342,55.9804535],[14.1410231,55.9802225],[14.1407907,55.9792871],[14.1407355,55.9790116],[14.1407394,55.9788089],[14.1407437,55.9786315]]}},
{"type":"Feature","properties":{"width":1.0,"name":"Gyllenstiernas väg"},"geometry":{"type":"LineString","coordinates":[[14.1256136,55.9764589],[14.1258443,55.9764719],[14.1262537,55.9765185],[14.1275564,55.9765868],[14.1290582,55.9766704],[14.1300487,55.9768843],[14.1313324,55.9771129],[14.1324198,55.9774986],[14.1327218,55.9776167],[14.1352132,55.9782891],[14.1360366,55.978447],[14.1407437,55.9786315],[14.1503357,55.9790191]]}},
{"type":"Feature","properties":{"width":1.0,"name":"Norrbys väg"},"geometry":{"type":"LineString","coordinates":[[14.1390905,55.984502],[14.1398119,55.9839509],[14.140039,55.9836862],[14.1400787,55.983463],[14.1402378,55.9830283],[14.140372,55.982833],[14.1404741,55.9824432],[14.1406714,55.9816921],[14.1408074,55.9811724],[14.1409314,55.9807987],[14.1409938,55.9806362],[14.1410342,55.9804535],[14.1410231,55.9802225],[14.1407907,55.9792871],[14.1407355,55.9790116],[14.1407394,55.9788089],[14.1407437,55.9786315]]}},
{"type":"Feature","properties":{"width":1.0,"name":"Magnus Stenbocks väg"},"geometry":{"type":"LineString","coordinates":[[14.1402378,55.9830283],[14.1398325,55.9829523],[14.1363138,55.9821748],[14.1345564,55.9817338],[14.1340772,55.9816187],[14.1335261,55.9815323],[14.1329398,55.9814989],[14.1321517,55.981511],[14.1318775,55.9815489],[14.1304765,55.9816777],[14.130151,55.9816753],[14.1298541,55.9816485],[14.1295201,55.9815691],[14.129164,55.9814614],[14.1289814,55.9813529],[14.1288292,55.9808874],[14.128768,55.9806809],[14.1281392,55.9793623],[14.1274069,55.9779064],[14.126702,55.9772491],[14.1261226,55.9767411],[14.1258443,55.9764719],[14.1257554,55.9763933]]}},
{"type":"Feature","properties":{"width":1.0,"name":"Allemansavenyn"},"geometry":{"type":"LineString","coordinates":[[14.1362733,55.9821647],[14.1362803,55.9812916],[14.1362335,55.9804242],[14.1362217,55.9797025],[14.1361707,55.9794615],[14.1360499,55.9791499],[14.13603,55.9790365],[14.1360104,55.9787244],[14.1360102,55.9784913],[14.1360366,55.978447]]}},
{"type":"Feature","properties":{"width":1.0,"name":"Umgängeskretsen"},"geometry":{"type":"LineString","coordinates":[[14.1273324,55.9769263],[14.1276758,55.9769533],[14.1288117,55.9769939],[14.130437,55.9773128],[14.1313228,55.977485],[14.1317235,55.9776443]]}},
{"type":"Feature","properties":{"width":1.0,"name":"Empatistigen"},"geometry":{"type":"LineString","coordinates":[[14.1323234,55.9815084],[14.1324205,55.9812816],[14.1325643,55.981055],[14.1325013,55.9809228],[14.1325146,55.9808741],[14.1326886,55.9807774],[14.1327565,55.9804855],[14.1326754,55.9802562],[14.1327291,55.980101],[14.1331576,55.9798086],[14.1332067,55.9796626],[14.1333558,55.9796159]]}},
{"type":"Feature","properties":{"width":1.5,"name":null},"geometry":{"type":"LineString","coordinates":[[14.1333558,55.9796159],[14.1335349,55.9790007],[14.1346826,55.9791007],[14.1345073,55.979715],[14.1333558,55.9796159]]}},
{"type":"Feature","properties":{"width":1.0,"name":"Bästisboulevarden"},"geometry":{"type":"LineString","coordinates":[[14.1284205,55.9799522],[14.1285049,55.9798508],[14.1293637,55.9796639],[14.1298994,55.9797701],[14.1303111,55.9797418],[14.1307222,55.9798171],[14.1307219,55.9799458],[14.1308148,55.9800425],[14.1311848,55.9800432],[14.1320402,55.9799325],[14.1325804,55.9796015],[14.133187,55.9796049],[14.1333558,55.9796159]]}},
{"type":"Feature","properties":{"width":1.0,"name":"Bästisboulevarden"},"geometry":{"type":"LineString","coordinates":[[14.1345073,55.979715],[14.1348032,55.9799104],[14.1350805,55.9799654],[14.1357823,55.9803492],[14.1362335,55.9804242],[14.1371522,55.980627],[14.1384695,55.9806964],[14.1395845,55.9808534],[14.140758,55.981144],[14.1408151,55.9811493],[14.1416201,55.981305],[14.1428434,55.9813485],[14.1465998,55.9814845]]}},
{"type":"Feature","properties":{"width":1.0,"name":"Omtankegången"},"geometry":{"type":"LineString","coordinates":[[14.1424359,55.9802182],[14.1421308,55.9806084],[14.1416201,55.981305],[14.1411753,55.9820209],[14.1406547,55.9828298],[14.1422412,55.9828885],[14.1460259,55.9830211],[14.146736,55.9830475]]}},
{"type":"Feature","properties":{"width":1.0,"name":"Skrattgatan"},"geometry":{"type":"LineString","coordinates":[[14.1460259,55.9830211],[14.1463105,55.9822515],[14.1465998,55.9814845],[14.1468574,55.9807833],[14.1470099,55.9803781]]}},
{"type":"Feature","properties":{"width":1.0,"name":"Ljusspårsgatan"},"geometry":{"type":"LineString","coordinates":[[14.1463105,55.9822515],[14.1426735,55.9821234],[14.1414737,55.9820824],[14.1411753,55.9820209],[14.1406139,55.9819109],[14.139224,55.9815689],[14.139193,55.9815402],[14.139075,55.9814843],[14.1388915,55.9814301],[14.1388352,55.9814291],[14.1386995,55.9814364],[14.1386503,55.981434],[14.1362801,55.9813162]]}},
{"type":"Feature","properties":{"width":1.0,"name":"Drömstigen"},"geometry":{"type":"LineString","coordinates":[[14.1362743,55.9820345],[14.1378067,55.9821159],[14.1397575,55.9825364],[14.1403968,55.9827383]]}},
{"type":"Feature","properties":{"width":1.0,"name":"Drömstigen"},"geometry":{"type":"LineString","coordinates":[[14.1397575,55.9825364],[14.1396672,55.9824581],[14.1387049,55.981481],[14.1386995,55.9814364]]}},
{"type":"Feature","properties":{"width":1.0,"name":"Drömstigen"},"geometry":{"type":"LineString","coordinates":[[14.1388352,55.9814291],[14.138678,55.9807257]]}},
{"type":"Feature","properties":{"width":1.0,"name":"Drömstigen"},"geometry":{"type":"LineString","coordinates":[[14.1389171,55.9807594],[14.1390895,55.9803734],[14.139323,55.9800466]]}},
{"type":"Feature","properties":{"width":1.0,"name":"Drömstigen"},"geometry":{"type":"LineString","coordinates":[[14.139323,55.9800466],[14.1402265,55.9797373],[14.1400512,55.9790476]]}},
{"type":"Feature","properties":{"width":1.0,"name":null},"geometry":{"type":"LineString","coordinates":[[14.1406547,55.9828298],[14.140372,55.982833]]}},
{"type":"Feature","properties":{"width":1.0,"name":"Skrattgatan"},"geometry":{"type":"LineString","coordinates":[[14.1362217,55.9797025],[14.1373221,55.9798508],[14.1373737,55.9798558],[14.1388128,55.9799245],[14.139323,55.9800466],[14.1403739,55.9802932],[14.14095,55.9802955],[14.1410294,55.9803528],[14.1421308,55.9806084],[14.1468574,55.9807833]]}},
{"type":"Feature","properties":{"width":1.0,"name":"Tillsammansvägen"},"geometry":{"type":"LineString","coordinates":[[14.1346826,55.9791007],[14.1350265,55.9791375],[14.1358801,55.9791361],[14.1360499,55.9791499],[14.1373663,55.9793717],[14.1374295,55.9793684],[14.1380884,55.9792744],[14.1382904,55.9789543],[14.1395399,55.979001],[14.1400512,55.9790476],[14.1403825,55.9790813],[14.1407475,55.9790712]]}},
{"type":"Feature","properties":{"width":1.0,"name":null},"geometry":{"type":"LineString","coordinates":[[14.1373221,55.9798508],[14.1374295,55.9793684]]}},
{"type":"Feature","properties":{"width":1.0,"name":"Förändrarvägen"},"geometry":{"type":"LineString","coordinates":[[14.1422412,55.9828885],[14.1426156,55.9825153],[14.1426735,55.9821234],[14.1427185,55.981726],[14.1428434,55.9813485],[14.1428992,55.9811874],[14.1431965,55.9810027],[14.1433754,55.980984],[14.1435907,55.9806624]]}},
{"type":"Feature","properties":{"width":1.0,"name":"Kompisgatan"},"geometry":{"type":"LineString","coordinates":[[14.1290356,55.9797353],[14.1285253,55.9787319],[14.1286026,55.9786229],[14.1284763,55.9783931],[14.1283374,55.9783518],[14.1282932,55.9783121],[14.1281909,55.9780933],[14.1280247,55.9778327],[14.1279924,55.9777929],[14.1273431,55.977229],[14.1273324,55.9769263]]}},
{"type":"Feature","properties":{"width":1.0,"name":"Vänskapsvägen"},"geometry":{"type":"LineString","coordinates":[[14.1280247,55.9778327],[14.1302983,55.9779186],[14.1308598,55.9779401],[14.1315017,55.9782913],[14.1315222,55.9783333],[14.1318105,55.9788082],[14.1318755,55.9789186],[14.1314811,55.9789672],[14.1319485,55.9799444]]}},
{"type":"Feature","properties":{"width":1.0,"name":"Tillsammansvägen"},"geometry":{"type":"LineString","coordinates":[[14.1284763,55.9783931],[14.1289469,55.9785348],[14.1293687,55.9785891],[14.1300763,55.9788458],[14.1311954,55.9787703],[14.1318105,55.9788082],[14.1321206,55.9787988],[14.1333067,55.9789082]]}},
{"type":"Feature","properties":{"width":1.0,"name":"Patrullvägen"},"geometry":{"type":"LineString","coordinates":[[14.1305873,55.9788114],[14.1303758,55.9782843],[14.1303037,55.9780145],[14.1302983,55.9779186],[14.1302896,55.9776116],[14.1302775,55.9775589],[14.130437,55.9773128]]}},
{"type":"Feature","properties":{"width":1.0,"name":"Internationella gatan"},"geometry":{"type":"LineString","coordinates":[[14.1302488,55.9797461],[14.1303041,55.9794284],[14.1302668,55.9792154],[14.1301007,55.9788442]]}},
{"type":"Feature","properties":{"width":1.0,"name":"Hand-i-handgatan"},"geometry":{"type":"LineString","coordinates":[[14.1288292,55.9808874],[14.1293325,55.9808967],[14.1294889,55.9807947],[14.129995,55.9806697],[14.1300621,55.9806335],[14.1307106,55.981164],[14.131132,55.9816175],[14.1313698,55.9821166],[14.1314849,55.9822907]]}},
{"type":"Feature","properties":{"width":0.5,"name":null},"geometry":{"type":"LineString","coordinates":[[14.1275398,55.9773999],[14.1286328,55.9774396],[14.1289121,55.977492],[14.1291955,55.9775612],[14.1302123,55.9776025],[14.1302896,55.9776116]]}},
{"type":"Feature","properties":{"width":0.5,"name":null},"geometry":{"type":"LineString","coordinates":[[14.1313955,55.977514],[14.1311408,55.9777623],[14.1317108,55.9779873],[14.1313967,55.9782338]]}},
{"type":"Feature","properties":{"width":0.5,"name":null},"geometry":{"type":"LineString","coordinates":[[14.128861,55.9778643],[14.1289098,55.9774898]]}},
{"type":"Feature","properties":{"width":0.5,"name":null},"geometry":{"type":"LineString","coordinates":[[14.1262187,55.9768254],[14.1272738,55.9769076],[14.1273324,55.9769263]]}},
{"type":"Feature","properties":{"width":0.5,"name":null},"geometry":{"type":"LineString","coordinates":[[14.1282464,55.978212],[14.1294606,55.9782549],[14.130379,55.9782923]]}},
{"type":"Feature","properties":{"width":0.5,"name":null},"geometry":{"type":"LineString","coordinates":[[14.1290031,55.9782388],[14.1290478,55.9778713]]}},
{"type":"Feature","properties":{"width":0.5,"name":null},"geometry":{"type":"LineString","coordinates":[[14.1294606,55.9782549],[14.1294211,55.9786081]]}},
{"type":"Feature","properties":{"width":0.5,"name":null},"geometry":{"type":"LineString","coordinates":[[14.1298751,55.9797653],[14.1293807,55.9787808],[14.1296384,55.978687]]}},
{"type":"Feature","properties":{"width":0.5,"name":null},"geometry":{"type":"LineString","coordinates":[[14.1333067,55.9789082],[14.1330796,55.9783894],[14.1315222,55.9783333]]}},
{"type":"Feature","properties":{"width":0.5,"name":null},"geometry":{"type":"LineString","coordinates":[[14.1323604,55.9788209],[14.1324997,55.9783685]]}},
{"type":"Feature","properties":{"width":0.5,"name":null},"geometry":{"type":"LineString","coordinates":[[14.1307134,55.9788029],[14.1312974,55.9800286],[14.1315436,55.980556],[14.1317355,55.980555],[14.1321818,55.9806857],[14.1326946,55.9807515]]}},
{"type":"Feature","properties":{"width":0.5,"name":null},"geometry":{"type":"LineString","coordinates":[[14.1307106,55.981164],[14.1305321,55.9811947],[14.1303271,55.9812042],[14.130199,55.9811954],[14.1301104,55.9811832],[14.1297967,55.9811046],[14.1297454,55.9810774],[14.1296604,55.9807523],[14.1294253,55.9806032],[14.1293469,55.9804126],[14.1293442,55.9802407]]}},
{"type":"Feature","properties":{"width":1.0,"name":null},"geometry":{"type":"LineString","coordinates":[[14.130151,55.9816753],[14.1296816,55.9816686],[14.1294861,55.9816781],[14.1293546,55.9816977],[14.1292236,55.9817406],[14.1291007,55.9818214],[14.1290788,55.9818658],[14.1290512,55.98202],[14.1291205,55.9821104],[14.1293397,55.9821705],[14.1295063,55.9822287],[14.1296012,55.9822789],[14.1296708,55.9823904],[14.1297455,55.9825883],[14.1301579,55.9834134],[14.1309498,55.9848865],[14.1309992,55.9851479],[14.1308983,55.985427],[14.1306316,55.98569],[14.1303952,55.9859698],[14.1300699,55.9863344],[14.130087,55.9864609]]}},
{"type":"Feature","properties":{"width":1.0,"name":null},"geometry":{"type":"LineString","coordinates":[[14.1326598,55.9831094],[14.1301709,55.9834376],[14.1288332,55.9836629],[14.1269792,55.9839994],[14.1266112,55.9840519]]}},
{"type":"Feature","properties":{"width":1.0,"name":null},"geometry":{"type":"LineString","coordinates":[[14.1290788,55.9818658],[14.1290878,55.9817202],[14.1290704,55.9815789],[14.129046,55.9814629],[14.1289814,55.9813529]]}},
{"type":"Feature","properties":{"width":0.5,"name":null},"geometry":{"type":"LineString","coordinates":[[14.1296816,55.9816686],[14.1296953,55.9818141],[14.1298163,55.9820815]]}},
{"type":"Feature","properties":{"width":0.5,"name":null},"geometry":{"type":"LineString","coordinates":[[14.1303894,55.9816771],[14.130561,55.9820471]]}},
{"type":"Feature","properties":{"width":1.0,"name":null},"geometry":{"type":"LineString","coordinates":[[14.1318775,55.9815489],[14.1322635,55.9824636],[14.1322688,55.9825564],[14.1321317,55.9826352],[14.1320076,55.9826427],[14.1316939,55.9826066],[14.1302946,55.9824463],[14.1296012,55.9822789]]}},
{"type":"Feature","properties":{"width":1.0,"name":null},"geometry":{"type":"LineString","coordinates":[[14.1322635,55.9824636],[14.1326598,55.9831094]]}},
{"type":"Feature","properties":{"width":0.5,"name":null},"geometry":{"type":"LineString","coordinates":[[14.1325079,55.9796459],[14.1319696,55.9788034]]}},
{"type":"Feature","properties":{"width":0.5,"name":null},"geometry":{"type":"LineString","coordinates":[[14.1327348,55.9795766],[14.1327879,55.9793674],[14.1328739,55.9793353],[14.1333067,55.9789082]]}},
{"type":"Feature","properties":{"width":0.5,"name":null},"geometry":{"type":"LineString","coordinates":[[14.1348032,55.9799104],[14.1350265,55.9791375]]}},
{"type":"Feature","properties":{"width":0.5,"name":null},"geometry":{"type":"LineString","coordinates":[[14.1361707,55.9794615],[14.1351809,55.9795534],[14.1349102,55.9795401]]}},
{"type":"Feature","properties":{"width":0.5,"name":null},"geometry":{"type":"LineString","coordinates":[[14.1353206,55.9795404],[14.1353244,55.9800444],[14.1352604,55.9800638],[14.1352045,55.9800766],[14.1348019,55.9803129]]}},
{"type":"Feature","properties":{"width":0.5,"name":null},"geometry":{"type":"LineString","coordinates":[[14.1362286,55.980122],[14.1372843,55.9802115],[14.1386479,55.9802783],[14.1390855,55.9803824],[14.14025,55.9806577],[14.1409871,55.9806538]]}},
{"type":"Feature","properties":{"width":0.5,"name":null},"geometry":{"type":"LineString","coordinates":[[14.1362772,55.9816773],[14.1375465,55.9817385],[14.1380936,55.9814063]]}},
{"type":"Feature","properties":{"width":0.5,"name":null},"geometry":{"type":"LineString","coordinates":[[14.1379226,55.9821409],[14.1387122,55.9818991],[14.1390247,55.9818057]]}},
{"type":"Feature","properties":{"width":0.5,"name":null},"geometry":{"type":"LineString","coordinates":[[14.1381287,55.9820778],[14.1381917,55.9818343],[14.1381499,55.9818071],[14.137579,55.9817187]]}},
{"type":"Feature","properties":{"width":0.5,"name":null},"geometry":{"type":"LineString","coordinates":[[14.139224,55.9815689],[14.1392118,55.9816095],[14.1393121,55.9817589],[14.139415,55.9818322],[14.1392893,55.9819721],[14.1392175,55.9820015]]}},
{"type":"Feature","properties":{"width":0.5,"name":null},"geometry":{"type":"LineString","coordinates":[[14.1392893,55.9819721],[14.140517,55.9822797],[14.1409641,55.982349],[14.1418385,55.9824875],[14.1426156,55.9825153],[14.1445239,55.9825842],[14.146166,55.9826421]]}},
{"type":"Feature","properties":{"width":0.5,"name":null},"geometry":{"type":"LineString","coordinates":[[14.144478,55.9829669],[14.1445239,55.9825842]]}},
{"type":"Feature","properties":{"width":0.5,"name":null},"geometry":{"type":"LineString","coordinates":[[14.1444484,55.9825815],[14.1444889,55.9821873]]}},
{"type":"Feature","properties":{"width":0.5,"name":null},"geometry":{"type":"LineString","coordinates":[[14.1464566,55.9818641],[14.1428386,55.9817374],[14.1427185,55.981726]]}},
{"type":"Feature","properties":{"width":0.5,"name":null},"geometry":{"type":"LineString","coordinates":[[14.1427185,55.981726],[14.141833,55.9817014],[14.1414247,55.9816195],[14.1407699,55.9814875],[14.1406721,55.981487],[14.1394267,55.9811727],[14.1393817,55.9809545],[14.1394885,55.9808399]]}},
{"type":"Feature","properties":{"width":0.5,"name":null},"geometry":{"type":"LineString","coordinates":[[14.1444307,55.9821853],[14.1444752,55.9817947]]}},
{"type":"Feature","properties":{"width":0.5,"name":null},"geometry":{"type":"LineString","coordinates":[[14.1446404,55.9818005],[14.144674,55.9814148]]}},
{"type":"Feature","properties":{"width":0.5,"name":null},"geometry":{"type":"LineString","coordinates":[[14.1467431,55.9810945],[14.1449139,55.981028],[14.1433824,55.9809736],[14.1419006,55.9809224]]}},
{"type":"Feature","properties":{"width":1.0,"name":null},"geometry":{"type":"LineString","coordinates":[[14.1424359,55.9802182],[14.1470099,55.9803781]]}},
{"type":"Feature","properties":{"width":0.5,"name":null},"geometry":{"type":"LineString","coordinates":[[14.1452044,55.9807221],[14.1451719,55.9810374]]}},
{"type":"Feature","properties":{"width":0.5,"name":null},"geometry":{"type":"LineString","coordinates":[[14.1449139,55.981028],[14.1448731,55.981422]]}},
{"type":"Feature","properties":{"width":0.5,"name":null},"geometry":{"type":"LineString","coordinates":[[14.1428402,55.9829095],[14.1428091,55.9831909]]}},
{"type":"Feature","properties":{"width":0.5,"name":null},"geometry":{"type":"LineString","coordinates":[[14.141928,55.9828769],[14.1418892,55.9832732]]}},
{"type":"Feature","properties":{"width":0.5,"name":null},"geometry":{"type":"LineString","coordinates":[[14.1410389,55.982844],[14.1410307,55.9830277]]}},
{"type":"Feature","properties":{"width":0.5,"name":null},"geometry":{"type":"LineString","coordinates":[[14.1327063,55.980167],[14.1324067,55.9802298],[14.131982,55.9801465],[14.1320729,55.9799508],[14.1320402,55.9799325]]}},
{"type":"Feature","properties":{"width":0.5,"name":null},"geometry":{"type":"LineString","coordinates":[[14.1331291,55.979828],[14.1331854,55.9798596],[14.133487,55.9798866],[14.1338704,55.9798582],[14.1338715,55.9799258],[14.1339286,55.9799634],[14.134345,55.9799961],[14.134521,55.9799393],[14.1345863,55.9797672]]}},
{"type":"Feature","properties":{"width":0.5,"name":null},"geometry":{"type":"LineString","coordinates":[[14.1393795,55.978995],[14.13937,55.9800305]]}},
{"type":"Feature","properties":{"width":0.5,"name":null},"geometry":{"type":"LineString","coordinates":[[14.1373915,55.9795392],[14.1389381,55.9796179],[14.1393731,55.979698]]}},
{"type":"Feature","properties":{"width":0.5,"name":null},"geometry":null},
{"type":"Feature","properties":{"width":1.0,"name":null},"geometry":{"type":"LineString","coordinates":[[14.1400526,55.9836092],[14.1402976,55.9835991],[14.1403565,55.9837423],[14.1407097,55.9841583],[14.1408961,55.9842776],[14.141127,55.9843566],[14.1416641,55.9845163],[14.1418838,55.9845953],[14.142104,55.9847123],[14.1425942,55.9849862],[14.1429399,55.9851785],[14.143095,55.9852242],[14.1432679,55.9852085],[14.1434435,55.9851316],[14.1436596,55.9849975],[14.1438683,55.9848698],[14.1440578,55.984719],[14.1442101,55.9845958],[14.144314,55.9845109],[14.1445241,55.9844655],[14.1445404,55.9843135],[14.144526,55.9841278],[14.1444742,55.9839551],[14.1443786,55.9838669],[14.1441659,55.9837478],[14.1437468,55.9836719],[14.1431136,55.9836245],[14.1424502,55.9835689],[14.1418432,55.9835109],[14.1412591,55.9834675],[14.140894,55.9834694],[14.140597,55.9834941],[14.1404506,55.9835181],[14.1403496,55.9835545],[14.1402976,55.9835991]]}},
{"type":"Feature","properties":{"width":1.0,"name":null},"geometry":{"type":"LineString","coordinates":[[14.1445241,55.9844655],[14.1445329,55.9845435],[14.1445609,55.985092],[14.1445932,55.9859043],[14.144385,55.9858378],[14.1441838,55.9857313],[14.1439598,55.9856206],[14.1437357,55.9854973],[14.1434741,55.9853868],[14.1432465,55.9852803],[14.1429399,55.9851785]]}},
{"type":"Feature","properties":{"width":1.0,"name":null},"geometry":{"type":"LineString","coordinates":[[14.14339,55.985155],[14.1433248,55.9852377],[14.1433487,55.9853281]]}},
{"type":"Feature","properties":{"width":1.0,"name":null},"geometry":{"type":"LineString","coordinates":[[14.1261499,55.9767651],[14.1261192,55.9766661],[14.126152,55.9765984],[14.1262491,55.9765525],[14.1263361,55.9765228]]}},
{"type":"Feature","properties":{"width":0.5,"name":null},"geometry":{"type":"LineString","coordinates":[[14.1303729,55.9782734],[14.1315158,55.9783202]]}},
{"type":"Feature","properties":{"width":0.5,"name":null},"geometry":{"type":"LineString","coordinates":[[14.1310686,55.9783019],[14.1311781,55.9787715]]}},
{"type":"Feature","properties":{"width":1.0,"name":null},"geometry":{"type":"LineString","coordinates":[[14.1332828,55.9788536],[14.1338413,55.9789043],[14.1338035,55.9790241]]}},
{"type":"Feature","properties":{"width":0.5,"name":null},"geometry":{"type":"LineString","coordinates":[[14.1300621,55.9806335],[14.1308148,55.9800425]]}}
]
}
