{
"type": "FeatureCollection",
"name": "slanor",
"crs": { "type": "name", "properties": { "name": "urn:ogc:def:crs:OGC:1.3:CRS84" } },
"xy_coordinate_resolution": 1e-07,
"features": [
{"type":"Feature","properties":{"fid":571,"handle":49561,"block":-1,"etype":18,"space":0,"layer":"J26_Infrastruktur_Slanor","olinetype":"BYLAYER","linetype":"","color":"255,255,0,254","ocolor":256,"color24":-1,"transparency":0,"lweight":-1,"linewidth":0.0,"ltscale":1.0,"visible":1,"width":0.0,"thickness":0.0,"ext":"(3:0,0,0.1)"},"geometry":{"type":"LineString","coordinates":[[14.1401621,55.98336,0.0],[14.1403186,55.9833791,0.0],[14.1404206,55.9831158,0.0],[14.1402641,55.9830967,0.0],[14.1401621,55.98336,0.0]]}},
{"type":"Feature","properties":{"fid":572,"handle":49568,"block":-1,"etype":18,"space":0,"layer":"J26_Infrastruktur_Slanor","olinetype":"BYLAYER","linetype":"","color":"255,255,0,254","ocolor":256,"color24":-1,"transparency":0,"lweight":-1,"linewidth":0.0,"ltscale":1.0,"visible":1,"width":0.0,"thickness":0.0,"ext":"(3:0,0,0.1)"},"geometry":{"type":"LineString","coordinates":[[14.1285753,55.9803767,0.0],[14.1284181,55.9803941,0.0],[14.1284956,55.9806144,0.0],[14.1286528,55.980597,0.0],[14.1285753,55.9803767,0.0]]}},
{"type":"Feature","properties":{"fid":573,"handle":49570,"block":-1,"etype":18,"space":0,"layer":"J26_Infrastruktur_Slanor","olinetype":"BYLAYER","linetype":"","color":"255,255,0,254","ocolor":256,"color24":-1,"transparency":0,"lweight":-1,"linewidth":0.0,"ltscale":1.0,"visible":1,"width":0.0,"thickness":0.0,"ext":"(3:0,0,0.1)"},"geometry":{"type":"LineString","coordinates":[[14.1360739,55.9795588,0.0],[14.1359137,55.9795596,0.0],[14.1359174,55.9797841,0.0],[14.1360776,55.9797833,0.0],[14.1360739,55.9795588,0.0]]}}
]
}
