{"type":"FeatureCollection","name":"squares","features":[{"type":"Feature","properties":{"name":"Regntorget"},"geometry":{"type":"Polygon","coordinates":[[[14.128330490535797,55.98084013736774],[14.128319543205054,55.98083509276911],[14.128309531364547,55.98082947270478],[14.128300551234117,55.98082333118722],[14.128292689118084,55.980816727240324],[14.128286020575807,55.98080972433227],[14.128280609695539,55.98080238976541],[14.128276508478509,55.98079479402957],[14.128273756339182,55.98078701012449],[14.128272379726495,55.980779112858286],[14.128272391869691,55.980771178128514],[14.128273792651221,55.98076328219273],[14.128276568607886,55.98075550093561],[14.128280693060274,55.98074790913964],[14.128286126369202,55.98074057976643],[14.128292816316678,55.98073358325557],[14.128300698607786,55.98072698684752],[14.128309697488616,55.98072085393752],[14.128319726474313,55.98071524346634],[14.128330689180256,55.98071020935378],[14.128334180535829,55.98070876033836],[14.12834322193863,55.98070529696157],[14.128352705944314,55.98070222637715],[14.128378980688005,55.98069444725133],[14.12838196249203,55.98069351333128],[14.128389313046606,55.98069108174138],[14.1283950212535,55.98068898376557],[14.128400545958698,55.98068673728052],[14.128405874828237,55.980684347301505],[14.12841099596588,55.980681819164026],[14.128415897939156,55.98067915851188],[14.128420569804211,55.98067637128514],[14.12842500113166,55.98067346370596],[14.128429182028894,55.980670442265385],[14.12843460708214,55.98066611377507],[14.12844386345791,55.98065948915201],[14.128454298342373,55.980653437555794],[14.128465799114185,55.98064802429965],[14.128478241648349,55.980643307807306],[14.128491491655833,55.980639338982506],[14.128505406132929,55.980636160659635],[14.128519834904617,55.980633807141395],[14.128530156078892,55.98063244463847],[14.128544605561837,55.98063096583664],[14.128559248595066,55.98063031442805],[14.128573934214984,55.9806304971284],[14.128588511018958,55.98063151205416],[14.128602828726173,55.980633348741826],[14.128616739726954,55.98063598825596],[14.128630100604523,55.980639403384224],[14.128642773613542,55.98064355891805],[14.128654628100206,55.9806484120156],[14.128665541849207,55.980653912643376],[14.128675402343728,55.98066000409208],[14.128684107925439,55.98066662356133],[14.128694594369591,55.980675509267954],[14.128701965565249,55.98068249270912],[14.128708050590747,55.98068985380315],[14.128712788349352,55.980697518641854],[14.128716131271315,55.980705410267284],[14.128718045791521,55.9807134494444],[14.128720466282727,55.980729859546734],[14.128720949899584,55.980735750316306],[14.128721568924195,55.980772350150865],[14.12872166318088,55.980774067593465],[14.128722061564194,55.98077835588575],[14.12872264018626,55.980781775162775],[14.128723795114583,55.980786466877156],[14.128725033482624,55.98079429132612],[14.128724910339036,55.98080214608706],[14.128723426842836,55.980809957179275],[14.128720596965643,55.98081765103331],[14.128716447360123,55.98082515518389],[14.12871101710899,55.980832398952415],[14.12870435735693,55.980839314112764],[14.128696530828897,55.980845835533664],[14.12868761123937,55.98085190179241],[14.128677682598067,55.98085745575322],[14.128666838418699,55.98086244510543],[14.128655180838207,55.980866822856186],[14.128642819654775,55.98087054777311],[14.128629871293665,55.98087358477252],[14.128616457710642,55.98087590525007],[14.12860270524331,55.98087748735002],[14.128588743421156,55.98087831617112],[14.128574703745546,55.98087838390702],[14.128489695093688,55.980876484257955],[14.128472660796065,55.980875536526185],[14.128455945840544,55.98087346973372],[14.12840805742252,55.98086586079821],[14.12839559974695,55.98086353471342],[14.128383570446863,55.98086058615745],[14.128372068655658,55.98085703942931],[14.128361189159456,55.98085292375762],[14.128330490535797,55.98084013736774]]]}},{"type":"Feature","properties":{"name":"Regnbågstorget"},"geometry":{"type":"Polygon","coordinates":[[[14.132545474794119,55.979867557908356],[14.13253145601528,55.97986578404499],[14.132517821033108,55.97986324065651],[14.132504704434755,55.97985995284802],[14.132492235690469,55.97985595307258],[14.132480537875587,55.97985128081087],[14.132469726455705,55.97984598218152],[14.132459908146927,55.97984010948578],[14.132451179862509,55.97983372069136],[14.132443627756258,55.979826878860216],[14.132437326372145,55.97981965152605],[14.132432337908527,55.97981211002769],[14.132428711604224,55.97980432880497],[14.132426483252523,55.9797963846639],[14.132425674847914,55.9797883560186],[14.132426294369012,55.97978032211722],[14.132428335699842,55.97977236225973],[14.132431778690245,55.97976455501524],[14.132436589354805,55.97975697744637],[14.13244272020834,55.9797497043487],[14.132450110734634,55.97974280751235],[14.1324586879838,55.97973635501356],[14.132493529327487,55.979712696258126],[14.132501871151153,55.97970750518975],[14.132566874499304,55.97967040483346],[14.13257701754874,55.979665144141286],[14.132588012160513,55.97966044942114],[14.132599757840008,55.97965636358432],[14.132612147227727,55.979652923976644],[14.132625067080554,55.97965016203725],[14.132638399306847,55.97964810301115],[14.132652022045805,55.97964676571846],[14.132741239251343,55.9796404494446],[14.132753926492908,55.97963986708316],[14.13276665611887,55.979639910988766],[14.132779329563128,55.97964058082145],[14.132902995768555,55.979650204066886],[14.132917465601942,55.979651753798294],[14.132931578685412,55.979654118874556],[14.132945188652045,55.979657274767455],[14.132958154352654,55.97966118874721],[14.13297034131963,55.979665820221875],[14.132981623161493,55.97967112115841],[14.132991882873679,55.97967703658072],[14.133001014052008,55.97968350513978],[14.133008921996215,55.97969045975007],[14.133015524692077,55.979697828285055],[14.133020753662036,55.97970553432542],[14.133024727405122,55.97971242993229],[14.133028462763782,55.97972022213452],[14.133030793075076,55.97972818367885],[14.13303169518619,55.97973623546638],[14.13303116013364,55.97974429750148],[14.13302543131437,55.97978105743242],[14.13302355759491,55.979788770930014],[14.133020368111525,55.97979634804607],[14.133015892365922,55.97980371869286],[14.133010171757695,55.97981081469244],[14.133003259201406,55.97981757040734],[14.132995218637149,55.9798239233476],[14.132938684401376,55.97986432213133],[14.13292704119957,55.9798716752067],[14.13291389157007,55.979878184951765],[14.132849128991987,55.97990651859752],[14.13283814566126,55.979910878606724],[14.132826485258482,55.97991464830345],[14.132814248830998,55.97991779502],[14.132801542417985,55.979920291487346],[14.132788476131534,55.97992211607141],[14.132775163202398,55.97992325296054],[14.132761718998754,55.979923692302656],[14.132748260026407,55.97992343029041],[14.1327433716808,55.979923207327985],[14.132728456946793,55.979922087705425],[14.132713830787104,55.97992010730685],[14.132699651462492,55.979917287560966],[14.132686072398702,55.97991365897853],[14.132673240526312,55.97990926082222],[14.132661294690863,55.979904140681796],[14.132650364150486,55.9798983539591],[14.132642625115743,55.97989380727582],[14.13263990466496,55.97989229168076],[14.13263293011575,55.979888607103824],[14.132627080614116,55.97988583013513],[14.132620975963214,55.9798832307493],[14.132614633366227,55.97988081627145],[14.132608070696493,55.97987859350559],[14.132601306447732,55.979876568715454],[14.132594359681823,55.979874747606964],[14.132587249974685,55.979873135312],[14.132579997361788,55.97987173637405],[14.13257262228065,55.97987055473528],[14.132563273356086,55.979869353091765],[14.132559510179219,55.97986892789683],[14.132545474794119,55.979867557908356]]]}},{"type":"Feature","properties":{"name":"Koralltorget"},"geometry":{"type":"Polygon","coordinates":[[[14.12796833273953,55.97885239773128],[14.127963693019879,55.97884495170047],[14.127960370368905,55.97883728839763],[14.12795839632405,55.97882948056195],[14.127957789621895,55.97882160230454],[14.127958556020348,55.97881372840482],[14.12796068824402,55.97880593360085],[14.127964166053312,55.97879829187983],[14.127968956436565,55.97879087577589],[14.12797501392342,55.978783755681654],[14.127987678486763,55.97877056644074],[14.127995218636924,55.9787635828184],[14.12800397710013,55.97875705939994],[14.12801386487755,55.97875106247239],[14.128024781495087,55.97874565297289],[14.128036616024332,55.97874088586947],[14.128049248209754,55.978736809602516],[14.128062549690664,55.97873346559252],[14.128160014113686,55.978712197120984],[14.12817114163258,55.97871005629726],[14.128253748266639,55.97869623825782],[14.128267288543197,55.97869436595225],[14.128281088151525,55.97869323192065],[14.128295018812713,55.97869284670482],[14.128308951029634,55.97869321388563],[14.128322755290696,55.97869433004983],[14.128336303273747,55.978696184821764],[14.1283494690389,55.97869876095976],[14.128387663412765,55.97870741182389],[14.12840046242577,55.97871072569006],[14.12841262388767,55.978714721103024],[14.128424032214703,55.978719360090075],[14.128434578980857,55.97872459856186],[14.128444163948343,55.97873038673147],[14.128452696020275,55.97873666958762],[14.128460094106472,55.97874338741739],[14.128466287894149,55.97875047637385],[14.12850268903068,55.97879786301059],[14.128507875226173,55.97880570917058],[14.128511586242073,55.978813812927164],[14.128513782434652,55.97882208771225],[14.12851444034217,55.9788304451307],[14.12851355293555,55.978838795904615],[14.128511129693502,55.978847050826914],[14.128497325864194,55.97888250442949],[14.128493677666874,55.978890085473154],[14.128488733862197,55.97889743309358],[14.128482540965274,55.97890447815761],[14.128475157243921,55.97891115437879],[14.12846665217042,55.97891739894109],[14.128457105767898,55.97892315308982],[14.12839911834981,55.97895487073401],[14.12838860121425,55.97896008896072],[14.128377228531935,55.97896471145061],[14.128365107683214,55.978968694558176],[14.12835235311271,55.97897200067505],[14.128339085248744,55.97897459858487],[14.128325429366223,55.978976463758215],[14.12831151440379,55.97897757858417],[14.128204462724833,55.978983202591756],[14.128190023010815,55.9789835554305],[14.1281755924383,55.978983100335974],[14.12816131505708,55.978981841851024],[14.128147333387714,55.9789797925382],[14.128133786998841,55.97897697285426],[14.128120811113934,55.97897341094603],[14.128108535261454,55.97896914236943],[14.128097081981835,55.97896420973442],[14.12805087469803,55.978942167654395],[14.128040742852141,55.97893684350679],[14.128031571057544,55.978930999885975],[14.12802344399024,55.97892469074184],[14.128016436680914,55.97891797432204],[14.128010613822246,55.978910912634284],[14.12796833273953,55.97885239773128]]]}},{"type":"Feature","properties":{"name":"Strandtorget"},"geometry":{"type":"Polygon","coordinates":[[[14.127515411678958,55.977195967889784],[14.127501279511863,55.97719498197415],[14.12748738910092,55.977193223301214],[14.127473875080705,55.977190708917156],[14.127460868437506,55.97718746319295],[14.127448495239713,55.97718351758819],[14.127436875415865,55.97717891034613],[14.127426121592215,55.977173686123045],[14.127416338001083,55.97716789555529],[14.127407619470572,55.97716159476864],[14.127400050505443,55.977154844834104],[14.127393704468052,55.97714771117615],[14.127388642867295,55.977140262938455],[14.127384914762455,55.97713257231372],[14.127382556287708,55.977124713844056],[14.127377982174615,55.97710296281362],[14.12737701421169,55.97709495204811],[14.127377469505806,55.97708692703744],[14.127379343575779,55.97707896675126],[14.127382617979075,55.977071149522224],[14.127387260493315,55.97706355227535],[14.127412895962895,55.977027543399764],[14.127418786819387,55.97702032094211],[14.127425913933148,55.9770134561405],[14.127434208733813,55.977007015040996],[14.127443591416867,55.97700105961315],[14.127453971711438,55.97699564715389],[14.127465249748804,55.976990829736216],[14.127477317023233,55.976986653708266],[14.1274900574359,55.976983159247375],[14.127503348411857,55.97698037997354],[14.12751271114713,55.97697871001031],[14.127526764307941,55.97697663231985],[14.127541119174166,55.97697535422747],[14.127555630808063,55.976974888637784],[14.127570152689078,55.9769752402517],[14.127747592594554,55.97698455107418],[14.127760243172998,55.97698553171375],[14.127772689863022,55.976987132852585],[14.127784835645954,55.976989342010256],[14.127796585848577,55.97699214196692],[14.127822450230017,55.9769990751237],[14.127835072523208,55.977002900529705],[14.127846955047278,55.97700740708329],[14.127857980788164,55.97701255040596],[14.12786804116888,55.97701827984852],[14.127877037118758,55.977024538989916],[14.127884880049052,55.97703126619288],[14.127891492725327,55.97703839521078],[14.127896810028053,55.97704585584008],[14.127900779593894,55.977053574611595],[14.127903362331386,55.97706147551408],[14.127904532805925,55.97706948074265],[14.127904279490268,55.977077511465],[14.127902604878086,55.97708548859774],[14.127899525459437,55.97709333358518],[14.127895071558417,55.977100969172874],[14.12788928703457,55.97710832016844],[14.127882228851004,55.97711531418198],[14.127873966513462,55.97712188233899],[14.127838678378092,55.97714716900203],[14.127830256573214,55.97715267651724],[14.127820987934285,55.97715774038159],[14.12781094679263,55.97716231998446],[14.127800213674886,55.97716637859881],[14.127788874657217,55.977169883675764],[14.127706707522657,55.977192658264926],[14.12769250411701,55.9771960790028],[14.127677729264112,55.97719863188946],[14.127662551794785,55.97720028775335],[14.12764714514059,55.977201027673004],[14.127631685352014,55.97720084319346],[14.127515411678958,55.977195967889784]]]}},{"type":"Feature","properties":{"name":"Stimtorget"},"geometry":{"type":"Polygon","coordinates":[[[14.135813184469434,55.98197499098142],[14.135804252764895,55.98196859691795],[14.135796510404155,55.98196173463137],[14.135790035214459,55.98195447310288],[14.135784892285065,55.981946885326884],[14.135781133312957,55.9819390475773],[14.135778796083235,55.98193103864077],[14.135770466357629,55.981889486863885],[14.135769587271419,55.98188188631189],[14.13576998908718,55.981874273182946],[14.13577166824606,55.98186671489161],[14.13577460987829,55.98185927836692],[14.135778787934894,55.98185202945957],[14.135829851564123,55.9817759003884],[14.135835556129534,55.98176852989634],[14.135842538325212,55.98176151200007],[14.135850729396035,55.9817549158056],[14.135860048683064,55.981748806266346],[14.135870404417831,55.981743243543555],[14.135881694625995,55.98173828241387],[14.135893808131497,55.981733971730065],[14.135906625651323,55.981730353939746],[14.135920020970072,55.98172746466765],[14.136016943919937,55.98170959502334],[14.136031344317109,55.981707393706],[14.136046073518475,55.98170603430618],[14.13606097469856,55.98170553129774],[14.13607588920083,55.98170589003634],[14.136090658226902,55.98170710670237],[14.13610512452729,55.98170916834173],[14.136119134075638,55.98171205300362],[14.136132537708667,55.98171572997429],[14.136145192714308,55.98172016010416],[14.136147852873464,55.98172120190704],[14.136159303195361,55.981726182731826],[14.136169804535902,55.981731779945136],[14.136179251346205,55.9817379372896],[14.136187548676286,55.98174459287807],[14.136194613129407,55.98175167981549],[14.136200373700303,55.981759126871296],[14.136204772488878,55.98176685919536],[14.136207765282183,55.98177479907027],[14.13620932199884,55.98178286669248],[14.136217161700277,55.9818592103885],[14.136217328759312,55.98186638997675],[14.136216357832325,55.98187354959731],[14.136197504350418,55.98196095544425],[14.136195187042674,55.981968599240574],[14.136191573120753,55.98197608393026],[14.136186695742834,55.98198334083886],[14.13618059965979,55.981990303381785],[14.136173340804604,55.98199690767537],[14.136164985779182,55.98200309312293],[14.136155611243286,55.98200880297087],[14.136145303211148,55.98201398482928],[14.136134156262274,55.98201859115281],[14.13612227267365,55.98202257967678],[14.136106473003201,55.9820273223081],[14.13609300262926,55.982030878924036],[14.136078949989491,55.98203364183538],[14.13606446404224,55.98203558175519],[14.136049698339006,55.98203667812025],[14.136034809396769,55.982036919309046],[14.135970635563723,55.98203610942973],[14.13595725380981,55.982035592576814],[14.1359440151359,55.9820343845797],[14.13593103334435,55.98203249582264],[14.135918420029267,55.98202994254174],[14.135906283617205,55.98202674668551],[14.135894728435083,55.98202293572623],[14.135883853813377,55.98201854242362],[14.135873753232234,55.982013604543404],[14.135864513517896,55.98200816453253],[14.135813184469434,55.98197499098142]]]}},{"type":"Feature","properties":{"name":"Ålgrästorget"},"geometry":{"type":"Polygon","coordinates":[[[14.135831276365474,55.98073403279775],[14.135818977380296,55.98073088752844],[14.135807257053798,55.980727113510426],[14.135796217792304,55.9807227437193],[14.135785956051231,55.98071781633611],[14.135776561492309,55.980712374413926],[14.13576811620015,55.98070646550156],[14.135760693965048,55.980700141228155],[14.135754359638236,55.98069345685199],[14.135749168565264,55.98068647077776],[14.135745166102437,55.98067924404621],[14.135731683326965,55.980650154485744],[14.135728622021936,55.98064173127205],[14.135727174608402,55.980633173925995],[14.13572735740938,55.98062457895829],[14.135729168362134,55.98061604330388],[14.135732587041506,55.98060766322869],[14.135737574890292,55.980599533243925],[14.13575677498244,55.980572930301285],[14.135762837968379,55.980565604856565],[14.13577017508742,55.980558653746456],[14.135778713351623,55.98055214611828],[14.135788367824572,55.98054614670781],[14.135799042466308,55.98054071519515],[14.135810631088708,55.98053590561116],[14.135823018411815,55.980531765799945],[14.135867741046786,55.980518465623526],[14.135880082595056,55.98051520333294],[14.135892918755667,55.98051260630983],[14.135906135260226,55.9805106976731],[14.13591961445456,55.98050949441348],[14.135933236346052,55.98050900724254],[14.135946879671819,55.98050924049707],[14.135960422978167,55.98051019210063],[14.135973745701763,55.98051185358197],[14.136040053704907,55.980521981524085],[14.136053591593189,55.98052445586776],[14.136066629025581,55.980527662949434],[14.13607903965134,55.98053157168809],[14.136090703194236,55.9805361442027],[14.136101506618195,55.98054133617928],[14.136111345222744,55.980547097300395],[14.13612012365773,55.98055337173281],[14.136127756847383,55.98056009866857],[14.136134170814834,55.980567212914266],[14.136160666920945,55.980600593843306],[14.13616571655947,55.98060788656327],[14.136169484576763,55.9806154179022],[14.13617193579153,55.98062311754287],[14.136173047316909,55.980630913596634],[14.13617280877419,55.98063873327461],[14.136171222389738,55.98064650356734],[14.136168302974255,55.98065415192637],[14.136164077784509,55.98066160694169],[14.136158586268884,55.98066879900841],[14.136151879699092,55.980675660976665],[14.136144020691479,55.98068212877857],[14.136112939517568,55.980705223594],[14.136103750995868,55.98071138927093],[14.136093515979788,55.98071701538571],[14.136082335150348,55.98072204659444],[14.136070318492651,55.98072643340531],[14.136057584213924,55.98073013266538],[14.136000192462264,55.98074483151157],[14.135986566099524,55.98074786407161],[14.135972460996046,55.98075010926052],[14.135958022088177,55.98075154400797],[14.135943397742324,55.98075215357127],[14.135928738230392,55.980751931686854],[14.13591419418564,55.98075088063471],[14.13589991505482,55.980749011214876],[14.13588604756253,55.98074634263651],[14.135831276365474,55.98073403279775]]]}},{"type":"Feature","properties":{"name":"Trantorget"},"geometry":{"type":"Polygon","coordinates":[[[14.140732371789158,55.982561809938076],[14.140722127112072,55.982567258897134],[14.14071098082152,55.98257212253094],[14.140699039324636,55.98257635440914],[14.140686416620056,55.98257991413229],[14.140673233209641,55.982582767717666],[14.140659614948099,55.982584887923664],[14.140645691841492,55.98258625450981],[14.140631596806127,55.982586854430075],[14.140617464399654,55.982586681957336],[14.14060342953649,55.98258573873808],[14.140589626199844,55.982584033776725],[14.14057618616262,55.98258158334962],[14.140563237729445,55.98257841084965],[14.14055090451178,55.98257454656291],[14.140539304247875,55.98257002737966],[14.140528547678752,55.982564896442],[14.140518737491034,55.982559202732155],[14.140509967336644,55.98255300060481],[14.140502320938772,55.98254634926812],[14.140495871292622,55.98253931221864],[14.14049067996859,55.982531956635],[14.140486796524506,55.982524352736725],[14.140484258032552,55.98251657311376],[14.140483088725398,55.982508692033576],[14.140483299764881,55.98250078473213],[14.140484753700319,55.98248805330632],[14.14048651237668,55.982479626815746],[14.140489837989985,55.98247134959982],[14.140494694002353,55.98246331259628],[14.140501027062248,55.98245560410367],[14.140508767590665,55.98244830881136],[14.140517830545587,55.982441506869],[14.140528116356325,55.98243527300603],[14.140556392935144,55.982419843016594],[14.140566976096478,55.982414607068044],[14.14057842164046,55.98240997356102],[14.140590620424646,55.9824059866796],[14.140603456123982,55.9824026844418],[14.140616806340024,55.98240009833701],[14.140630543768108,55.982398253025714],[14.140644537411275,55.98239716610436],[14.140658653829396,55.98239684793762],[14.140672758411615,55.982397301559395],[14.140686716659939,55.98239852264409],[14.140700395471756,55.98240049954773],[14.140713664409038,55.982403213419005],[14.140726396942169,55.982406638379075],[14.140738471656459,55.98241074176832],[14.140749773409933,55.9824154844577],[14.14076019443128,55.98242082122203],[14.140769635347537,55.98242670117108],[14.140778006131686,55.9824330682349],[14.140785226961144,55.98243986169852],[14.140791228978939,55.982447016780874],[14.140795954950338,55.98245446525251],[14.140799359808655,55.982462136086276],[14.14080141108501,55.98246995613453],[14.140802089217981,55.98247785082674],[14.140801387740174,55.982485744880506],[14.14079931333992,55.982493563019496],[14.140795885797534,55.98250123069126],[14.140787387435259,55.982516939145754],[14.140782865508406,55.9825240751304],[14.140777171505901,55.98253094351537],[14.14077035524974,55.9825374842022],[14.140762476381749,55.98254363995974],[14.140753603841723,55.98254935692498],[14.140732371789158,55.982561809938076]]]}},{"type":"Feature","properties":{"name":"Glaciärtorget"},"geometry":{"type":"Polygon","coordinates":[[[14.136270632646873,55.97873311503063],[14.136256191796125,55.97873433156407],[14.136241605310078,55.97873472729848],[14.136227021837694,55.97873429820105],[14.136212589997225,55.9787330486446],[14.13619845686163,55.97873099136323],[14.136184766459753,55.97872814732242],[14.136171658308513,55.97872454550539],[14.136159265991097,55.97872022261777],[14.136147715795603,55.97871522271348],[14.136137125428062,55.97870959674585],[14.136127602812888,55.978703402048275],[14.13611924499306,55.97869670174995],[14.13611213714117,55.978689564132566],[14.136099184331117,55.978674856741065],[14.136093402471008,55.978667359921936],[14.13608899999578,55.978659575325345],[14.136086021706486,55.97865158217142],[14.13608449791086,55.978643461802655],[14.136079734583703,55.978594290394824],[14.136079661305265,55.978586365995426],[14.136080973405262,55.978578475567716],[14.136083658305267,55.978570694748086],[14.13608769026746,55.978563098122194],[14.136093030641353,55.978555758509984],[14.13609962823434,55.97854874626769],[14.136107419802427,55.978542128613405],[14.1361163306565,55.97853596898271],[14.136116720439992,55.97853572500715],[14.136126888444508,55.978529967829026],[14.136138033293623,55.97852480762413],[14.136150043540272,55.978520295993675],[14.136162799083687,55.97851647805323],[14.136176172370371,55.97851339198153],[14.136190029669615,55.9785110686388],[14.136204232410739,55.97850953125807],[14.13621863856878,55.97850879521284],[14.136410724818276,55.97850438142978],[14.1364256287818,55.978504468920505],[14.136440437548867,55.97850541396957],[14.13645499391679,55.97850720654483],[14.136469143362183,55.978509827617145],[14.136482735681275,55.97851324936249],[14.136495626584372,55.97851743545725],[14.13650767922756,55.97852234146385],[14.136518765665345,55.97852791530245],[14.136528768208871,55.978534097803795],[14.136537580675242,55.97854082333733],[14.13653861267189,55.978541702592864],[14.136545594473619,55.978548314818575],[14.1365514247529,55.97855526751555],[14.136556051017882,55.97856249808716],[14.136559431616622,55.97856994143504],[14.136561536112126,55.9785775305451],[14.136562345556394,55.978585197090894],[14.136561852661044,55.978592872048715],[14.136560061862957,55.97860048631914],[14.136553308455145,55.97862145357886],[14.136550081473196,55.9786292445709],[14.136545496024459,55.978636819348814],[14.136539596876718,55.9786441039587],[14.136532441623737,55.978651027279504],[14.136524100122973,55.97865752171753],[14.136514653813574,55.978663523866324],[14.13650419492128,55.97866897512565],[14.13649282555801,55.97867382227375],[14.136391183715956,55.978712870769826],[14.13637881305384,55.9787171284585],[14.136365741689692,55.97872067066836],[14.136352101380636,55.97872346169449],[14.136338029618772,55.9787254734038],[14.136270632646873,55.97873311503063]]]}},{"type":"Feature","properties":{"name":"Bönetorget"},"geometry":{"type":"Polygon","coordinates":[[[14.1406766,55.9788335],[14.1406782,55.9789296],[14.1406502,55.9789949],[14.1405634,55.9790131],[14.1404629,55.9790018],[14.1404459,55.9789338],[14.1404391,55.9788421],[14.1404768,55.9787265],[14.1405529,55.9786979],[14.1406242,55.978702],[14.1406725,55.9787476],[14.1406766,55.9788335]]]}},{"type":"Feature","properties":{"name":"Iglootorget"},"geometry":{"type":"Polygon","coordinates":[[[14.1409659,55.980525],[14.1409459,55.9805932],[14.1408911,55.980632],[14.1407854,55.9806296],[14.1407265,55.9805796],[14.1407271,55.9804508],[14.1407465,55.9803486],[14.1408252,55.9803201],[14.1409419,55.9803354],[14.1409905,55.9804169],[14.1409659,55.980525]]]}},{"type":"Feature","properties":{"name":"Soltorget"},"geometry":{"type":"Polygon","coordinates":[[[14.14260624698003,55.98285868699998],[14.142592406468648,55.982856813086656],[14.142578962289859,55.98285418706532],[14.142566044687019,55.98285083437611],[14.142553778802075,55.982846787498964],[14.142542283463213,55.982842085638886],[14.142531670033664,55.98283677434612],[14.142522041332864,55.98283090507494],[14.14251349064035,55.982824534685086],[14.142506100792117,55.98281772489101],[14.14249594485142,55.98280723477592],[14.142490067056585,55.98280042112469],[14.142485352144472,55.98279333020865],[14.142481841309962,55.98278602398314],[14.142479565227504,55.98277856628468],[14.14247854378314,55.98277102227321],[14.142478785900769,55.98276345786282],[14.142480289464205,55.98275593914578],[14.142483041335696,55.982748531815005],[14.142521095725945,55.982665734256315],[14.142524802378803,55.98265892595921],[14.14252956377365,55.98265232614728],[14.142535343094991,55.982645985850105],[14.142542095656815,55.98263995409065],[14.142606863795702,55.982587387831124],[14.14261515064523,55.98258129956483],[14.142624428218346,55.98257567633747],[14.142634613583356,55.98257056841454],[14.142645615694027,55.98256602145521],[14.142657336203428,55.98256207610423],[14.14266967034304,55.98255876762867],[14.142682507859266,55.98255612560259],[14.14269573399896,55.98255417364278],[14.14272911661204,55.9825501806114],[14.142742938835216,55.98254891513024],[14.142756915015466,55.98254840330613],[14.142770914167878,55.98254864993587],[14.14278480509225,55.982549652708094],[14.142798457602673,55.98255140222475],[14.142811743747615,55.98255388208937],[14.142824539009068,55.98255706906066],[14.142836723469502,55.982560933270236],[14.142848182935742,55.98256543850267],[14.142900867621368,55.9825883601799],[14.142911329444214,55.982593376850744],[14.142920890754457,55.98259892755657],[14.142929464825192,55.9826049619493],[14.14293697388423,55.98261142529357],[14.142943349819541,55.98261825896312],[14.142948534797078,55.98262540097262],[14.142952481785397,55.982632786539845],[14.142955154982271,55.9826403486734],[14.14295653013946,55.982648018780175],[14.142956594782689,55.98265572728773],[14.142950408742198,55.98273626032166],[14.142949280572125,55.98274345077779],[14.14294701181014,55.98275055641148],[14.142943620499151,55.982757520711395],[14.142939133609785,55.9827642882902],[14.142933586825881,55.982770805325096],[14.142888736488205,55.98281796063112],[14.142881248168237,55.982824958902874],[14.14287253887652,55.982831500016644],[14.14286269705496,55.98283751754762],[14.142851822646382,55.982842950388076],[14.142840026079652,55.982847743367664],[14.142827427148248,55.982851847813805],[14.142814153793779,55.982855222045956],[14.14280034080671,55.98285783179884],[14.142786128457562,55.98285965057051],[14.14272352508761,55.9828658238368],[14.142710520576864,55.98286676858631],[14.142697416575505,55.98286705069822],[14.14268432074283,55.98286666785476],[14.142671340671027,55.982865623201285],[14.14260624698003,55.98285868699998]]]}},{"type":"Feature","properties":{"name":"Pyramidtorget"},"geometry":{"type":"Polygon","coordinates":[[[14.141864857868297,55.98088285097149],[14.141855475364626,55.98088881613337],[14.14184509260757,55.98089423784459],[14.141833809663124,55.98089906385201],[14.141821735273192,55.9809032476438],[14.141808985807547,55.9809067488976],[14.14179568414229,55.98090953386915],[14.141781958475574,55.98091157571759],[14.141767941092052,55.980912854764064],[14.14175376708793,55.98091335868141],[14.141739573068909,55.980913082613014],[14.141725495833592,55.980912029219546],[14.141711671055035,55.98091020865335],[14.14169823197312,55.98090763846063],[14.141685308110416,55.98090434341229],[14.141673024023849,55.9809003552652],[14.141661498104229,55.98089571245614],[14.14165084143523,55.98089045973138],[14.141641156722773,55.98088464771534],[14.141632537305197,55.98087833242276],[14.141625066253667,55.980871574718805],[14.141618815571583,55.980864439732414],[14.141613845500643,55.98085699622868],[14.141610203940274,55.98084931594601],[14.141607925986014,55.98084147290485],[14.14159790906179,55.9807916362186],[14.141597005127746,55.9807830350019],[14.141597740566056,55.98077442876057],[14.141600107041688,55.98076591502008],[14.141604077736812,55.98075759025765],[14.141609607654761,55.9807495488089],[14.141639119610716,55.98071262834851],[14.141645311312363,55.980705774678896],[14.141652636120938,55.98069928015459],[14.141661028098506,55.980693203238815],[14.141670411700668,55.98068759863551],[14.141680702456597,55.98068251679682],[14.141691807729465,55.98067800346902],[14.141703627550338,55.980674099280684],[14.141716055518085,55.98067083937698],[14.141728979757186,55.98066825310322],[14.141761574569696,55.980662691093386],[14.1417742865313,55.98066086999977],[14.14178724113863,55.98065970081625],[14.14180033181279,55.980659193161806],[14.141813450855468,55.98065935121298],[14.141826490334966,55.980660173669456],[14.141839342974144,55.98066165376479],[14.141850276007721,55.98066320498569],[14.141863720281153,55.98066550683968],[14.141876701687993,55.98066852795482],[14.141889097620503,55.980672239797094],[14.14190079100058,55.98067660730864],[14.141911671385524,55.9806815892389],[14.141921636011158,55.98068713853419],[14.141930590762412,55.98069320278207],[14.14193845106224,55.980699724706476],[14.141945142670442,55.98070664270854],[14.141950602384874,55.980713891448545],[14.141954778638402,55.98072140246286],[14.141957631985969,55.980729104810734],[14.141959135477181,55.98073692574419],[14.141959274910876,55.980744791395225],[14.14195804896928,55.98075262747339],[14.1419554692305,55.98076035996755],[14.141951560059178,55.98076791584485],[14.14190150824851,55.9808495719772],[14.141895278024462,55.98085811493089],[14.141887350424383,55.98086620567608],[14.141877828466894,55.980873739073054],[14.141864857868297,55.98088285097149]]]}},{"type":"Feature","properties":{"name":"Hägringen"},"geometry":{"type":"Polygon","coordinates":[[[14.146965998234885,55.98125366423073],[14.146952738494061,55.981252685110164],[14.146939697039935,55.98125102508907],[14.146926985335234,55.98124869835534],[14.146914712024328,55.98124572479507],[14.14690298200466,55.981242129822725],[14.146891895530182,55.98123794416382],[14.146881547354516,55.9812332035923],[14.146872025921104,55.981227948624884],[14.146843474720573,55.98121066270667],[14.146834475735876,55.98120465516734],[14.146826557615855,55.98119818881019],[14.146819794618414,55.98119132427864],[14.14681425016827,55.981184125950264],[14.146809976262162,55.98117666133302],[14.146807012981231,55.981169000432196],[14.14680538811515,55.98116121509378],[14.14680511690154,55.98115337833076],[14.14680875202253,55.98108346279985],[14.146809929954976,55.98107524552911],[14.146812595782883,55.98106713791302],[14.146816721851367,55.98105922405596],[14.146861426073762,55.98098732480508],[14.14686682074712,55.98097986576152],[14.146873512558413,55.98097274325549],[14.146881435369844,55.98096602768078],[14.146890510877409,55.980959785409304],[14.146900649384811,55.98095407813514],[14.146911750689965,55.98094896226488],[14.146923705075324,55.980944488360024],[14.14693639439225,55.98094070063736],[14.147061848379742,55.980907624353385],[14.14707600088076,55.98090439246358],[14.147090683899206,55.98090201405661],[14.147105733511097,55.98090051568543],[14.147120981699805,55.9808999140781],[14.147136258231793,55.98090021595112],[14.147151392557106,55.98090141793428],[14.147217551496464,55.9809086850948],[14.147232081009976,55.980910723207614],[14.147246155957953,55.98091359092447],[14.147259625449596,55.980917257501964],[14.147272345084794,55.98092168363249],[14.147284178502154,55.98092682186565],[14.147294998840856,55.98093261711686],[14.147304690100668,55.98093900725794],[14.147354753945624,55.980975712424375],[14.147362911773474,55.98098235489602],[14.147369848412351,55.98098941833067],[14.14737549508624,55.98099683269585],[14.147379795808767,55.981004524479665],[14.1473827079383,55.98101241741954],[14.147384202600778,55.98102043325856],[14.147384264976019,55.98102849252112],[14.147382894444686,55.981036515301085],[14.147362674118531,55.98111393601787],[14.14736073639828,55.98111982386122],[14.147336208230055,55.981181457352896],[14.147332312401927,55.98118934372199],[14.147327013323112,55.98119696974593],[14.147320365144004,55.98120425749456],[14.147312435801545,55.98121113249439],[14.147303306324998,55.981217524489836],[14.147293070007928,55.98122336816112],[14.14728183145485,55.98122860379168],[14.147269705512272,55.981233177878586],[14.147256816095098,55.98123704367916],[14.147243294920298,55.98124016168871],[14.147164050327191,55.981255864317625],[14.147149302333712,55.981258301598494],[14.14713417523881,55.98125984930791],[14.147118839960076,55.98126048995861],[14.147103469767377,55.98126021631205],[14.146965998234885,55.98125366423073]]]}}]}