{
"type": "FeatureCollection",
"name": "toaletter",
"crs": { "type": "name", "properties": { "name": "urn:ogc:def:crs:OGC:1.3:CRS84" } },
"xy_coordinate_resolution": 1e-07,
"features": [
{"type":"Feature","properties":{"fid":167,"handle":95982,"block":-1,"etype":19,"space":0,"layer":"J26_ToalettDusch","olinetype":"BYLAYER","linetype":"","color":"255,0,0,255","ocolor":1,"color24":-1,"transparency":0,"lweight":-1,"linewidth":0.0,"ltscale":1.0,"visible":1,"thickness":0.0,"ext":"(3:0,0,1)","height":7.2999999999883576,"text":"WC (16) 24","angle":88.245554693300235,"widthscale":0.0,"oblique":0.0,"style":"STANDARD","textgen":2,"alignh":1,"alignv":0,"interlin":7.2999999999883576},"geometry":{"type":"Point","coordinates":[14.1426966,55.9826111,0.0]}},
{"type":"Feature","properties":{"fid":168,"handle":96076,"block":-1,"etype":19,"space":0,"layer":"J26_ToalettDusch","olinetype":"BYLAYER","linetype":"","color":"255,0,0,255","ocolor":1,"color24":-1,"transparency":0,"lweight":-1,"linewidth":0.0,"ltscale":1.0,"visible":1,"thickness":0.0,"ext":"(3:0,0,1)","height":7.2999999999883576,"text":"WC (16) 25","angle":88.245966643617024,"widthscale":0.0,"oblique":0.0,"style":"STANDARD","textgen":2,"alignh":1,"alignv":0,"interlin":7.2999999999883576},"geometry":{"type":"Point","coordinates":[14.1418519,55.9808015,0.0]}},
{"type":"Feature","properties":{"fid":169,"handle":96077,"block":-1,"etype":19,"space":0,"layer":"J26_ToalettDusch","olinetype":"BYLAYER","linetype":"","color":"255,0,0,255","ocolor":1,"color24":-1,"transparency":0,"lweight":-1,"linewidth":0.0,"ltscale":1.0,"visible":1,"thickness":0.0,"ext":"(3:0,0,1)","height":7.2999999999883576,"text":"WC (16) 26","angle":88.245942873066411,"widthscale":0.0,"oblique":0.0,"style":"STANDARD","textgen":2,"alignh":1,"alignv":0,"interlin":7.2999999999883576},"geometry":{"type":"Point","coordinates":[14.1418896,55.9807513,0.0]}},
{"type":"Feature","properties":{"fid":170,"handle":96085,"block":-1,"etype":19,"space":0,"layer":"J26_ToalettDusch","olinetype":"BYLAYER","linetype":"","color":"255,0,0,255","ocolor":1,"color24":-1,"transparency":0,"lweight":-1,"linewidth":0.0,"ltscale":1.0,"visible":1,"thickness":0.0,"ext":"(3:0,0,1)","height":7.2999999999883576,"text":"U (4) 9","angle":88.246552912690333,"widthscale":0.0,"oblique":0.0,"style":"STANDARD","textgen":2,"alignh":1,"alignv":0,"interlin":7.2999999999883576},"geometry":{"type":"Point","coordinates":[14.1408058,55.9804155,0.0]}},
{"type":"Feature","properties":{"fid":171,"handle":96086,"block":-1,"etype":19,"space":0,"layer":"J26_ToalettDusch","olinetype":"BYLAYER","linetype":"","color":"255,0,0,255","ocolor":1,"color24":-1,"transparency":0,"lweight":-1,"linewidth":0.0,"ltscale":1.0,"visible":1,"thickness":0.0,"ext":"(3:0,0,1)","height":7.2999999999883576,"text":"WC (16) 22","angle":88.246576507705925,"widthscale":0.0,"oblique":0.0,"style":"STANDARD","textgen":2,"alignh":1,"alignv":0,"interlin":7.2999999999883576},"geometry":{"type":"Point","coordinates":[14.140762,55.9803769,0.0]}},
{"type":"Feature","properties":{"fid":172,"handle":96113,"block":-1,"etype":19,"space":0,"layer":"J26_ToalettDusch","olinetype":"BYLAYER","linetype":"","color":"255,0,0,255","ocolor":1,"color24":-1,"transparency":0,"lweight":-1,"linewidth":0.0,"ltscale":1.0,"visible":1,"thickness":0.0,"ext":"(3:0,0,1)","height":7.2999999999883576,"text":"WC (16) 18","angle":88.249193197360754,"widthscale":0.0,"oblique":0.0,"style":"STANDARD","textgen":2,"alignh":1,"alignv":0,"interlin":7.2999999999883576},"geometry":{"type":"Point","coordinates":[14.1360924,55.9786395,0.0]}},
{"type":"Feature","properties":{"fid":173,"handle":96114,"block":-1,"etype":19,"space":0,"layer":"J26_ToalettDusch","olinetype":"BYLAYER","linetype":"","color":"255,0,0,255","ocolor":1,"color24":-1,"transparency":0,"lweight":-1,"linewidth":0.0,"ltscale":1.0,"visible":1,"thickness":0.0,"ext":"(3:0,0,1)","height":7.2999999999883576,"text":"WC (16) 19","angle":88.249191740774862,"widthscale":0.0,"oblique":0.0,"style":"STANDARD","textgen":2,"alignh":1,"alignv":0,"interlin":7.2999999999883576},"geometry":{"type":"Point","coordinates":[14.1360916,55.9785931,0.0]}},
{"type":"Feature","properties":{"fid":175,"handle":96132,"block":-1,"etype":19,"space":0,"layer":"J26_ToalettDusch","olinetype":"BYLAYER","linetype":"","color":"255,0,0,255","ocolor":1,"color24":-1,"transparency":0,"lweight":-1,"linewidth":0.0,"ltscale":1.0,"visible":1,"thickness":0.0,"ext":"(3:0,0,1)","height":7.2999999999883576,"text":"U (4) 3","angle":88.254019196772219,"widthscale":0.0,"oblique":0.0,"style":"STANDARD","textgen":2,"alignh":1,"alignv":0,"interlin":7.2999999999883576},"geometry":{"type":"Point","coordinates":[14.1276017,55.9771306,0.0]}},
{"type":"Feature","properties":{"fid":176,"handle":96133,"block":-1,"etype":19,"space":0,"layer":"J26_ToalettDusch","olinetype":"BYLAYER","linetype":"","color":"255,0,0,255","ocolor":1,"color24":-1,"transparency":0,"lweight":-1,"linewidth":0.0,"ltscale":1.0,"visible":1,"thickness":0.0,"ext":"(3:0,0,1)","height":7.2999999999883576,"text":"WC (16) 5","angle":88.254064076626719,"widthscale":0.0,"oblique":0.0,"style":"STANDARD","textgen":2,"alignh":1,"alignv":0,"interlin":7.2999999999883576},"geometry":{"type":"Point","coordinates":[14.1275264,55.9771693,0.0]}},
{"type":"Feature","properties":{"fid":184,"handle":96181,"block":-1,"etype":19,"space":0,"layer":"J26_ToalettDusch","olinetype":"BYLAYER","linetype":"","color":"255,0,0,255","ocolor":1,"color24":-1,"transparency":0,"lweight":-1,"linewidth":0.0,"ltscale":1.0,"visible":1,"thickness":0.0,"ext":"(3:0,0,1)","height":7.2999999999883576,"text":"WC (16) 10","angle":88.25082133867069,"widthscale":0.0,"oblique":0.0,"style":"STANDARD","textgen":2,"alignh":1,"alignv":0,"interlin":7.2999999999883576},"geometry":{"type":"Point","coordinates":[14.1332607,55.9785953,0.0]}},
{"type":"Feature","properties":{"fid":185,"handle":96182,"block":-1,"etype":19,"space":0,"layer":"J26_ToalettDusch","olinetype":"BYLAYER","linetype":"","color":"255,0,0,255","ocolor":1,"color24":-1,"transparency":0,"lweight":-1,"linewidth":0.0,"ltscale":1.0,"visible":1,"thickness":0.0,"ext":"(3:0,0,1)","height":7.2999999999883576,"text":"U (4) 5","angle":88.250708612989399,"widthscale":0.0,"oblique":0.0,"style":"STANDARD","textgen":2,"alignh":1,"alignv":0,"interlin":7.2999999999883576},"geometry":{"type":"Point","coordinates":[14.1334504,55.9785088,0.0]}},
{"type":"Feature","properties":{"fid":186,"handle":96183,"block":-1,"etype":19,"space":0,"layer":"J26_ToalettDusch","olinetype":"BYLAYER","linetype":"","color":"255,0,0,255","ocolor":1,"color24":-1,"transparency":0,"lweight":-1,"linewidth":0.0,"ltscale":1.0,"visible":1,"thickness":0.0,"ext":"(3:0,0,1)","height":7.2999999999883576,"text":"WC (16) 11","angle":88.250829878839184,"widthscale":0.0,"oblique":0.0,"style":"STANDARD","textgen":2,"alignh":1,"alignv":0,"interlin":7.2999999999883576},"geometry":{"type":"Point","coordinates":[14.1332409,55.9785256,0.0]}},
{"type":"Feature","properties":{"fid":187,"handle":96184,"block":-1,"etype":19,"space":0,"layer":"J26_ToalettDusch","olinetype":"BYLAYER","linetype":"","color":"255,0,0,255","ocolor":1,"color24":-1,"transparency":0,"lweight":-1,"linewidth":0.0,"ltscale":1.0,"visible":1,"thickness":0.0,"ext":"(3:0,0,1)","height":7.2999999999883576,"text":"WC (16) 12","angle":88.250829336104218,"widthscale":0.0,"oblique":0.0,"style":"STANDARD","textgen":2,"alignh":1,"alignv":0,"interlin":7.2999999999883576},"geometry":{"type":"Point","coordinates":[14.1332381,55.9784723,0.0]}},
{"type":"Feature","properties":{"fid":211,"handle":96216,"block":-1,"etype":19,"space":0,"layer":"J26_ToalettDusch","olinetype":"BYLAYER","linetype":"","color":"255,0,0,255","ocolor":1,"color24":-1,"transparency":0,"lweight":-1,"linewidth":0.0,"ltscale":1.0,"visible":1,"thickness":0.0,"ext":"(3:0,0,1)","height":7.2999999999883576,"text":"WC (16) 7","angle":88.251243300413364,"widthscale":0.0,"oblique":0.0,"style":"STANDARD","textgen":2,"alignh":1,"alignv":0,"interlin":7.2999999999883576},"geometry":{"type":"Point","coordinates":[14.1326191,55.9798872,0.0]}},
{"type":"Feature","properties":{"fid":212,"handle":96217,"block":-1,"etype":19,"space":0,"layer":"J26_ToalettDusch","olinetype":"BYLAYER","linetype":"","color":"255,0,0,255","ocolor":1,"color24":-1,"transparency":0,"lweight":-1,"linewidth":0.0,"ltscale":1.0,"visible":1,"thickness":0.0,"ext":"(3:0,0,1)","height":7.2999999999883576,"text":"WC (16) 8","angle":88.251273138126663,"widthscale":0.0,"oblique":0.0,"style":"STANDARD","textgen":2,"alignh":1,"alignv":0,"interlin":7.2999999999883576},"geometry":{"type":"Point","coordinates":[14.1325639,55.979841,0.0]}},
{"type":"Feature","properties":{"fid":213,"handle":96218,"block":-1,"etype":19,"space":0,"layer":"J26_ToalettDusch","olinetype":"BYLAYER","linetype":"","color":"255,0,0,255","ocolor":1,"color24":-1,"transparency":0,"lweight":-1,"linewidth":0.0,"ltscale":1.0,"visible":1,"thickness":0.0,"ext":"(3:0,0,1)","height":7.2999999999883576,"text":"WC (16) 9","angle":88.251274086490341,"widthscale":0.0,"oblique":0.0,"style":"STANDARD","textgen":2,"alignh":1,"alignv":0,"interlin":7.2999999999883576},"geometry":{"type":"Point","coordinates":[14.1325589,55.9797927,0.0]}},
{"type":"Feature","properties":{"fid":214,"handle":96219,"block":-1,"etype":19,"space":0,"layer":"J26_ToalettDusch","olinetype":"BYLAYER","linetype":"","color":"255,0,0,255","ocolor":1,"color24":-1,"transparency":0,"lweight":-1,"linewidth":0.0,"ltscale":1.0,"visible":1,"thickness":0.0,"ext":"(3:0,0,1)","height":7.2999999999883576,"text":"U (4) 4","angle":88.251139636036072,"widthscale":0.0,"oblique":0.0,"style":"STANDARD","textgen":2,"alignh":1,"alignv":0,"interlin":7.2999999999883576},"geometry":{"type":"Point","coordinates":[14.1327927,55.9797966,0.0]}},
{"type":"Feature","properties":{"fid":215,"handle":96223,"block":-1,"etype":19,"space":0,"layer":"J26_ToalettDusch","olinetype":"BYLAYER","linetype":"","color":"255,0,0,255","ocolor":1,"color24":-1,"transparency":0,"lweight":-1,"linewidth":0.0,"ltscale":1.0,"visible":1,"thickness":0.0,"ext":"(3:0,0,1)","height":7.2999999999883576,"text":"WC (16) 6","angle":88.251619478611104,"widthscale":0.0,"oblique":0.0,"style":"STANDARD","textgen":2,"alignh":1,"alignv":0,"interlin":7.2999999999883576},"geometry":{"type":"Point","coordinates":[14.1320762,55.981451,0.0]}},
{"type":"Feature","properties":{"fid":217,"handle":96231,"block":-1,"etype":19,"space":0,"layer":"J26_ToalettDusch","olinetype":"BYLAYER","linetype":"","color":"255,0,0,255","ocolor":1,"color24":-1,"transparency":0,"lweight":-1,"linewidth":0.0,"ltscale":1.0,"visible":1,"thickness":0.0,"ext":"(3:0,0,1)","height":7.2999999999883576,"text":"WC (16) 3","angle":88.253595298369873,"widthscale":0.0,"oblique":0.0,"style":"STANDARD","textgen":2,"alignh":1,"alignv":0,"interlin":7.2999999999883576},"geometry":{"type":"Point","coordinates":[14.1285907,55.9807083,0.0]}},
{"type":"Feature","properties":{"fid":218,"handle":96232,"block":-1,"etype":19,"space":0,"layer":"J26_ToalettDusch","olinetype":"BYLAYER","linetype":"","color":"255,0,0,255","ocolor":1,"color24":-1,"transparency":0,"lweight":-1,"linewidth":0.0,"ltscale":1.0,"visible":1,"thickness":0.0,"ext":"(3:0,0,1)","height":7.2999999999883576,"text":"WC (16) 2","angle":88.253596835293152,"widthscale":0.0,"oblique":0.0,"style":"STANDARD","textgen":2,"alignh":1,"alignv":0,"interlin":7.2999999999883576},"geometry":{"type":"Point","coordinates":[14.1285914,55.9807562,0.0]}},
{"type":"Feature","properties":{"fid":219,"handle":96233,"block":-1,"etype":19,"space":0,"layer":"J26_ToalettDusch","olinetype":"BYLAYER","linetype":"","color":"255,0,0,255","ocolor":1,"color24":-1,"transparency":0,"lweight":-1,"linewidth":0.0,"ltscale":1.0,"visible":1,"thickness":0.0,"ext":"(3:0,0,1)","height":7.2999999999883576,"text":"WC (16) 1","angle":88.253598458804774,"widthscale":0.0,"oblique":0.0,"style":"STANDARD","textgen":2,"alignh":1,"alignv":0,"interlin":7.2999999999883576},"geometry":{"type":"Point","coordinates":[14.1285922,55.980808,0.0]}},
{"type":"Feature","properties":{"fid":220,"handle":96234,"block":-1,"etype":19,"space":0,"layer":"J26_ToalettDusch","olinetype":"BYLAYER","linetype":"","color":"255,0,0,255","ocolor":1,"color24":-1,"transparency":0,"lweight":-1,"linewidth":0.0,"ltscale":1.0,"visible":1,"thickness":0.0,"ext":"(3:0,0,1)","height":7.2999999999883576,"text":"HWC 1","angle":88.253561871565225,"widthscale":0.0,"oblique":0.0,"style":"STANDARD","textgen":2,"alignh":1,"alignv":0,"interlin":7.2999999999883576},"geometry":{"type":"Point","coordinates":[14.1286593,55.980858,0.0]}},
{"type":"Feature","properties":{"fid":221,"handle":96235,"block":-1,"etype":19,"space":0,"layer":"J26_ToalettDusch","olinetype":"BYLAYER","linetype":"","color":"255,0,0,255","ocolor":1,"color24":-1,"transparency":0,"lweight":-1,"linewidth":0.0,"ltscale":1.0,"visible":1,"thickness":0.0,"ext":"(3:0,0,1)","height":7.2999999999883576,"text":"U (4) 1","angle":88.253527159143218,"widthscale":0.0,"oblique":0.0,"style":"STANDARD","textgen":2,"alignh":1,"alignv":0,"interlin":7.2999999999883576},"geometry":{"type":"Point","coordinates":[14.1287194,55.9808551,0.0]}},
{"type":"Feature","properties":{"fid":222,"handle":96281,"block":-1,"etype":19,"space":0,"layer":"J26_ToalettDusch","olinetype":"BYLAYER","linetype":"","color":"255,0,0,255","ocolor":1,"color24":-1,"transparency":0,"lweight":-1,"linewidth":0.0,"ltscale":1.0,"visible":1,"thickness":0.0,"ext":"(3:0,0,1)","height":7.2999999999883576,"text":"U (4) 6","angle":88.249379265790907,"widthscale":0.0,"oblique":0.0,"style":"STANDARD","textgen":2,"alignh":1,"alignv":0,"interlin":7.2999999999883576},"geometry":{"type":"Point","coordinates":[14.1359999,55.981892,0.0]}},
{"type":"Feature","properties":{"fid":223,"handle":96282,"block":-1,"etype":19,"space":0,"layer":"J26_ToalettDusch","olinetype":"BYLAYER","linetype":"","color":"255,0,0,255","ocolor":1,"color24":-1,"transparency":0,"lweight":-1,"linewidth":0.0,"ltscale":1.0,"visible":1,"thickness":0.0,"ext":"(3:0,0,1)","height":7.2999999999883576,"text":"WC (16) 13","angle":88.249507332722686,"widthscale":0.0,"oblique":0.0,"style":"STANDARD","textgen":2,"alignh":1,"alignv":0,"interlin":7.2999999999883576},"geometry":{"type":"Point","coordinates":[14.1357777,55.9818973,0.0]}},
{"type":"Feature","properties":{"fid":224,"handle":96283,"block":-1,"etype":19,"space":0,"layer":"J26_ToalettDusch","olinetype":"BYLAYER","linetype":"","color":"255,0,0,255","ocolor":1,"color24":-1,"transparency":0,"lweight":-1,"linewidth":0.0,"ltscale":1.0,"visible":1,"thickness":0.0,"ext":"(3:0,0,1)","height":7.2999999999883576,"text":"WC (16) 14","angle":88.249529016883614,"widthscale":0.0,"oblique":0.0,"style":"STANDARD","textgen":2,"alignh":1,"alignv":0,"interlin":7.2999999999883576},"geometry":{"type":"Point","coordinates":[14.1357366,55.9818492,0.0]}},
{"type":"Feature","properties":{"fid":225,"handle":96286,"block":-1,"etype":19,"space":0,"layer":"J26_ToalettDusch","olinetype":"BYLAYER","linetype":"","color":"255,0,0,255","ocolor":1,"color24":-1,"transparency":0,"lweight":-1,"linewidth":0.0,"ltscale":1.0,"visible":1,"thickness":0.0,"ext":"(3:0,0,1)","height":7.2999999999883576,"text":"WC (16) 16","angle":88.248960998677958,"widthscale":0.0,"oblique":0.0,"style":"STANDARD","textgen":2,"alignh":1,"alignv":0,"interlin":7.2999999999883576},"geometry":{"type":"Point","coordinates":[14.1366371,55.9806311,0.0]}},
{"type":"Feature","properties":{"fid":226,"handle":96287,"block":-1,"etype":19,"space":0,"layer":"J26_ToalettDusch","olinetype":"BYLAYER","linetype":"","color":"255,0,0,255","ocolor":1,"color24":-1,"transparency":0,"lweight":-1,"linewidth":0.0,"ltscale":1.0,"visible":1,"thickness":0.0,"ext":"(3:0,0,1)","height":7.2999999999883576,"text":"WC (16) 15","angle":88.249060368613357,"widthscale":0.0,"oblique":0.0,"style":"STANDARD","textgen":2,"alignh":1,"alignv":0,"interlin":7.2999999999883576},"geometry":{"type":"Point","coordinates":[14.1364648,55.9806354,0.0]}},
{"type":"Feature","properties":{"fid":227,"handle":96288,"block":-1,"etype":19,"space":0,"layer":"J26_ToalettDusch","olinetype":"BYLAYER","linetype":"","color":"255,0,0,255","ocolor":1,"color24":-1,"transparency":0,"lweight":-1,"linewidth":0.0,"ltscale":1.0,"visible":1,"thickness":0.0,"ext":"(3:0,0,1)","height":7.2999999999883576,"text":"WC (16) 17","angle":88.249053116068055,"widthscale":0.0,"oblique":0.0,"style":"STANDARD","textgen":2,"alignh":1,"alignv":0,"interlin":7.2999999999883576},"geometry":{"type":"Point","coordinates":[14.136474,55.9805881,0.0]}},
{"type":"Feature","properties":{"fid":228,"handle":96289,"block":-1,"etype":19,"space":0,"layer":"J26_ToalettDusch","olinetype":"BYLAYER","linetype":"","color":"255,0,0,255","ocolor":1,"color24":-1,"transparency":0,"lweight":-1,"linewidth":0.0,"ltscale":1.0,"visible":1,"thickness":0.0,"ext":"(3:0,0,1)","height":7.2999999999883576,"text":"U (4) 7","angle":88.24903299426812,"widthscale":0.0,"oblique":0.0,"style":"STANDARD","textgen":2,"alignh":1,"alignv":0,"interlin":7.2999999999883576},"geometry":{"type":"Point","coordinates":[14.1365062,55.9805484,0.0]}},
{"type":"Feature","properties":{"fid":229,"handle":96290,"block":-1,"etype":19,"space":0,"layer":"J26_ToalettDusch","olinetype":"BYLAYER","linetype":"","color":"255,0,0,255","ocolor":1,"color24":-1,"transparency":0,"lweight":-1,"linewidth":0.0,"ltscale":1.0,"visible":1,"thickness":0.0,"ext":"(3:0,0,1)","height":7.2999999999883576,"text":"VASK x","angle":88.252371303064109,"widthscale":0.0,"oblique":0.0,"style":"STANDARD","textgen":2,"alignh":1,"alignv":0,"interlin":7.2999999999883576},"geometry":{"type":"Point","coordinates":[14.1303455,55.9754493,0.0]}},
{"type":"Feature","properties":{"fid":230,"handle":96291,"block":-1,"etype":19,"space":0,"layer":"J26_ToalettDusch","olinetype":"BYLAYER","linetype":"","color":"255,0,0,255","ocolor":1,"color24":-1,"transparency":0,"lweight":-1,"linewidth":0.0,"ltscale":1.0,"visible":1,"thickness":0.0,"ext":"(3:0,0,1)","height":7.2999999999883576,"text":"HWC D x","angle":88.252384679830527,"widthscale":0.0,"oblique":0.0,"style":"STANDARD","textgen":2,"alignh":1,"alignv":0,"interlin":7.2999999999883576},"geometry":{"type":"Point","coordinates":[14.1303263,55.9755061,0.0]}},
{"type":"Feature","properties":{"fid":231,"handle":96292,"block":-1,"etype":19,"space":0,"layer":"J26_ToalettDusch","olinetype":"BYLAYER","linetype":"","color":"255,0,0,255","ocolor":1,"color24":-1,"transparency":0,"lweight":-1,"linewidth":0.0,"ltscale":1.0,"visible":1,"thickness":0.0,"ext":"(3:0,0,1)","height":7.2999999999883576,"text":"WC (16) x","angle":88.252500654610571,"widthscale":0.0,"oblique":0.0,"style":"STANDARD","textgen":2,"alignh":1,"alignv":0,"interlin":7.2999999999883576},"geometry":{"type":"Point","coordinates":[14.1301248,55.9755067,0.0]}},
{"type":"Feature","properties":{"fid":232,"handle":96293,"block":-1,"etype":19,"space":0,"layer":"J26_ToalettDusch","olinetype":"BYLAYER","linetype":"","color":"255,0,0,255","ocolor":1,"color24":-1,"transparency":0,"lweight":-1,"linewidth":0.0,"ltscale":1.0,"visible":1,"thickness":0.0,"ext":"(3:0,0,1)","height":7.2999999999883576,"text":"HWC x","angle":88.252487069341257,"widthscale":0.0,"oblique":0.0,"style":"STANDARD","textgen":2,"alignh":1,"alignv":0,"interlin":7.2999999999883576},"geometry":{"type":"Point","coordinates":[14.1301519,55.9755549,0.0]}},
{"type":"Feature","properties":{"fid":240,"handle":98432,"block":-1,"etype":19,"space":0,"layer":"J26_ToalettDusch","olinetype":"BYLAYER","linetype":"","color":"255,0,0,255","ocolor":1,"color24":-1,"transparency":0,"lweight":-1,"linewidth":0.0,"ltscale":1.0,"visible":1,"thickness":0.0,"ext":"(3:0,0,1)","height":7.2999999999883576,"text":"WC (16) 4","angle":88.253704666808062,"widthscale":0.0,"oblique":0.0,"style":"STANDARD","textgen":2,"alignh":1,"alignv":0,"interlin":7.2999999999883576},"geometry":{"type":"Point","coordinates":[14.1282602,55.9787186,0.0]}},
{"type":"Feature","properties":{"fid":241,"handle":98433,"block":-1,"etype":19,"space":0,"layer":"J26_ToalettDusch","olinetype":"BYLAYER","linetype":"","color":"255,0,0,255","ocolor":1,"color24":-1,"transparency":0,"lweight":-1,"linewidth":0.0,"ltscale":1.0,"visible":1,"thickness":0.0,"ext":"(3:0,0,1)","height":7.2999999999883576,"text":"HWC D 1","angle":88.253755832154056,"widthscale":0.0,"oblique":0.0,"style":"STANDARD","textgen":2,"alignh":1,"alignv":0,"interlin":7.2999999999883576},"geometry":{"type":"Point","coordinates":[14.1281729,55.9787412,0.0]}},
{"type":"Feature","properties":{"fid":242,"handle":98436,"block":-1,"etype":19,"space":0,"layer":"J26_ToalettDusch","olinetype":"BYLAYER","linetype":"","color":"255,0,0,255","ocolor":1,"color24":-1,"transparency":0,"lweight":-1,"linewidth":0.0,"ltscale":1.0,"visible":1,"thickness":0.0,"ext":"(3:0,0,1)","height":7.2999999999883576,"text":"U (4) 2","angle":88.253656067502064,"widthscale":0.0,"oblique":0.0,"style":"STANDARD","textgen":2,"alignh":1,"alignv":0,"interlin":7.2999999999883576},"geometry":{"type":"Point","coordinates":[14.1283447,55.9787203,0.0]}},
{"type":"Feature","properties":{"fid":243,"handle":98437,"block":-1,"etype":19,"space":0,"layer":"J26_ToalettDusch","olinetype":"BYLAYER","linetype":"","color":"255,0,0,255","ocolor":1,"color24":-1,"transparency":0,"lweight":-1,"linewidth":0.0,"ltscale":1.0,"visible":1,"thickness":0.0,"ext":"(3:0,0,1)","height":7.2999999999883576,"text":"WC (16) 20","angle":88.246913973633653,"widthscale":0.0,"oblique":0.0,"style":"STANDARD","textgen":2,"alignh":1,"alignv":0,"interlin":7.2999999999883576},"geometry":{"type":"Point","coordinates":[14.140318,55.9823777,0.0]}},
{"type":"Feature","properties":{"fid":244,"handle":98438,"block":-1,"etype":19,"space":0,"layer":"J26_ToalettDusch","olinetype":"BYLAYER","linetype":"","color":"255,0,0,255","ocolor":1,"color24":-1,"transparency":0,"lweight":-1,"linewidth":0.0,"ltscale":1.0,"visible":1,"thickness":0.0,"ext":"(3:0,0,1)","height":7.2999999999883576,"text":"WC (16) 21","angle":88.246890655121931,"widthscale":0.0,"oblique":0.0,"style":"STANDARD","textgen":2,"alignh":1,"alignv":0,"interlin":7.2999999999883576},"geometry":{"type":"Point","coordinates":[14.1403552,55.9823312,0.0]}},
{"type":"Feature","properties":{"fid":245,"handle":98439,"block":-1,"etype":19,"space":0,"layer":"J26_ToalettDusch","olinetype":"BYLAYER","linetype":"","color":"255,0,0,255","ocolor":1,"color24":-1,"transparency":0,"lweight":-1,"linewidth":0.0,"ltscale":1.0,"visible":1,"thickness":0.0,"ext":"(3:0,0,1)","height":7.2999999999883576,"text":"WC (16) 23","angle":88.246672231862377,"widthscale":0.0,"oblique":0.0,"style":"STANDARD","textgen":2,"alignh":1,"alignv":0,"interlin":7.2999999999883576},"geometry":{"type":"Point","coordinates":[14.1404787,55.9787327,0.0]}},
{"type":"Feature","properties":{"fid":246,"handle":98440,"block":-1,"etype":19,"space":0,"layer":"J26_ToalettDusch","olinetype":"BYLAYER","linetype":"","color":"255,0,0,255","ocolor":1,"color24":-1,"transparency":0,"lweight":-1,"linewidth":0.0,"ltscale":1.0,"visible":1,"thickness":0.0,"ext":"(3:0,0,1)","height":7.2999999999883558,"text":"HWC D 1L","angle":88.24517729785704,"widthscale":0.0,"oblique":0.0,"style":"STANDARD","textgen":2,"alignh":1,"alignv":0,"interlin":7.2999999999883558},"geometry":{"type":"Point","coordinates":[14.1435112,55.98484,0.0]}},
{"type":"Feature","properties":{"fid":247,"handle":98451,"block":-1,"etype":19,"space":0,"layer":"J26_ToalettDusch","olinetype":"BYLAYER","linetype":"","color":"255,0,0,255","ocolor":1,"color24":-1,"transparency":0,"lweight":-1,"linewidth":0.0,"ltscale":1.0,"visible":1,"thickness":0.0,"ext":"(3:0,0,1)","height":7.2999999999883576,"text":"HWC 2","angle":88.251102706827837,"widthscale":0.0,"oblique":0.0,"style":"STANDARD","textgen":2,"alignh":1,"alignv":0,"interlin":7.2999999999883576},"geometry":{"type":"Point","coordinates":[14.1328627,55.9798778,0.0]}},
{"type":"Feature","properties":{"fid":248,"handle":98464,"block":-1,"etype":19,"space":0,"layer":"J26_ToalettDusch","olinetype":"BYLAYER","linetype":"","color":"255,0,0,255","ocolor":1,"color24":-1,"transparency":0,"lweight":-1,"linewidth":0.0,"ltscale":1.0,"visible":1,"thickness":0.0,"ext":"(3:0,0,1)","height":7.2999999999883576,"text":"HWC 3","angle":88.25072690089975,"widthscale":0.0,"oblique":0.0,"style":"STANDARD","textgen":2,"alignh":1,"alignv":0,"interlin":7.2999999999883576},"geometry":{"type":"Point","coordinates":[14.133413,55.9784289,0.0]}},
{"type":"Feature","properties":{"fid":249,"handle":98476,"block":-1,"etype":19,"space":0,"layer":"J26_ToalettDusch","olinetype":"BYLAYER","linetype":"","color":"255,0,0,255","ocolor":1,"color24":-1,"transparency":0,"lweight":-1,"linewidth":0.0,"ltscale":1.0,"visible":1,"thickness":0.0,"ext":"(3:0,0,1)","height":7.2999999999883576,"text":"HWC 4","angle":88.249445899280062,"widthscale":0.0,"oblique":0.0,"style":"STANDARD","textgen":2,"alignh":1,"alignv":0,"interlin":7.2999999999883576},"geometry":{"type":"Point","coordinates":[14.1358775,55.9817988,0.0]}},
{"type":"Feature","properties":{"fid":250,"handle":98488,"block":-1,"etype":19,"space":0,"layer":"J26_ToalettDusch","olinetype":"BYLAYER","linetype":"","color":"255,0,0,255","ocolor":1,"color24":-1,"transparency":0,"lweight":-1,"linewidth":0.0,"ltscale":1.0,"visible":1,"thickness":0.0,"ext":"(3:0,0,1)","height":7.2999999999883576,"text":"HWC 5","angle":88.249287282140628,"widthscale":0.0,"oblique":0.0,"style":"STANDARD","textgen":2,"alignh":1,"alignv":0,"interlin":7.2999999999883576},"geometry":{"type":"Point","coordinates":[14.1360778,55.9807377,0.0]}},
{"type":"Feature","properties":{"fid":251,"handle":98500,"block":-1,"etype":19,"space":0,"layer":"J26_ToalettDusch","olinetype":"BYLAYER","linetype":"","color":"255,0,0,255","ocolor":1,"color24":-1,"transparency":0,"lweight":-1,"linewidth":0.0,"ltscale":1.0,"visible":1,"thickness":0.0,"ext":"(3:0,0,1)","height":7.2999999999883576,"text":"HWC 6","angle":88.24914465646853,"widthscale":0.0,"oblique":0.0,"style":"STANDARD","textgen":2,"alignh":1,"alignv":0,"interlin":7.2999999999883576},"geometry":{"type":"Point","coordinates":[14.1361796,55.9786806,0.0]}},
{"type":"Feature","properties":{"fid":252,"handle":98512,"block":-1,"etype":19,"space":0,"layer":"J26_ToalettDusch","olinetype":"BYLAYER","linetype":"","color":"255,0,0,255","ocolor":1,"color24":-1,"transparency":0,"lweight":-1,"linewidth":0.0,"ltscale":1.0,"visible":1,"thickness":0.0,"ext":"(3:0,0,1)","height":7.2999999999883576,"text":"HWC 7","angle":88.246548942410897,"widthscale":0.0,"oblique":0.0,"style":"STANDARD","textgen":2,"alignh":1,"alignv":0,"interlin":7.2999999999883576},"geometry":{"type":"Point","coordinates":[14.1406944,55.9787532,0.0]}},
{"type":"Feature","properties":{"fid":253,"handle":98533,"block":-1,"etype":19,"space":0,"layer":"J26_ToalettDusch","olinetype":"BYLAYER","linetype":"","color":"255,0,0,255","ocolor":1,"color24":-1,"transparency":0,"lweight":-1,"linewidth":0.0,"ltscale":1.0,"visible":1,"thickness":0.0,"ext":"(3:0,0,1)","height":7.2999999999883576,"text":"HWC D 2","angle":88.246946957746104,"widthscale":0.0,"oblique":0.0,"style":"STANDARD","textgen":2,"alignh":1,"alignv":0,"interlin":7.2999999999883576},"geometry":{"type":"Point","coordinates":[14.1402598,55.9823646,0.0]}},
{"type":"Feature","properties":{"fid":254,"handle":98538,"block":-1,"etype":19,"space":0,"layer":"J26_ToalettDusch","olinetype":"BYLAYER","linetype":"","color":"255,0,0,255","ocolor":1,"color24":-1,"transparency":0,"lweight":-1,"linewidth":0.0,"ltscale":1.0,"visible":1,"thickness":0.0,"ext":"(3:0,0,1)","height":7.2999999999883576,"text":"U (4) 8","angle":88.246903248470588,"widthscale":0.0,"oblique":0.0,"style":"STANDARD","textgen":2,"alignh":1,"alignv":0,"interlin":7.2999999999883576},"geometry":{"type":"Point","coordinates":[14.1403344,55.9823452,0.0]}},
{"type":"Feature","properties":{"fid":255,"handle":98539,"block":-1,"etype":19,"space":0,"layer":"J26_ToalettDusch","olinetype":"BYLAYER","linetype":"","color":"255,0,0,255","ocolor":1,"color24":-1,"transparency":0,"lweight":-1,"linewidth":0.0,"ltscale":1.0,"visible":1,"thickness":0.0,"ext":"(3:0,0,1)","height":7.2999999999883576,"text":"U (4) 10","angle":88.246653492346056,"widthscale":0.0,"oblique":0.0,"style":"STANDARD","textgen":2,"alignh":1,"alignv":0,"interlin":7.2999999999883576},"geometry":{"type":"Point","coordinates":[14.1405136,55.9787653,0.0]}},
{"type":"Feature","properties":{"fid":256,"handle":98540,"block":-1,"etype":19,"space":0,"layer":"J26_ToalettDusch","olinetype":"BYLAYER","linetype":"","color":"255,0,0,255","ocolor":1,"color24":-1,"transparency":0,"lweight":-1,"linewidth":0.0,"ltscale":1.0,"visible":1,"thickness":0.0,"ext":"(3:0,0,1)","height":7.2999999999883576,"text":"WC (10) 3L","angle":88.2450752790255,"widthscale":0.0,"oblique":0.0,"style":"STANDARD","textgen":2,"alignh":1,"alignv":0,"interlin":7.2999999999883576},"geometry":{"type":"Point","coordinates":[14.1436885,55.9848404,0.0]}},
{"type":"Feature","properties":{"fid":257,"handle":98570,"block":-1,"etype":19,"space":0,"layer":"J26_ToalettDusch","olinetype":"BYLAYER","linetype":"","color":"255,0,0,255","ocolor":1,"color24":-1,"transparency":0,"lweight":-1,"linewidth":0.0,"ltscale":1.0,"visible":1,"thickness":0.0,"ext":"(3:0,0,1)","height":7.2999999999883576,"text":"WC (10) 2L","angle":88.245108114733242,"widthscale":0.0,"oblique":0.0,"style":"STANDARD","textgen":2,"alignh":1,"alignv":0,"interlin":7.2999999999883576},"geometry":{"type":"Point","coordinates":[14.1436339,55.9848752,0.0]}},
{"type":"Feature","properties":{"fid":258,"handle":100185,"block":-1,"etype":19,"space":0,"layer":"J26_ToalettDusch","olinetype":"BYLAYER","linetype":"","color":"255,0,0,255","ocolor":1,"color24":-1,"transparency":0,"lweight":-1,"linewidth":0.0,"ltscale":1.0,"visible":1,"thickness":0.0,"ext":"(3:0,0,1)","height":7.2999999999883576,"text":"D (12) x","angle":88.252500897618674,"widthscale":0.0,"oblique":0.0,"style":"STANDARD","textgen":2,"alignh":1,"alignv":0,"interlin":7.2999999999883576},"geometry":{"type":"Point","coordinates":[14.130121,55.9754587,0.0]}},
{"type":"Feature","properties":{"fid":259,"handle":100230,"block":-1,"etype":19,"space":0,"layer":"J26_ToalettDusch","olinetype":"BYLAYER","linetype":"","color":"255,0,0,255","ocolor":1,"color24":-1,"transparency":0,"lweight":-1,"linewidth":0.0,"ltscale":1.0,"visible":1,"thickness":0.0,"ext":"(3:0,0,1)","height":7.2999999999883576,"text":"D (12) x","angle":88.245188866765346,"widthscale":0.0,"oblique":0.0,"style":"STANDARD","textgen":2,"alignh":1,"alignv":0,"interlin":7.2999999999883576},"geometry":{"type":"Point","coordinates":[14.1434978,55.9849347,0.0]}},
{"type":"Feature","properties":{"fid":260,"handle":100248,"block":-1,"etype":19,"space":0,"layer":"J26_ToalettDusch","olinetype":"BYLAYER","linetype":"","color":"255,0,0,255","ocolor":1,"color24":-1,"transparency":0,"lweight":-1,"linewidth":0.0,"ltscale":1.0,"visible":1,"thickness":0.0,"ext":"(3:0,0,1)","height":7.2999999999883576,"text":"D (12) x","angle":88.245222061283613,"widthscale":0.0,"oblique":0.0,"style":"STANDARD","textgen":2,"alignh":1,"alignv":0,"interlin":7.2999999999883576},"geometry":{"type":"Point","coordinates":[14.1434426,55.9849694,0.0]}},
{"type":"Feature","properties":{"fid":261,"handle":100301,"block":-1,"etype":19,"space":0,"layer":"J26_ToalettDusch","olinetype":"BYLAYER","linetype":"","color":"255,0,0,255","ocolor":1,"color24":-1,"transparency":0,"lweight":-1,"linewidth":0.0,"ltscale":1.0,"visible":1,"thickness":0.0,"ext":"(3:0,0,1)","height":7.2999999999883576,"text":"WC (10) 1L","angle":88.245140784018545,"widthscale":0.0,"oblique":0.0,"style":"STANDARD","textgen":2,"alignh":1,"alignv":0,"interlin":7.2999999999883576},"geometry":{"type":"Point","coordinates":[14.1435797,55.9849103,0.0]}},
{"type":"Feature","properties":{"fid":262,"handle":100328,"block":-1,"etype":19,"space":0,"layer":"J26_ToalettDusch","olinetype":"BYLAYER","linetype":"","color":"255,0,0,255","ocolor":1,"color24":-1,"transparency":0,"lweight":-1,"linewidth":0.0,"ltscale":1.0,"visible":1,"thickness":0.0,"ext":"(3:0,0,1)","height":7.2999999999883576,"text":"VASK 1","angle":88.253667527389652,"widthscale":0.0,"oblique":0.0,"style":"STANDARD","textgen":2,"alignh":1,"alignv":0,"interlin":7.2999999999883576},"geometry":{"type":"Point","coordinates":[14.1284736,55.9808274,0.0]}},
{"type":"Feature","properties":{"fid":263,"handle":100334,"block":-1,"etype":19,"space":0,"layer":"J26_ToalettDusch","olinetype":"BYLAYER","linetype":"","color":"255,0,0,255","ocolor":1,"color24":-1,"transparency":0,"lweight":-1,"linewidth":0.0,"ltscale":1.0,"visible":1,"thickness":0.0,"ext":"(3:0,0,1)","height":7.2999999999883576,"text":"VASK 2","angle":88.253650749713429,"widthscale":0.0,"oblique":0.0,"style":"STANDARD","textgen":2,"alignh":1,"alignv":0,"interlin":7.2999999999883576},"geometry":{"type":"Point","coordinates":[14.1283575,55.9787708,0.0]}},
{"type":"Feature","properties":{"fid":264,"handle":100338,"block":-1,"etype":19,"space":0,"layer":"J26_ToalettDusch","olinetype":"BYLAYER","linetype":"","color":"255,0,0,255","ocolor":1,"color24":-1,"transparency":0,"lweight":-1,"linewidth":0.0,"ltscale":1.0,"visible":1,"thickness":0.0,"ext":"(3:0,0,1)","height":7.2999999999883576,"text":"VASK 3","angle":88.254080635503698,"widthscale":0.0,"oblique":0.0,"style":"STANDARD","textgen":2,"alignh":1,"alignv":0,"interlin":7.2999999999883576},"geometry":{"type":"Point","coordinates":[14.1274946,55.9771265,0.0]}},
{"type":"Feature","properties":{"fid":265,"handle":100342,"block":-1,"etype":19,"space":0,"layer":"J26_ToalettDusch","olinetype":"BYLAYER","linetype":"","color":"255,0,0,255","ocolor":1,"color24":-1,"transparency":0,"lweight":-1,"linewidth":0.0,"ltscale":1.0,"visible":1,"thickness":0.0,"ext":"(3:0,0,1)","height":7.2999999999883576,"text":"VASK 4","angle":88.251161802131691,"widthscale":0.0,"oblique":0.0,"style":"STANDARD","textgen":2,"alignh":1,"alignv":0,"interlin":7.2999999999883576},"geometry":{"type":"Point","coordinates":[14.1327636,55.979929,0.0]}},
{"type":"Feature","properties":{"fid":266,"handle":100346,"block":-1,"etype":19,"space":0,"layer":"J26_ToalettDusch","olinetype":"BYLAYER","linetype":"","color":"255,0,0,255","ocolor":1,"color24":-1,"transparency":0,"lweight":-1,"linewidth":0.0,"ltscale":1.0,"visible":1,"thickness":0.0,"ext":"(3:0,0,1)","height":7.2999999999883576,"text":"VASK 5","angle":88.25089438087241,"widthscale":0.0,"oblique":0.0,"style":"STANDARD","textgen":2,"alignh":1,"alignv":0,"interlin":7.2999999999883576},"geometry":{"type":"Point","coordinates":[14.1331294,55.9785338,0.0]}},
{"type":"Feature","properties":{"fid":267,"handle":100350,"block":-1,"etype":19,"space":0,"layer":"J26_ToalettDusch","olinetype":"BYLAYER","linetype":"","color":"255,0,0,255","ocolor":1,"color24":-1,"transparency":0,"lweight":-1,"linewidth":0.0,"ltscale":1.0,"visible":1,"thickness":0.0,"ext":"(3:0,0,1)","height":7.2999999999883576,"text":"VASK 8","angle":88.249116531883971,"widthscale":0.0,"oblique":0.0,"style":"STANDARD","textgen":2,"alignh":1,"alignv":0,"interlin":7.2999999999883576},"geometry":{"type":"Point","coordinates":[14.1362306,55.9787104,0.0]}},
{"type":"Feature","properties":{"fid":268,"handle":100354,"block":-1,"etype":19,"space":0,"layer":"J26_ToalettDusch","olinetype":"BYLAYER","linetype":"","color":"255,0,0,255","ocolor":1,"color24":-1,"transparency":0,"lweight":-1,"linewidth":0.0,"ltscale":1.0,"visible":1,"thickness":0.0,"ext":"(3:0,0,1)","height":7.2999999999883576,"text":"VASK 7","angle":88.249313575141386,"widthscale":0.0,"oblique":0.0,"style":"STANDARD","textgen":2,"alignh":1,"alignv":0,"interlin":7.2999999999883576},"geometry":{"type":"Point","coordinates":[14.1360296,55.9807025,0.0]}},
{"type":"Feature","properties":{"fid":269,"handle":100358,"block":-1,"etype":19,"space":0,"layer":"J26_ToalettDusch","olinetype":"BYLAYER","linetype":"","color":"255,0,0,255","ocolor":1,"color24":-1,"transparency":0,"lweight":-1,"linewidth":0.0,"ltscale":1.0,"visible":1,"thickness":0.0,"ext":"(3:0,0,1)","height":7.2999999999883576,"text":"VASK 6","angle":88.249377092528931,"widthscale":0.0,"oblique":0.0,"style":"STANDARD","textgen":2,"alignh":1,"alignv":0,"interlin":7.2999999999883576},"geometry":{"type":"Point","coordinates":[14.1360025,55.9818752,0.0]}},
{"type":"Feature","properties":{"fid":270,"handle":100362,"block":-1,"etype":19,"space":0,"layer":"J26_ToalettDusch","olinetype":"BYLAYER","linetype":"","color":"255,0,0,255","ocolor":1,"color24":-1,"transparency":0,"lweight":-1,"linewidth":0.0,"ltscale":1.0,"visible":1,"thickness":0.0,"ext":"(3:0,0,1)","height":7.2999999999883576,"text":"VASK 9","angle":88.246923394316454,"widthscale":0.0,"oblique":0.0,"style":"STANDARD","textgen":2,"alignh":1,"alignv":0,"interlin":7.2999999999883576},"geometry":{"type":"Point","coordinates":[14.1402971,55.9823135,0.0]}},
{"type":"Feature","properties":{"fid":271,"handle":100366,"block":-1,"etype":19,"space":0,"layer":"J26_ToalettDusch","olinetype":"BYLAYER","linetype":"","color":"255,0,0,255","ocolor":1,"color24":-1,"transparency":0,"lweight":-1,"linewidth":0.0,"ltscale":1.0,"visible":1,"thickness":0.0,"ext":"(3:0,0,1)","height":7.2999999999883576,"text":"VASK 10","angle":88.246583570661087,"widthscale":0.0,"oblique":0.0,"style":"STANDARD","textgen":2,"alignh":1,"alignv":0,"interlin":7.2999999999883576},"geometry":{"type":"Point","coordinates":[14.1407558,55.9804615,0.0]}},
{"type":"Feature","properties":{"fid":272,"handle":100370,"block":-1,"etype":19,"space":0,"layer":"J26_ToalettDusch","olinetype":"BYLAYER","linetype":"","color":"255,0,0,255","ocolor":1,"color24":-1,"transparency":0,"lweight":-1,"linewidth":0.0,"ltscale":1.0,"visible":1,"thickness":0.0,"ext":"(3:0,0,1)","height":7.2999999999883576,"text":"VASK 12","angle":88.246699741763507,"widthscale":0.0,"oblique":0.0,"style":"STANDARD","textgen":2,"alignh":1,"alignv":0,"interlin":7.2999999999883576},"geometry":{"type":"Point","coordinates":[14.1404362,55.9788064,0.0]}},
{"type":"Feature","properties":{"fid":273,"handle":100374,"block":-1,"etype":19,"space":0,"layer":"J26_ToalettDusch","olinetype":"BYLAYER","linetype":"","color":"255,0,0,255","ocolor":1,"color24":-1,"transparency":0,"lweight":-1,"linewidth":0.0,"ltscale":1.0,"visible":1,"thickness":0.0,"ext":"(3:0,0,1)","height":7.2999999999883576,"text":"D (12) x","angle":88.251311808412794,"widthscale":0.0,"oblique":0.0,"style":"STANDARD","textgen":2,"alignh":1,"alignv":0,"interlin":7.2999999999883576},"geometry":{"type":"Point","coordinates":[14.1325806,55.9810249,0.0]}},
{"type":"Feature","properties":{"fid":274,"handle":100390,"block":-1,"etype":19,"space":0,"layer":"J26_ToalettDusch","olinetype":"BYLAYER","linetype":"","color":"255,0,0,255","ocolor":1,"color24":-1,"transparency":0,"lweight":-1,"linewidth":0.0,"ltscale":1.0,"visible":1,"thickness":0.0,"ext":"(3:0,0,1)","height":7.2999999999883576,"text":"D (12) x","angle":88.251345001728453,"widthscale":0.0,"oblique":0.0,"style":"STANDARD","textgen":2,"alignh":1,"alignv":0,"interlin":7.2999999999883576},"geometry":{"type":"Point","coordinates":[14.1325254,55.9810596,0.0]}},
{"type":"Feature","properties":{"fid":275,"handle":100410,"block":-1,"etype":19,"space":0,"layer":"J26_ToalettDusch","olinetype":"BYLAYER","linetype":"","color":"255,0,0,255","ocolor":1,"color24":-1,"transparency":0,"lweight":-1,"linewidth":0.0,"ltscale":1.0,"visible":1,"thickness":0.0,"ext":"(3:0,0,1)","height":7.2999999999883576,"text":"D (12) x","angle":88.25368130838325,"widthscale":0.0,"oblique":0.0,"style":"STANDARD","textgen":2,"alignh":1,"alignv":0,"interlin":7.2999999999883576},"geometry":{"type":"Point","coordinates":[14.1283078,55.9788186,0.0]}},
{"type":"Feature","properties":{"fid":276,"handle":100426,"block":-1,"etype":19,"space":0,"layer":"J26_ToalettDusch","olinetype":"BYLAYER","linetype":"","color":"255,0,0,255","ocolor":1,"color24":-1,"transparency":0,"lweight":-1,"linewidth":0.0,"ltscale":1.0,"visible":1,"thickness":0.0,"ext":"(3:0,0,1)","height":7.2999999999883576,"text":"D (12) x","angle":88.253714501646016,"widthscale":0.0,"oblique":0.0,"style":"STANDARD","textgen":2,"alignh":1,"alignv":0,"interlin":7.2999999999883576},"geometry":{"type":"Point","coordinates":[14.1282526,55.9788534,0.0]}},
{"type":"Feature","properties":{"fid":277,"handle":100462,"block":-1,"etype":19,"space":0,"layer":"J26_ToalettDusch","olinetype":"BYLAYER","linetype":"","color":"255,0,0,255","ocolor":1,"color24":-1,"transparency":0,"lweight":-1,"linewidth":0.0,"ltscale":1.0,"visible":1,"thickness":0.0,"ext":"(3:0,0,1)","height":7.2999999999883576,"text":"D (12) x","angle":88.25088367926466,"widthscale":0.0,"oblique":0.0,"style":"STANDARD","textgen":2,"alignh":1,"alignv":0,"interlin":7.2999999999883576},"geometry":{"type":"Point","coordinates":[14.1331536,55.9786128,0.0]}},
{"type":"Feature","properties":{"fid":278,"handle":100482,"block":-1,"etype":19,"space":0,"layer":"J26_ToalettDusch","olinetype":"BYLAYER","linetype":"","color":"255,0,0,255","ocolor":1,"color24":-1,"transparency":0,"lweight":-1,"linewidth":0.0,"ltscale":1.0,"visible":1,"thickness":0.0,"ext":"(3:0,0,1)","height":7.2999999999883576,"text":"D (12) x","angle":88.249354902885472,"widthscale":0.0,"oblique":0.0,"style":"STANDARD","textgen":2,"alignh":1,"alignv":0,"interlin":7.2999999999883576},"geometry":{"type":"Point","coordinates":[14.1360441,55.9819191,0.0]}},
{"type":"Feature","properties":{"fid":279,"handle":100500,"block":-1,"etype":19,"space":0,"layer":"J26_ToalettDusch","olinetype":"BYLAYER","linetype":"","color":"255,0,0,255","ocolor":1,"color24":-1,"transparency":0,"lweight":-1,"linewidth":0.0,"ltscale":1.0,"visible":1,"thickness":0.0,"ext":"(3:0,0,1)","height":7.2999999999883576,"text":"D (12) x","angle":88.246988249223875,"widthscale":0.0,"oblique":0.0,"style":"STANDARD","textgen":2,"alignh":1,"alignv":0,"interlin":7.2999999999883576},"geometry":{"type":"Point","coordinates":[14.1401925,55.9824279,0.0]}},
{"type":"Feature","properties":{"fid":280,"handle":100518,"block":-1,"etype":19,"space":0,"layer":"J26_ToalettDusch","olinetype":"BYLAYER","linetype":"","color":"255,0,0,255","ocolor":1,"color24":-1,"transparency":0,"lweight":-1,"linewidth":0.0,"ltscale":1.0,"visible":1,"thickness":0.0,"ext":"(3:0,0,1)","height":7.2999999999883576,"text":"D (12) x","angle":88.24658015677899,"widthscale":0.0,"oblique":0.0,"style":"STANDARD","textgen":2,"alignh":1,"alignv":0,"interlin":7.2999999999883576},"geometry":{"type":"Point","coordinates":[14.140636,55.9786949,0.0]}},
{"type":"Feature","properties":{"fid":281,"handle":100538,"block":-1,"etype":19,"space":0,"layer":"J26_ToalettDusch","olinetype":"BYLAYER","linetype":"","color":"255,0,0,255","ocolor":1,"color24":-1,"transparency":0,"lweight":-1,"linewidth":0.0,"ltscale":1.0,"visible":1,"thickness":0.0,"ext":"(3:0,0,1)","height":7.2999999999883576,"text":"VASK 1L","angle":88.24517010556832,"widthscale":0.0,"oblique":0.0,"style":"STANDARD","textgen":2,"alignh":1,"alignv":0,"interlin":7.2999999999883576},"geometry":{"type":"Point","coordinates":[14.1435277,55.9848967,0.0]}}
]
}
