{
"type": "FeatureCollection",
"name": "toaletter_inte_funk",
"crs": { "type": "name", "properties": { "name": "urn:ogc:def:crs:OGC:1.3:CRS84" } },
"xy_coordinate_resolution": 1e-07,
"features": [
{"type":"Feature","properties":{"fid":872,"handle":118615,"block":-1,"etype":19,"space":0,"layer":"J26_offentlig karta etiketter WC Dusch Kyl Slask","olinetype":"BYLAYER","linetype":"","color":"0,0,0,254","ocolor":256,"color24":-1,"transparency":0,"lweight":-1,"linewidth":0.0,"ltscale":1.0,"visible":1,"thickness":0.0,"ext":"(3:0,0,1)","height":17.533757546567362,"text":"WC","angle":88.253905919652965,"widthscale":0.0,"oblique":0.0,"style":"STANDARD","textgen":2,"alignh":1,"alignv":0,"interlin":17.533757546567362},"geometry":{"type":"Point","coordinates":[14.1280563,55.9807828,0.0]}},
{"type":"Feature","properties":{"fid":873,"handle":118617,"block":-1,"etype":19,"space":0,"layer":"J26_offentlig karta etiketter WC Dusch Kyl Slask","olinetype":"BYLAYER","linetype":"","color":"0,0,0,254","ocolor":256,"color24":-1,"transparency":0,"lweight":-1,"linewidth":0.0,"ltscale":1.0,"visible":1,"thickness":0.0,"ext":"(3:0,0,1)","height":17.533757546567362,"text":"HWC","angle":88.253904630484385,"widthscale":0.0,"oblique":0.0,"style":"STANDARD","textgen":2,"alignh":1,"alignv":0,"interlin":17.533757546567362},"geometry":{"type":"Point","coordinates":[14.1280556,55.9807417,0.0]}},
{"type":"Feature","properties":{"fid":874,"handle":118618,"block":-1,"etype":19,"space":0,"layer":"J26_offentlig karta etiketter WC Dusch Kyl Slask","olinetype":"BYLAYER","linetype":"","color":"0,0,0,254","ocolor":256,"color24":-1,"transparency":0,"lweight":-1,"linewidth":0.0,"ltscale":1.0,"visible":1,"thickness":0.0,"ext":"(3:0,0,1)","height":17.533757546567362,"text":"Slask","angle":88.253903341313901,"widthscale":0.0,"oblique":0.0,"style":"STANDARD","textgen":2,"alignh":1,"alignv":0,"interlin":17.533757546567362},"geometry":{"type":"Point","coordinates":[14.1280549,55.9807005,0.0]}},
{"type":"Feature","properties":{"fid":875,"handle":118619,"block":-1,"etype":19,"space":0,"layer":"J26_offentlig karta etiketter WC Dusch Kyl Slask","olinetype":"BYLAYER","linetype":"","color":"0,0,0,254","ocolor":256,"color24":-1,"transparency":0,"lweight":-1,"linewidth":0.0,"ltscale":1.0,"visible":1,"thickness":0.0,"ext":"(3:0,0,1)","height":17.533757546567362,"text":"Kylcontainer","angle":88.253902052141527,"widthscale":0.0,"oblique":0.0,"style":"STANDARD","textgen":2,"alignh":1,"alignv":0,"interlin":17.533757546567362},"geometry":{"type":"Point","coordinates":[14.1280543,55.9806593,0.0]}},
{"type":"Feature","properties":{"fid":876,"handle":118629,"block":-1,"etype":19,"space":0,"layer":"J26_offentlig karta etiketter WC Dusch Kyl Slask","olinetype":"BYLAYER","linetype":"","color":"0,0,0,254","ocolor":256,"color24":-1,"transparency":0,"lweight":-1,"linewidth":0.0,"ltscale":1.0,"visible":1,"thickness":0.0,"ext":"(3:0,0,1)","height":17.533757546567362,"text":"WC","angle":88.253750883437988,"widthscale":0.0,"oblique":0.0,"style":"STANDARD","textgen":2,"alignh":1,"alignv":0,"interlin":17.533757546567362},"geometry":{"type":"Point","coordinates":[14.1281898,55.9788598,0.0]}},
{"type":"Feature","properties":{"fid":877,"handle":118630,"block":-1,"etype":19,"space":0,"layer":"J26_offentlig karta etiketter WC Dusch Kyl Slask","olinetype":"BYLAYER","linetype":"","color":"0,0,0,254","ocolor":256,"color24":-1,"transparency":0,"lweight":-1,"linewidth":0.0,"ltscale":1.0,"visible":1,"thickness":0.0,"ext":"(3:0,0,1)","height":24.482014754379641,"text":"Dusch","angle":88.253748304781368,"widthscale":0.0,"oblique":0.0,"style":"STANDARD","textgen":2,"alignh":1,"alignv":0,"interlin":24.482014754379641},"geometry":{"type":"Point","coordinates":[14.1281885,55.9787774,0.0]}},
{"type":"Feature","properties":{"fid":878,"handle":118631,"block":-1,"etype":19,"space":0,"layer":"J26_offentlig karta etiketter WC Dusch Kyl Slask","olinetype":"BYLAYER","linetype":"","color":"0,0,0,254","ocolor":256,"color24":-1,"transparency":0,"lweight":-1,"linewidth":0.0,"ltscale":1.0,"visible":1,"thickness":0.0,"ext":"(3:0,0,1)","height":17.533757546567362,"text":"Slask","angle":88.253747015450188,"widthscale":0.0,"oblique":0.0,"style":"STANDARD","textgen":2,"alignh":1,"alignv":0,"interlin":17.533757546567362},"geometry":{"type":"Point","coordinates":[14.1281878,55.9787362,0.0]}},
{"type":"Feature","properties":{"fid":879,"handle":118632,"block":-1,"etype":19,"space":0,"layer":"J26_offentlig karta etiketter WC Dusch Kyl Slask","olinetype":"BYLAYER","linetype":"","color":"0,0,0,254","ocolor":256,"color24":-1,"transparency":0,"lweight":-1,"linewidth":0.0,"ltscale":1.0,"visible":1,"thickness":0.0,"ext":"(3:0,0,1)","height":17.533757546567362,"text":"Kylcontainer","angle":88.253745726117117,"widthscale":0.0,"oblique":0.0,"style":"STANDARD","textgen":2,"alignh":1,"alignv":0,"interlin":17.533757546567362},"geometry":{"type":"Point","coordinates":[14.1281872,55.978695,0.0]}},
{"type":"Feature","properties":{"fid":880,"handle":118641,"block":-1,"etype":19,"space":0,"layer":"J26_offentlig karta etiketter WC Dusch Kyl Slask","olinetype":"BYLAYER","linetype":"","color":"0,0,0,254","ocolor":256,"color24":-1,"transparency":0,"lweight":-1,"linewidth":0.0,"ltscale":1.0,"visible":1,"thickness":0.0,"ext":"(3:0,0,1)","height":25.521606335765679,"text":"HWC m. dusch","angle":88.253749594110644,"widthscale":0.0,"oblique":0.0,"style":"STANDARD","textgen":2,"alignh":1,"alignv":0,"interlin":25.521606335765679},"geometry":{"type":"Point","coordinates":[14.1281892,55.9788186,0.0]}},
{"type":"Feature","properties":{"fid":881,"handle":118642,"block":-1,"etype":19,"space":0,"layer":"J26_offentlig karta etiketter WC Dusch Kyl Slask","olinetype":"BYLAYER","linetype":"","color":"0,0,0,254","ocolor":256,"color24":-1,"transparency":0,"lweight":-1,"linewidth":0.0,"ltscale":1.0,"visible":1,"thickness":0.0,"ext":"(3:0,0,1)","height":17.533757546567362,"text":"WC","angle":88.254134422830489,"widthscale":0.0,"oblique":0.0,"style":"STANDARD","textgen":2,"alignh":1,"alignv":0,"interlin":17.533757546567362},"geometry":{"type":"Point","coordinates":[14.1274005,55.977116,0.0]}},
{"type":"Feature","properties":{"fid":882,"handle":118644,"block":-1,"etype":19,"space":0,"layer":"J26_offentlig karta etiketter WC Dusch Kyl Slask","olinetype":"BYLAYER","linetype":"","color":"0,0,0,254","ocolor":256,"color24":-1,"transparency":0,"lweight":-1,"linewidth":0.0,"ltscale":1.0,"visible":1,"thickness":0.0,"ext":"(3:0,0,1)","height":17.533757546567362,"text":"Slask","angle":88.254133133745526,"widthscale":0.0,"oblique":0.0,"style":"STANDARD","textgen":2,"alignh":1,"alignv":0,"interlin":17.533757546567362},"geometry":{"type":"Point","coordinates":[14.1273998,55.9770748,0.0]}},
{"type":"Feature","properties":{"fid":883,"handle":118645,"block":-1,"etype":19,"space":0,"layer":"J26_offentlig karta etiketter WC Dusch Kyl Slask","olinetype":"BYLAYER","linetype":"","color":"0,0,0,254","ocolor":256,"color24":-1,"transparency":0,"lweight":-1,"linewidth":0.0,"ltscale":1.0,"visible":1,"thickness":0.0,"ext":"(3:0,0,1)","height":17.533757546567362,"text":"Kylcontainer","angle":88.254131844658673,"widthscale":0.0,"oblique":0.0,"style":"STANDARD","textgen":2,"alignh":1,"alignv":0,"interlin":17.533757546567362},"geometry":{"type":"Point","coordinates":[14.1273991,55.9770336,0.0]}},
{"type":"Feature","properties":{"fid":884,"handle":118655,"block":-1,"etype":19,"space":0,"layer":"J26_offentlig karta etiketter WC Dusch Kyl Slask","olinetype":"BYLAYER","linetype":"","color":"0,0,0,254","ocolor":256,"color24":-1,"transparency":0,"lweight":-1,"linewidth":0.0,"ltscale":1.0,"visible":1,"thickness":0.0,"ext":"(3:0,0,1)","height":17.533757546567362,"text":"WC","angle":88.251601887667064,"widthscale":0.0,"oblique":0.0,"style":"STANDARD","textgen":2,"alignh":1,"alignv":0,"interlin":17.533757546567362},"geometry":{"type":"Point","coordinates":[14.1321086,55.9814781,0.0]}},
{"type":"Feature","properties":{"fid":885,"handle":118656,"block":-1,"etype":19,"space":0,"layer":"J26_offentlig karta etiketter WC Dusch Kyl Slask","olinetype":"BYLAYER","linetype":"","color":"0,0,0,254","ocolor":256,"color24":-1,"transparency":0,"lweight":-1,"linewidth":0.0,"ltscale":1.0,"visible":1,"thickness":0.0,"ext":"(3:0,0,1)","height":24.482014754379641,"text":"Dusch","angle":88.251600596816075,"widthscale":0.0,"oblique":0.0,"style":"STANDARD","textgen":2,"alignh":1,"alignv":0,"interlin":24.482014754379641},"geometry":{"type":"Point","coordinates":[14.132108,55.9814369,0.0]}},
{"type":"Feature","properties":{"fid":886,"handle":118668,"block":-1,"etype":19,"space":0,"layer":"J26_offentlig karta etiketter WC Dusch Kyl Slask","olinetype":"BYLAYER","linetype":"","color":"0,0,0,254","ocolor":256,"color24":-1,"transparency":0,"lweight":-1,"linewidth":0.0,"ltscale":1.0,"visible":1,"thickness":0.0,"ext":"(3:0,0,1)","height":17.533757546567362,"text":"WC","angle":88.251290957421446,"widthscale":0.0,"oblique":0.0,"style":"STANDARD","textgen":2,"alignh":1,"alignv":0,"interlin":17.533757546567362},"geometry":{"type":"Point","coordinates":[14.1325306,55.9798066,0.0]}},
{"type":"Feature","properties":{"fid":887,"handle":118680,"block":-1,"etype":19,"space":0,"layer":"J26_offentlig karta etiketter WC Dusch Kyl Slask","olinetype":"BYLAYER","linetype":"","color":"0,0,0,254","ocolor":256,"color24":-1,"transparency":0,"lweight":-1,"linewidth":0.0,"ltscale":1.0,"visible":1,"thickness":0.0,"ext":"(3:0,0,1)","height":25.521606335765679,"text":"HWC ","angle":88.251289666302512,"widthscale":0.0,"oblique":0.0,"style":"STANDARD","textgen":2,"alignh":1,"alignv":0,"interlin":25.521606335765679},"geometry":{"type":"Point","coordinates":[14.1325299,55.9797655,0.0]}},
{"type":"Feature","properties":{"fid":888,"handle":118681,"block":-1,"etype":19,"space":0,"layer":"J26_offentlig karta etiketter WC Dusch Kyl Slask","olinetype":"BYLAYER","linetype":"","color":"0,0,0,254","ocolor":256,"color24":-1,"transparency":0,"lweight":-1,"linewidth":0.0,"ltscale":1.0,"visible":1,"thickness":0.0,"ext":"(3:0,0,1)","height":17.533757546567362,"text":"WC","angle":88.250840124947032,"widthscale":0.0,"oblique":0.0,"style":"STANDARD","textgen":2,"alignh":1,"alignv":0,"interlin":17.533757546567362},"geometry":{"type":"Point","coordinates":[14.1332227,55.9785202,0.0]}},
{"type":"Feature","properties":{"fid":889,"handle":118693,"block":-1,"etype":19,"space":0,"layer":"J26_offentlig karta etiketter WC Dusch Kyl Slask","olinetype":"BYLAYER","linetype":"","color":"0,0,0,254","ocolor":256,"color24":-1,"transparency":0,"lweight":-1,"linewidth":0.0,"ltscale":1.0,"visible":1,"thickness":0.0,"ext":"(3:0,0,1)","height":25.521606335765679,"text":"HWC","angle":88.250838833465934,"widthscale":0.0,"oblique":0.0,"style":"STANDARD","textgen":2,"alignh":1,"alignv":0,"interlin":25.521606335765679},"geometry":{"type":"Point","coordinates":[14.133222,55.978479,0.0]}},
{"type":"Feature","properties":{"fid":890,"handle":118694,"block":-1,"etype":19,"space":0,"layer":"J26_offentlig karta etiketter WC Dusch Kyl Slask","olinetype":"BYLAYER","linetype":"","color":"0,0,0,254","ocolor":256,"color24":-1,"transparency":0,"lweight":-1,"linewidth":0.0,"ltscale":1.0,"visible":1,"thickness":0.0,"ext":"(3:0,0,1)","height":17.533757546567362,"text":"WC","angle":88.249222411026906,"widthscale":0.0,"oblique":0.0,"style":"STANDARD","textgen":2,"alignh":1,"alignv":0,"interlin":17.533757546567362},"geometry":{"type":"Point","coordinates":[14.1360436,55.9786668,0.0]}},
{"type":"Feature","properties":{"fid":891,"handle":118696,"block":-1,"etype":19,"space":0,"layer":"J26_offentlig karta etiketter WC Dusch Kyl Slask","olinetype":"BYLAYER","linetype":"","color":"0,0,0,254","ocolor":256,"color24":-1,"transparency":0,"lweight":-1,"linewidth":0.0,"ltscale":1.0,"visible":1,"thickness":0.0,"ext":"(3:0,0,1)","height":17.533757546567362,"text":"Slask","angle":88.249219825684392,"widthscale":0.0,"oblique":0.0,"style":"STANDARD","textgen":2,"alignh":1,"alignv":0,"interlin":17.533757546567362},"geometry":{"type":"Point","coordinates":[14.1360422,55.9785845,0.0]}},
{"type":"Feature","properties":{"fid":892,"handle":118697,"block":-1,"etype":19,"space":0,"layer":"J26_offentlig karta etiketter WC Dusch Kyl Slask","olinetype":"BYLAYER","linetype":"","color":"0,0,0,254","ocolor":256,"color24":-1,"transparency":0,"lweight":-1,"linewidth":0.0,"ltscale":1.0,"visible":1,"thickness":0.0,"ext":"(3:0,0,1)","height":17.533757546567362,"text":"Kylcontainer","angle":88.249218533010279,"widthscale":0.0,"oblique":0.0,"style":"STANDARD","textgen":2,"alignh":1,"alignv":0,"interlin":17.533757546567362},"geometry":{"type":"Point","coordinates":[14.1360416,55.9785433,0.0]}},
{"type":"Feature","properties":{"fid":893,"handle":118706,"block":-1,"etype":19,"space":0,"layer":"J26_offentlig karta etiketter WC Dusch Kyl Slask","olinetype":"BYLAYER","linetype":"","color":"0,0,0,254","ocolor":256,"color24":-1,"transparency":0,"lweight":-1,"linewidth":0.0,"ltscale":1.0,"visible":1,"thickness":0.0,"ext":"(3:0,0,1)","height":25.521606335765679,"text":"HWC","angle":88.249221118356601,"widthscale":0.0,"oblique":0.0,"style":"STANDARD","textgen":2,"alignh":1,"alignv":0,"interlin":25.521606335765679},"geometry":{"type":"Point","coordinates":[14.1360429,55.9786257,0.0]}},
{"type":"Feature","properties":{"fid":894,"handle":118707,"block":-1,"etype":19,"space":0,"layer":"J26_offentlig karta etiketter WC Dusch Kyl Slask","olinetype":"BYLAYER","linetype":"","color":"0,0,0,254","ocolor":256,"color24":-1,"transparency":0,"lweight":-1,"linewidth":0.0,"ltscale":1.0,"visible":1,"thickness":0.0,"ext":"(3:0,0,1)","height":17.533757546567362,"text":"WC","angle":88.249349551225464,"widthscale":0.0,"oblique":0.0,"style":"STANDARD","textgen":2,"alignh":1,"alignv":0,"interlin":17.533757546567362},"geometry":{"type":"Point","coordinates":[14.1359706,55.9807521,0.0]}},
{"type":"Feature","properties":{"fid":895,"handle":118709,"block":-1,"etype":19,"space":0,"layer":"J26_offentlig karta etiketter WC Dusch Kyl Slask","olinetype":"BYLAYER","linetype":"","color":"0,0,0,254","ocolor":256,"color24":-1,"transparency":0,"lweight":-1,"linewidth":0.0,"ltscale":1.0,"visible":1,"thickness":0.0,"ext":"(3:0,0,1)","height":17.533757546567362,"text":"Slask","angle":88.249346966167138,"widthscale":0.0,"oblique":0.0,"style":"STANDARD","textgen":2,"alignh":1,"alignv":0,"interlin":17.533757546567362},"geometry":{"type":"Point","coordinates":[14.1359693,55.9806697,0.0]}},
{"type":"Feature","properties":{"fid":896,"handle":118710,"block":-1,"etype":19,"space":0,"layer":"J26_offentlig karta etiketter WC Dusch Kyl Slask","olinetype":"BYLAYER","linetype":"","color":"0,0,0,254","ocolor":256,"color24":-1,"transparency":0,"lweight":-1,"linewidth":0.0,"ltscale":1.0,"visible":1,"thickness":0.0,"ext":"(3:0,0,1)","height":17.533757546567362,"text":"Kylcontainer","angle":88.249345673635105,"widthscale":0.0,"oblique":0.0,"style":"STANDARD","textgen":2,"alignh":1,"alignv":0,"interlin":17.533757546567362},"geometry":{"type":"Point","coordinates":[14.1359686,55.9806286,0.0]}},
{"type":"Feature","properties":{"fid":897,"handle":118719,"block":-1,"etype":19,"space":0,"layer":"J26_offentlig karta etiketter WC Dusch Kyl Slask","olinetype":"BYLAYER","linetype":"","color":"0,0,0,254","ocolor":256,"color24":-1,"transparency":0,"lweight":-1,"linewidth":0.0,"ltscale":1.0,"visible":1,"thickness":0.0,"ext":"(3:0,0,1)","height":25.521606335765679,"text":"HWC","angle":88.249348258697239,"widthscale":0.0,"oblique":0.0,"style":"STANDARD","textgen":2,"alignh":1,"alignv":0,"interlin":25.521606335765679},"geometry":{"type":"Point","coordinates":[14.1359699,55.9807109,0.0]}},
{"type":"Feature","properties":{"fid":898,"handle":118720,"block":-1,"etype":19,"space":0,"layer":"J26_offentlig karta etiketter WC Dusch Kyl Slask","olinetype":"BYLAYER","linetype":"","color":"0,0,0,254","ocolor":256,"color24":-1,"transparency":0,"lweight":-1,"linewidth":0.0,"ltscale":1.0,"visible":1,"thickness":0.0,"ext":"(3:0,0,1)","height":17.533757546567362,"text":"WC","angle":88.249403177504362,"widthscale":0.0,"oblique":0.0,"style":"STANDARD","textgen":2,"alignh":1,"alignv":0,"interlin":17.533757546567362},"geometry":{"type":"Point","coordinates":[14.1359579,55.9818858,0.0]}},
{"type":"Feature","properties":{"fid":899,"handle":118721,"block":-1,"etype":19,"space":0,"layer":"J26_offentlig karta etiketter WC Dusch Kyl Slask","olinetype":"BYLAYER","linetype":"","color":"0,0,0,254","ocolor":256,"color24":-1,"transparency":0,"lweight":-1,"linewidth":0.0,"ltscale":1.0,"visible":1,"thickness":0.0,"ext":"(3:0,0,1)","height":24.482014754379641,"text":"Dusch","angle":88.2494005925777,"widthscale":0.0,"oblique":0.0,"style":"STANDARD","textgen":2,"alignh":1,"alignv":0,"interlin":24.482014754379641},"geometry":{"type":"Point","coordinates":[14.1359565,55.9818035,0.0]}},
{"type":"Feature","properties":{"fid":900,"handle":118722,"block":-1,"etype":19,"space":0,"layer":"J26_offentlig karta etiketter WC Dusch Kyl Slask","olinetype":"BYLAYER","linetype":"","color":"0,0,0,254","ocolor":256,"color24":-1,"transparency":0,"lweight":-1,"linewidth":0.0,"ltscale":1.0,"visible":1,"thickness":0.0,"ext":"(3:0,0,1)","height":17.533757546567362,"text":"Slask","angle":88.24939930011152,"widthscale":0.0,"oblique":0.0,"style":"STANDARD","textgen":2,"alignh":1,"alignv":0,"interlin":17.533757546567362},"geometry":{"type":"Point","coordinates":[14.1359559,55.9817623,0.0]}},
{"type":"Feature","properties":{"fid":901,"handle":118723,"block":-1,"etype":19,"space":0,"layer":"J26_offentlig karta etiketter WC Dusch Kyl Slask","olinetype":"BYLAYER","linetype":"","color":"0,0,0,254","ocolor":256,"color24":-1,"transparency":0,"lweight":-1,"linewidth":0.0,"ltscale":1.0,"visible":1,"thickness":0.0,"ext":"(3:0,0,1)","height":17.533757546567362,"text":"Kylcontainer","angle":88.249398007643407,"widthscale":0.0,"oblique":0.0,"style":"STANDARD","textgen":2,"alignh":1,"alignv":0,"interlin":17.533757546567362},"geometry":{"type":"Point","coordinates":[14.1359552,55.9817211,0.0]}},
{"type":"Feature","properties":{"fid":902,"handle":118732,"block":-1,"etype":19,"space":0,"layer":"J26_offentlig karta etiketter WC Dusch Kyl Slask","olinetype":"BYLAYER","linetype":"","color":"0,0,0,254","ocolor":256,"color24":-1,"transparency":0,"lweight":-1,"linewidth":0.0,"ltscale":1.0,"visible":1,"thickness":0.0,"ext":"(3:0,0,1)","height":25.521606335765679,"text":"HWC","angle":88.249401885041991,"widthscale":0.0,"oblique":0.0,"style":"STANDARD","textgen":2,"alignh":1,"alignv":0,"interlin":25.521606335765679},"geometry":{"type":"Point","coordinates":[14.1359572,55.9818447,0.0]}},
{"type":"Feature","properties":{"fid":903,"handle":118733,"block":-1,"etype":19,"space":0,"layer":"J26_offentlig karta etiketter WC Dusch Kyl Slask","olinetype":"BYLAYER","linetype":"","color":"0,0,0,254","ocolor":256,"color24":-1,"transparency":0,"lweight":-1,"linewidth":0.0,"ltscale":1.0,"visible":1,"thickness":0.0,"ext":"(3:0,0,1)","height":17.533757546567362,"text":"WC","angle":88.246968641094327,"widthscale":0.0,"oblique":0.0,"style":"STANDARD","textgen":2,"alignh":1,"alignv":0,"interlin":17.533757546567362},"geometry":{"type":"Point","coordinates":[14.1402318,55.9825006,0.0]}},
{"type":"Feature","properties":{"fid":904,"handle":118735,"block":-1,"etype":19,"space":0,"layer":"J26_offentlig karta etiketter WC Dusch Kyl Slask","olinetype":"BYLAYER","linetype":"","color":"0,0,0,254","ocolor":256,"color24":-1,"transparency":0,"lweight":-1,"linewidth":0.0,"ltscale":1.0,"visible":1,"thickness":0.0,"ext":"(3:0,0,1)","height":17.533757546567362,"text":"Slask","angle":88.246966052606894,"widthscale":0.0,"oblique":0.0,"style":"STANDARD","textgen":2,"alignh":1,"alignv":0,"interlin":17.533757546567362},"geometry":{"type":"Point","coordinates":[14.1402304,55.9824182,0.0]}},
{"type":"Feature","properties":{"fid":905,"handle":118736,"block":-1,"etype":19,"space":0,"layer":"J26_offentlig karta etiketter WC Dusch Kyl Slask","olinetype":"BYLAYER","linetype":"","color":"0,0,0,254","ocolor":256,"color24":-1,"transparency":0,"lweight":-1,"linewidth":0.0,"ltscale":1.0,"visible":1,"thickness":0.0,"ext":"(3:0,0,1)","height":17.533757546567362,"text":"Kylcontainer","angle":88.246964758360306,"widthscale":0.0,"oblique":0.0,"style":"STANDARD","textgen":2,"alignh":1,"alignv":0,"interlin":17.533757546567362},"geometry":{"type":"Point","coordinates":[14.1402297,55.982377,0.0]}},
{"type":"Feature","properties":{"fid":906,"handle":118745,"block":-1,"etype":19,"space":0,"layer":"J26_offentlig karta etiketter WC Dusch Kyl Slask","olinetype":"BYLAYER","linetype":"","color":"0,0,0,254","ocolor":256,"color24":-1,"transparency":0,"lweight":-1,"linewidth":0.0,"ltscale":1.0,"visible":1,"thickness":0.0,"ext":"(3:0,0,1)","height":25.521606335765679,"text":"HWC","angle":88.246967346851562,"widthscale":0.0,"oblique":0.0,"style":"STANDARD","textgen":2,"alignh":1,"alignv":0,"interlin":25.521606335765679},"geometry":{"type":"Point","coordinates":[14.1402311,55.9824594,0.0]}},
{"type":"Feature","properties":{"fid":907,"handle":118746,"block":-1,"etype":19,"space":0,"layer":"J26_offentlig karta etiketter WC Dusch Kyl Slask","olinetype":"BYLAYER","linetype":"","color":"0,0,0,254","ocolor":256,"color24":-1,"transparency":0,"lweight":-1,"linewidth":0.0,"ltscale":1.0,"visible":1,"thickness":0.0,"ext":"(3:0,0,1)","height":17.533757546567362,"text":"WC","angle":88.246587024606214,"widthscale":0.0,"oblique":0.0,"style":"STANDARD","textgen":2,"alignh":1,"alignv":0,"interlin":17.533757546567362},"geometry":{"type":"Point","coordinates":[14.1407562,55.980551,0.0]}},
{"type":"Feature","properties":{"fid":908,"handle":118747,"block":-1,"etype":19,"space":0,"layer":"J26_offentlig karta etiketter WC Dusch Kyl Slask","olinetype":"BYLAYER","linetype":"","color":"0,0,0,254","ocolor":256,"color24":-1,"transparency":0,"lweight":-1,"linewidth":0.0,"ltscale":1.0,"visible":1,"thickness":0.0,"ext":"(3:0,0,1)","height":24.482014754379641,"text":"Dusch","angle":88.246584435465579,"widthscale":0.0,"oblique":0.0,"style":"STANDARD","textgen":2,"alignh":1,"alignv":0,"interlin":24.482014754379641},"geometry":{"type":"Point","coordinates":[14.1407548,55.9804686,0.0]}},
{"type":"Feature","properties":{"fid":909,"handle":118748,"block":-1,"etype":19,"space":0,"layer":"J26_offentlig karta etiketter WC Dusch Kyl Slask","olinetype":"BYLAYER","linetype":"","color":"0,0,0,254","ocolor":256,"color24":-1,"transparency":0,"lweight":-1,"linewidth":0.0,"ltscale":1.0,"visible":1,"thickness":0.0,"ext":"(3:0,0,1)","height":17.533757546567362,"text":"Slask","angle":88.246583140892398,"widthscale":0.0,"oblique":0.0,"style":"STANDARD","textgen":2,"alignh":1,"alignv":0,"interlin":17.533757546567362},"geometry":{"type":"Point","coordinates":[14.1407541,55.9804274,0.0]}},
{"type":"Feature","properties":{"fid":910,"handle":118749,"block":-1,"etype":19,"space":0,"layer":"J26_offentlig karta etiketter WC Dusch Kyl Slask","olinetype":"BYLAYER","linetype":"","color":"0,0,0,254","ocolor":256,"color24":-1,"transparency":0,"lweight":-1,"linewidth":0.0,"ltscale":1.0,"visible":1,"thickness":0.0,"ext":"(3:0,0,1)","height":17.533757546567362,"text":"Kylcontainer","angle":88.246581846317298,"widthscale":0.0,"oblique":0.0,"style":"STANDARD","textgen":2,"alignh":1,"alignv":0,"interlin":17.533757546567362},"geometry":{"type":"Point","coordinates":[14.1407534,55.9803862,0.0]}},
{"type":"Feature","properties":{"fid":911,"handle":118758,"block":-1,"etype":19,"space":0,"layer":"J26_offentlig karta etiketter WC Dusch Kyl Slask","olinetype":"BYLAYER","linetype":"","color":"0,0,0,254","ocolor":256,"color24":-1,"transparency":0,"lweight":-1,"linewidth":0.0,"ltscale":1.0,"visible":1,"thickness":0.0,"ext":"(3:0,0,1)","height":25.521606335765679,"text":"HWC m. dusch","angle":88.246585730036855,"widthscale":0.0,"oblique":0.0,"style":"STANDARD","textgen":2,"alignh":1,"alignv":0,"interlin":25.521606335765679},"geometry":{"type":"Point","coordinates":[14.1407555,55.9805098,0.0]}},
{"type":"Feature","properties":{"fid":912,"handle":118759,"block":-1,"etype":19,"space":0,"layer":"J26_offentlig karta etiketter WC Dusch Kyl Slask","olinetype":"BYLAYER","linetype":"","color":"0,0,0,254","ocolor":256,"color24":-1,"transparency":0,"lweight":-1,"linewidth":0.0,"ltscale":1.0,"visible":1,"thickness":0.0,"ext":"(3:0,0,1)","height":17.533757546567362,"text":"WC","angle":88.246683223572475,"widthscale":0.0,"oblique":0.0,"style":"STANDARD","textgen":2,"alignh":1,"alignv":0,"interlin":17.533757546567362},"geometry":{"type":"Point","coordinates":[14.1404715,55.9788996,0.0]}},
{"type":"Feature","properties":{"fid":913,"handle":118771,"block":-1,"etype":19,"space":0,"layer":"J26_offentlig karta etiketter WC Dusch Kyl Slask","olinetype":"BYLAYER","linetype":"","color":"0,0,0,254","ocolor":256,"color24":-1,"transparency":0,"lweight":-1,"linewidth":0.0,"ltscale":1.0,"visible":1,"thickness":0.0,"ext":"(3:0,0,1)","height":25.521606335765679,"text":"HWC","angle":88.246681929035674,"widthscale":0.0,"oblique":0.0,"style":"STANDARD","textgen":2,"alignh":1,"alignv":0,"interlin":25.521606335765679},"geometry":{"type":"Point","coordinates":[14.1404708,55.9788584,0.0]}},
{"type":"Feature","properties":{"fid":914,"handle":118772,"block":-1,"etype":19,"space":0,"layer":"J26_offentlig karta etiketter WC Dusch Kyl Slask","olinetype":"BYLAYER","linetype":"","color":"0,0,0,254","ocolor":256,"color24":-1,"transparency":0,"lweight":-1,"linewidth":0.0,"ltscale":1.0,"visible":1,"thickness":0.0,"ext":"(3:0,0,1)","height":17.533757546567362,"text":"WC","angle":88.246027690076843,"widthscale":0.0,"oblique":0.0,"style":"STANDARD","textgen":2,"alignh":1,"alignv":0,"interlin":17.533757546567362},"geometry":{"type":"Point","coordinates":[14.1417485,55.9808392,0.0]}},
{"type":"Feature","properties":{"fid":915,"handle":118773,"block":-1,"etype":19,"space":0,"layer":"J26_offentlig karta etiketter WC Dusch Kyl Slask","olinetype":"BYLAYER","linetype":"","color":"0,0,0,254","ocolor":256,"color24":-1,"transparency":0,"lweight":-1,"linewidth":0.0,"ltscale":1.0,"visible":1,"thickness":0.0,"ext":"(3:0,0,1)","height":24.482014754379641,"text":"Dusch","angle":88.246026395101836,"widthscale":0.0,"oblique":0.0,"style":"STANDARD","textgen":2,"alignh":1,"alignv":0,"interlin":24.482014754379641},"geometry":{"type":"Point","coordinates":[14.1417478,55.980798,0.0]}},
{"type":"Feature","properties":{"fid":916,"handle":118774,"block":-1,"etype":19,"space":0,"layer":"J26_offentlig karta etiketter WC Dusch Kyl Slask","olinetype":"BYLAYER","linetype":"","color":"0,0,0,254","ocolor":256,"color24":-1,"transparency":0,"lweight":-1,"linewidth":0.0,"ltscale":1.0,"visible":1,"thickness":0.0,"ext":"(3:0,0,1)","height":17.533757546567362,"text":"Slask","angle":88.246025100124925,"widthscale":0.0,"oblique":0.0,"style":"STANDARD","textgen":2,"alignh":1,"alignv":0,"interlin":17.533757546567362},"geometry":{"type":"Point","coordinates":[14.1417471,55.9807569,0.0]}},
{"type":"Feature","properties":{"fid":917,"handle":118775,"block":-1,"etype":19,"space":0,"layer":"J26_offentlig karta etiketter WC Dusch Kyl Slask","olinetype":"BYLAYER","linetype":"","color":"0,0,0,254","ocolor":256,"color24":-1,"transparency":0,"lweight":-1,"linewidth":0.0,"ltscale":1.0,"visible":1,"thickness":0.0,"ext":"(3:0,0,1)","height":17.533757546567362,"text":"Kylcontainer","angle":88.246023805146109,"widthscale":0.0,"oblique":0.0,"style":"STANDARD","textgen":2,"alignh":1,"alignv":0,"interlin":17.533757546567362},"geometry":{"type":"Point","coordinates":[14.1417465,55.9807157,0.0]}},
{"type":"Feature","properties":{"fid":918,"handle":118785,"block":-1,"etype":19,"space":0,"layer":"J26_offentlig karta etiketter WC Dusch Kyl Slask","olinetype":"BYLAYER","linetype":"","color":"0,0,0,254","ocolor":256,"color24":-1,"transparency":0,"lweight":-1,"linewidth":0.0,"ltscale":1.0,"visible":1,"thickness":0.0,"ext":"(3:0,0,1)","height":17.533757546567362,"text":"WC","angle":88.245579598033984,"widthscale":0.0,"oblique":0.0,"style":"STANDARD","textgen":2,"alignh":1,"alignv":0,"interlin":17.533757546567362},"geometry":{"type":"Point","coordinates":[14.1426643,55.9827652,0.0]}},
{"type":"Feature","properties":{"fid":919,"handle":118787,"block":-1,"etype":19,"space":0,"layer":"J26_offentlig karta etiketter WC Dusch Kyl Slask","olinetype":"BYLAYER","linetype":"","color":"0,0,0,254","ocolor":256,"color24":-1,"transparency":0,"lweight":-1,"linewidth":0.0,"ltscale":1.0,"visible":1,"thickness":0.0,"ext":"(3:0,0,1)","height":17.533757546567362,"text":"Slask","angle":88.245577007510974,"widthscale":0.0,"oblique":0.0,"style":"STANDARD","textgen":2,"alignh":1,"alignv":0,"interlin":17.533757546567362},"geometry":{"type":"Point","coordinates":[14.1426629,55.9826829,0.0]}},
{"type":"Feature","properties":{"fid":920,"handle":118788,"block":-1,"etype":19,"space":0,"layer":"J26_offentlig karta etiketter WC Dusch Kyl Slask","olinetype":"BYLAYER","linetype":"","color":"0,0,0,254","ocolor":256,"color24":-1,"transparency":0,"lweight":-1,"linewidth":0.0,"ltscale":1.0,"visible":1,"thickness":0.0,"ext":"(3:0,0,1)","height":17.533757546567362,"text":"Kylcontainer","angle":88.245575712246591,"widthscale":0.0,"oblique":0.0,"style":"STANDARD","textgen":2,"alignh":1,"alignv":0,"interlin":17.533757546567362},"geometry":{"type":"Point","coordinates":[14.1426622,55.9826417,0.0]}},
{"type":"Feature","properties":{"fid":921,"handle":118797,"block":-1,"etype":19,"space":0,"layer":"J26_offentlig karta etiketter WC Dusch Kyl Slask","olinetype":"BYLAYER","linetype":"","color":"0,0,0,254","ocolor":256,"color24":-1,"transparency":0,"lweight":-1,"linewidth":0.0,"ltscale":1.0,"visible":1,"thickness":0.0,"ext":"(3:0,0,1)","height":25.521606335765679,"text":"HWC","angle":88.245578302773424,"widthscale":0.0,"oblique":0.0,"style":"STANDARD","textgen":2,"alignh":1,"alignv":0,"interlin":25.521606335765679},"geometry":{"type":"Point","coordinates":[14.1426636,55.982724,0.0]}},
{"type":"Feature","properties":{"fid":922,"handle":118798,"block":-1,"etype":19,"space":0,"layer":"J26_offentlig karta etiketter WC Dusch Kyl Slask","olinetype":"BYLAYER","linetype":"","color":"0,0,0,254","ocolor":256,"color24":-1,"transparency":0,"lweight":-1,"linewidth":0.0,"ltscale":1.0,"visible":1,"thickness":0.0,"ext":"(3:0,0,1)","height":17.533757546567362,"text":"WC","angle":88.243068661508815,"widthscale":0.0,"oblique":0.0,"style":"STANDARD","textgen":2,"alignh":1,"alignv":0,"interlin":17.533757546567362},"geometry":{"type":"Point","coordinates":[14.1469122,55.9811532,0.0]}},
{"type":"Feature","properties":{"fid":923,"handle":118810,"block":-1,"etype":19,"space":0,"layer":"J26_offentlig karta etiketter WC Dusch Kyl Slask","olinetype":"BYLAYER","linetype":"","color":"0,0,0,254","ocolor":256,"color24":-1,"transparency":0,"lweight":-1,"linewidth":0.0,"ltscale":1.0,"visible":1,"thickness":0.0,"ext":"(3:0,0,1)","height":25.521606335765679,"text":"HWC","angle":88.243067364359803,"widthscale":0.0,"oblique":0.0,"style":"STANDARD","textgen":2,"alignh":1,"alignv":0,"interlin":25.521606335765679},"geometry":{"type":"Point","coordinates":[14.1469116,55.981112,0.0]}},
{"type":"Feature","properties":{"fid":924,"handle":118811,"block":-1,"etype":19,"space":0,"layer":"J26_offentlig karta etiketter WC Dusch Kyl Slask","olinetype":"BYLAYER","linetype":"","color":"0,0,0,254","ocolor":256,"color24":-1,"transparency":0,"lweight":-1,"linewidth":0.0,"ltscale":1.0,"visible":1,"thickness":0.0,"ext":"(3:0,0,1)","height":17.533757546567362,"text":"Slask","angle":88.246680634496954,"widthscale":0.0,"oblique":0.0,"style":"STANDARD","textgen":2,"alignh":1,"alignv":0,"interlin":17.533757546567362},"geometry":{"type":"Point","coordinates":[14.1404702,55.9788173,0.0]}},
{"type":"Feature","properties":{"fid":925,"handle":118812,"block":-1,"etype":19,"space":0,"layer":"J26_offentlig karta etiketter WC Dusch Kyl Slask","olinetype":"BYLAYER","linetype":"","color":"0,0,0,254","ocolor":256,"color24":-1,"transparency":0,"lweight":-1,"linewidth":0.0,"ltscale":1.0,"visible":1,"thickness":0.0,"ext":"(3:0,0,1)","height":17.533757546567362,"text":"Kylcontainer","angle":88.246679339956316,"widthscale":0.0,"oblique":0.0,"style":"STANDARD","textgen":2,"alignh":1,"alignv":0,"interlin":17.533757546567362},"geometry":{"type":"Point","coordinates":[14.1404695,55.9787761,0.0]}},
{"type":"Feature","properties":{"fid":926,"handle":118813,"block":-1,"etype":19,"space":0,"layer":"J26_offentlig karta etiketter WC Dusch Kyl Slask","olinetype":"BYLAYER","linetype":"","color":"0,0,0,254","ocolor":256,"color24":-1,"transparency":0,"lweight":-1,"linewidth":0.0,"ltscale":1.0,"visible":1,"thickness":0.0,"ext":"(3:0,0,1)","height":17.533757546567362,"text":"WC","angle":88.256097498169822,"widthscale":0.0,"oblique":0.0,"style":"STANDARD","textgen":2,"alignh":1,"alignv":0,"interlin":17.533757546567362},"geometry":{"type":"Point","coordinates":[14.1242266,55.9804715,0.0]}},
{"type":"Feature","properties":{"fid":927,"handle":118814,"block":-1,"etype":19,"space":0,"layer":"J26_offentlig karta etiketter WC Dusch Kyl Slask","olinetype":"BYLAYER","linetype":"","color":"0,0,0,254","ocolor":256,"color24":-1,"transparency":0,"lweight":-1,"linewidth":0.0,"ltscale":1.0,"visible":1,"thickness":0.0,"ext":"(3:0,0,1)","height":25.521606335765679,"text":"HWC","angle":88.256096210609684,"widthscale":0.0,"oblique":0.0,"style":"STANDARD","textgen":2,"alignh":1,"alignv":0,"interlin":25.521606335765679},"geometry":{"type":"Point","coordinates":[14.1242259,55.9804303,0.0]}},
{"type":"Feature","properties":{"fid":928,"handle":118815,"block":-1,"etype":19,"space":0,"layer":"J26_offentlig karta etiketter WC Dusch Kyl Slask","olinetype":"BYLAYER","linetype":"","color":"0,0,0,254","ocolor":256,"color24":-1,"transparency":0,"lweight":-1,"linewidth":0.0,"ltscale":1.0,"visible":1,"thickness":0.0,"ext":"(3:0,0,1)","height":17.533757546567362,"text":"WC","angle":88.253253154039925,"widthscale":0.0,"oblique":0.0,"style":"STANDARD","textgen":2,"alignh":1,"alignv":0,"interlin":17.533757546567362},"geometry":{"type":"Point","coordinates":[14.1293961,55.9836935,0.0]}},
{"type":"Feature","properties":{"fid":929,"handle":118816,"block":-1,"etype":19,"space":0,"layer":"J26_offentlig karta etiketter WC Dusch Kyl Slask","olinetype":"BYLAYER","linetype":"","color":"0,0,0,254","ocolor":256,"color24":-1,"transparency":0,"lweight":-1,"linewidth":0.0,"ltscale":1.0,"visible":1,"thickness":0.0,"ext":"(3:0,0,1)","height":25.521606335765679,"text":"HWC","angle":88.253251864457482,"widthscale":0.0,"oblique":0.0,"style":"STANDARD","textgen":2,"alignh":1,"alignv":0,"interlin":25.521606335765679},"geometry":{"type":"Point","coordinates":[14.1293954,55.9836523,0.0]}},
{"type":"Feature","properties":{"fid":938,"handle":118828,"block":-1,"etype":19,"space":0,"layer":"J26_offentlig karta etiketter WC Dusch Kyl Slask","olinetype":"BYLAYER","linetype":"","color":"0,0,0,254","ocolor":256,"color24":-1,"transparency":0,"lweight":-1,"linewidth":0.0,"ltscale":1.0,"visible":1,"thickness":0.0,"ext":"(3:0,0,1)","height":17.533757546567362,"text":"Slask","angle":88.251288375181673,"widthscale":0.0,"oblique":0.0,"style":"STANDARD","textgen":2,"alignh":1,"alignv":0,"interlin":17.533757546567362},"geometry":{"type":"Point","coordinates":[14.1325292,55.9797243,0.0]}},
{"type":"Feature","properties":{"fid":939,"handle":118829,"block":-1,"etype":19,"space":0,"layer":"J26_offentlig karta etiketter WC Dusch Kyl Slask","olinetype":"BYLAYER","linetype":"","color":"0,0,0,254","ocolor":256,"color24":-1,"transparency":0,"lweight":-1,"linewidth":0.0,"ltscale":1.0,"visible":1,"thickness":0.0,"ext":"(3:0,0,1)","height":17.533757546567362,"text":"Kylcontainer","angle":88.25128708405893,"widthscale":0.0,"oblique":0.0,"style":"STANDARD","textgen":2,"alignh":1,"alignv":0,"interlin":17.533757546567362},"geometry":{"type":"Point","coordinates":[14.1325285,55.9796831,0.0]}}
]
}
