{"type":"FeatureCollection","name":"village_labels","crs":{"type":"name","properties":{"name":"urn:ogc:def:crs:OGC:1.3:CRS84"}},"xy_coordinate_resolution":1e-7,"features":[{"type":"Feature","properties":{"village_number":"351"},"geometry":{"type":"Point","coordinates":[14.1365935,55.9808139]}},{"type":"Feature","properties":{"village_number":"343"},"geometry":{"type":"Point","coordinates":[14.1359822,55.9815551]}},{"type":"Feature","properties":{"village_number":"344"},"geometry":{"type":"Point","coordinates":[14.1360254,55.9813127]}},{"type":"Feature","properties":{"village_number":"101"},"geometry":{"type":"Point","coordinates":[14.1294326,55.981926]}},{"type":"Feature","properties":{"village_number":"102"},"geometry":{"type":"Point","coordinates":[14.1301215,55.9819148]}},{"type":"Feature","properties":{"village_number":"103"},"geometry":{"type":"Point","coordinates":[14.1306551,55.9818177]}},{"type":"Feature","properties":{"village_number":"104"},"geometry":{"type":"Point","coordinates":[14.1309794,55.9817833]}},{"type":"Feature","properties":{"village_number":"105"},"geometry":{"type":"Point","coordinates":[14.1307927,55.9821156]}},{"type":"Feature","properties":{"village_number":"106"},"geometry":{"type":"Point","coordinates":[14.1312049,55.982378]}},{"type":"Feature","properties":{"village_number":"107"},"geometry":{"type":"Point","coordinates":[14.1319577,55.9823592]}},{"type":"Feature","properties":{"village_number":"108"},"geometry":{"type":"Point","coordinates":[14.1317246,55.9818961]}},{"type":"Feature","properties":{"village_number":"109"},"geometry":{"type":"Point","coordinates":[14.1315451,55.9816727]}},{"type":"Feature","properties":{"village_number":"110"},"geometry":{"type":"Point","coordinates":[14.1312905,55.9814646]}},{"type":"Feature","properties":{"village_number":"111"},"geometry":{"type":"Point","coordinates":[14.1306407,55.9814223]}},{"type":"Feature","properties":{"village_number":"112"},"geometry":{"type":"Point","coordinates":[14.130188,55.9813796]}},{"type":"Feature","properties":{"village_number":"113"},"geometry":{"type":"Point","coordinates":[14.1296681,55.9813294]}},{"type":"Feature","properties":{"village_number":"114"},"geometry":{"type":"Point","coordinates":[14.1293091,55.9810889]}},{"type":"Feature","properties":{"village_number":"115"},"geometry":{"type":"Point","coordinates":[14.1291701,55.9806282]}},{"type":"Feature","properties":{"village_number":"116"},"geometry":{"type":"Point","coordinates":[14.1290001,55.98037]}},{"type":"Feature","properties":{"village_number":"117"},"geometry":{"type":"Point","coordinates":[14.1297616,55.9804673]}},{"type":"Feature","properties":{"village_number":"118"},"geometry":{"type":"Point","coordinates":[14.1300802,55.9810078]}},{"type":"Feature","properties":{"village_number":"119"},"geometry":{"type":"Point","coordinates":[14.1309174,55.9809884]}},{"type":"Feature","properties":{"village_number":"120"},"geometry":{"type":"Point","coordinates":[14.1318648,55.9803737]}},{"type":"Feature","properties":{"village_number":"121"},"geometry":{"type":"Point","coordinates":[14.1314783,55.9796675]}},{"type":"Feature","properties":{"village_number":"122"},"geometry":{"type":"Point","coordinates":[14.1313281,55.9792417]}},{"type":"Feature","properties":{"village_number":"123"},"geometry":{"type":"Point","coordinates":[14.131176,55.9790429]}},{"type":"Feature","properties":{"village_number":"124"},"geometry":{"type":"Point","coordinates":[14.130818,55.9785553]}},{"type":"Feature","properties":{"village_number":"125"},"geometry":{"type":"Point","coordinates":[14.1313668,55.9785408]}},{"type":"Feature","properties":{"village_number":"126"},"geometry":{"type":"Point","coordinates":[14.1318852,55.9791947]}},{"type":"Feature","properties":{"village_number":"127"},"geometry":{"type":"Point","coordinates":[14.1321139,55.9795951]}},{"type":"Feature","properties":{"village_number":"128"},"geometry":{"type":"Point","coordinates":[14.1322711,55.9803436]}},{"type":"Feature","properties":{"village_number":"129"},"geometry":{"type":"Point","coordinates":[14.132474,55.98056]}},{"type":"Feature","properties":{"village_number":"130"},"geometry":{"type":"Point","coordinates":[14.1322622,55.9808297]}},{"type":"Feature","properties":{"village_number":"131"},"geometry":{"type":"Point","coordinates":[14.1325878,55.9792488]}},{"type":"Feature","properties":{"village_number":"132"},"geometry":{"type":"Point","coordinates":[14.1321472,55.9786768]}},{"type":"Feature","properties":{"village_number":"134"},"geometry":{"type":"Point","coordinates":[14.1327951,55.9786233]}},{"type":"Feature","properties":{"village_number":"133"},"geometry":{"type":"Point","coordinates":[14.1320052,55.9784723]}},{"type":"Feature","properties":{"village_number":"142"},"geometry":{"type":"Point","coordinates":[14.1356264,55.9793347]}},{"type":"Feature","properties":{"village_number":"135"},"geometry":{"type":"Point","coordinates":[14.1339866,55.9801004]}},{"type":"Feature","properties":{"village_number":"136"},"geometry":{"type":"Point","coordinates":[14.1344005,55.9801378]}},{"type":"Feature","properties":{"village_number":"137"},"geometry":{"type":"Point","coordinates":[14.1348508,55.9801511]}},{"type":"Feature","properties":{"village_number":"138"},"geometry":{"type":"Point","coordinates":[14.1352326,55.9802524]}},{"type":"Feature","properties":{"village_number":"139"},"geometry":{"type":"Point","coordinates":[14.136053,55.9800719]}},{"type":"Feature","properties":{"village_number":"140"},"geometry":{"type":"Point","coordinates":[14.1355451,55.9798514]}},{"type":"Feature","properties":{"village_number":"141"},"geometry":{"type":"Point","coordinates":[14.1351164,55.9797577]}},{"type":"Feature","properties":{"village_number":"401"},"geometry":{"type":"Point","coordinates":[14.1369524,55.9803164]}},{"type":"Feature","properties":{"village_number":"402"},"geometry":{"type":"Point","coordinates":[14.1372698,55.9804117]}},{"type":"Feature","properties":{"village_number":"403"},"geometry":{"type":"Point","coordinates":[14.1377125,55.9804353]}},{"type":"Feature","properties":{"village_number":"404"},"geometry":{"type":"Point","coordinates":[14.1382713,55.9804331]}},{"type":"Feature","properties":{"village_number":"405"},"geometry":{"type":"Point","coordinates":[14.1383356,55.9808514]}},{"type":"Feature","properties":{"village_number":"406"},"geometry":{"type":"Point","coordinates":[14.1392474,55.9812979]}},{"type":"Feature","properties":{"village_number":"407"},"geometry":{"type":"Point","coordinates":[14.1397388,55.9814632]}},{"type":"Feature","properties":{"village_number":"408"},"geometry":{"type":"Point","coordinates":[14.1401326,55.9815619]}},{"type":"Feature","properties":{"village_number":"409"},"geometry":{"type":"Point","coordinates":[14.1404565,55.9816821]}},{"type":"Feature","properties":{"village_number":"410"},"geometry":{"type":"Point","coordinates":[14.1409869,55.9817485]}},{"type":"Feature","properties":{"village_number":"411"},"geometry":{"type":"Point","coordinates":[14.1413272,55.9814325]}},{"type":"Feature","properties":{"village_number":"412"},"geometry":{"type":"Point","coordinates":[14.140981,55.9813637]}},{"type":"Feature","properties":{"village_number":"413"},"geometry":{"type":"Point","coordinates":[14.1404909,55.9812682]}},{"type":"Feature","properties":{"village_number":"414"},"geometry":{"type":"Point","coordinates":[14.1397388,55.9810506]}},{"type":"Feature","properties":{"village_number":"415"},"geometry":{"type":"Point","coordinates":[14.1393543,55.9806254]}},{"type":"Feature","properties":{"village_number":"416"},"geometry":{"type":"Point","coordinates":[14.1402036,55.9808127]}},{"type":"Feature","properties":{"village_number":"446"},"geometry":{"type":"Point","coordinates":[14.1368441,55.9790164]}},{"type":"Feature","properties":{"village_number":"418"},"geometry":{"type":"Point","coordinates":[14.1400128,55.9804152]}},{"type":"Feature","properties":{"village_number":"419"},"geometry":{"type":"Point","coordinates":[14.1395224,55.9802995]}},{"type":"Feature","properties":{"village_number":"420"},"geometry":{"type":"Point","coordinates":[14.1388068,55.9801413]}},{"type":"Feature","properties":{"village_number":"421"},"geometry":{"type":"Point","coordinates":[14.1381419,55.9800824]}},{"type":"Feature","properties":{"village_number":"422"},"geometry":{"type":"Point","coordinates":[14.137589,55.9800551]}},{"type":"Feature","properties":{"village_number":"423"},"geometry":{"type":"Point","coordinates":[14.1372697,55.9800339]}},{"type":"Feature","properties":{"village_number":"424"},"geometry":{"type":"Point","coordinates":[14.136852,55.979992]}},{"type":"Feature","properties":{"village_number":"425"},"geometry":{"type":"Point","coordinates":[14.1365164,55.9799208]}},{"type":"Feature","properties":{"village_number":"426"},"geometry":{"type":"Point","coordinates":[14.1364703,55.979614]}},{"type":"Feature","properties":{"village_number":"427"},"geometry":{"type":"Point","coordinates":[14.1371102,55.979654]}},{"type":"Feature","properties":{"village_number":"428"},"geometry":{"type":"Point","coordinates":[14.1377359,55.979706]}},{"type":"Feature","properties":{"village_number":"429"},"geometry":{"type":"Point","coordinates":[14.1383381,55.9797359]}},{"type":"Feature","properties":{"village_number":"430"},"geometry":{"type":"Point","coordinates":[14.138791,55.9797456]}},{"type":"Feature","properties":{"village_number":"431"},"geometry":{"type":"Point","coordinates":[14.1401896,55.9800789]}},{"type":"Feature","properties":{"village_number":"432"},"geometry":{"type":"Point","coordinates":[14.1407049,55.9801408]}},{"type":"Feature","properties":{"village_number":"417"},"geometry":{"type":"Point","coordinates":[14.1404632,55.9805019]}},{"type":"Feature","properties":{"village_number":"433"},"geometry":{"type":"Point","coordinates":[14.1405363,55.9797933]}},{"type":"Feature","properties":{"village_number":"434"},"geometry":{"type":"Point","coordinates":[14.140401,55.979297]}},{"type":"Feature","properties":{"village_number":"435"},"geometry":{"type":"Point","coordinates":[14.140064,55.9788472]}},{"type":"Feature","properties":{"village_number":"436"},"geometry":{"type":"Point","coordinates":[14.1392843,55.9788381]}},{"type":"Feature","properties":{"village_number":"437"},"geometry":{"type":"Point","coordinates":[14.1385452,55.9787766]}},{"type":"Feature","properties":{"village_number":"438"},"geometry":{"type":"Point","coordinates":[14.1396802,55.97912]}},{"type":"Feature","properties":{"village_number":"439"},"geometry":{"type":"Point","coordinates":[14.1397366,55.979312]}},{"type":"Feature","properties":{"village_number":"440"},"geometry":{"type":"Point","coordinates":[14.139697,55.9796359]}},{"type":"Feature","properties":{"village_number":"441"},"geometry":{"type":"Point","coordinates":[14.1386252,55.9792538]}},{"type":"Feature","properties":{"village_number":"442"},"geometry":{"type":"Point","coordinates":[14.1382728,55.9794241]}},{"type":"Feature","properties":{"village_number":"443"},"geometry":{"type":"Point","coordinates":[14.1391373,55.9793316]}},{"type":"Feature","properties":{"village_number":"444"},"geometry":{"type":"Point","coordinates":[14.1370764,55.9794584]}},{"type":"Feature","properties":{"village_number":"445"},"geometry":{"type":"Point","coordinates":[14.1364828,55.9793799]}},{"type":"Feature","properties":{"village_number":"447"},"geometry":{"type":"Point","coordinates":[14.1363058,55.9790205]}},{"type":"Feature","properties":{"village_number":"501"},"geometry":{"type":"Point","coordinates":[14.1434559,55.982733]}},{"type":"Feature","properties":{"village_number":"502"},"geometry":{"type":"Point","coordinates":[14.1442061,55.9827597]}},{"type":"Feature","properties":{"village_number":"503"},"geometry":{"type":"Point","coordinates":[14.1448693,55.9827825]}},{"type":"Feature","properties":{"village_number":"504"},"geometry":{"type":"Point","coordinates":[14.1454842,55.9828031]}},{"type":"Feature","properties":{"village_number":"505"},"geometry":{"type":"Point","coordinates":[14.1459006,55.982817]}},{"type":"Feature","properties":{"village_number":"506"},"geometry":{"type":"Point","coordinates":[14.1464477,55.9829276]}},{"type":"Feature","properties":{"village_number":"507"},"geometry":{"type":"Point","coordinates":[14.1464737,55.9827406]}},{"type":"Feature","properties":{"village_number":"508"},"geometry":{"type":"Point","coordinates":[14.1465399,55.982563]}},{"type":"Feature","properties":{"village_number":"509"},"geometry":{"type":"Point","coordinates":[14.1460114,55.9824481]}},{"type":"Feature","properties":{"village_number":"510"},"geometry":{"type":"Point","coordinates":[14.1456794,55.9824363]}},{"type":"Feature","properties":{"village_number":"511"},"geometry":{"type":"Point","coordinates":[14.1451997,55.9824193]}},{"type":"Feature","properties":{"village_number":"512"},"geometry":{"type":"Point","coordinates":[14.1446903,55.9824012]}},{"type":"Feature","properties":{"village_number":"513"},"geometry":{"type":"Point","coordinates":[14.1440264,55.9823776]}},{"type":"Feature","properties":{"village_number":"514"},"geometry":{"type":"Point","coordinates":[14.1434328,55.9823565]}},{"type":"Feature","properties":{"village_number":"515"},"geometry":{"type":"Point","coordinates":[14.1429836,55.9823405]}},{"type":"Feature","properties":{"village_number":"516"},"geometry":{"type":"Point","coordinates":[14.1430208,55.9818952]}},{"type":"Feature","properties":{"village_number":"517"},"geometry":{"type":"Point","coordinates":[14.1436746,55.9819185]}},{"type":"Feature","properties":{"village_number":"518"},"geometry":{"type":"Point","coordinates":[14.1442461,55.9819737]}},{"type":"Feature","properties":{"village_number":"519"},"geometry":{"type":"Point","coordinates":[14.1446976,55.9819897]}},{"type":"Feature","properties":{"village_number":"520"},"geometry":{"type":"Point","coordinates":[14.1452137,55.9820081]}},{"type":"Feature","properties":{"village_number":"521"},"geometry":{"type":"Point","coordinates":[14.1458232,55.9820297]}},{"type":"Feature","properties":{"village_number":"522"},"geometry":{"type":"Point","coordinates":[14.1466083,55.9823793]}},{"type":"Feature","properties":{"village_number":"523"},"geometry":{"type":"Point","coordinates":[14.1466793,55.9821889]}},{"type":"Feature","properties":{"village_number":"524"},"geometry":{"type":"Point","coordinates":[14.1467529,55.9819915]}},{"type":"Feature","properties":{"village_number":"525"},"geometry":{"type":"Point","coordinates":[14.1468273,55.9817918]}},{"type":"Feature","properties":{"village_number":"526"},"geometry":{"type":"Point","coordinates":[14.1469016,55.9815922]}},{"type":"Feature","properties":{"village_number":"527"},"geometry":{"type":"Point","coordinates":[14.146977,55.9813901]}},{"type":"Feature","properties":{"village_number":"528"},"geometry":{"type":"Point","coordinates":[14.1462024,55.9816707]}},{"type":"Feature","properties":{"village_number":"529"},"geometry":{"type":"Point","coordinates":[14.145632,55.9816504]}},{"type":"Feature","properties":{"village_number":"530"},"geometry":{"type":"Point","coordinates":[14.145005,55.9816281]}},{"type":"Feature","properties":{"village_number":"531"},"geometry":{"type":"Point","coordinates":[14.1444589,55.9816087]}},{"type":"Feature","properties":{"village_number":"532"},"geometry":{"type":"Point","coordinates":[14.1440601,55.9815946]}},{"type":"Feature","properties":{"village_number":"533"},"geometry":{"type":"Point","coordinates":[14.1435251,55.9815756]}},{"type":"Feature","properties":{"village_number":"534"},"geometry":{"type":"Point","coordinates":[14.1430236,55.9815578]}},{"type":"Feature","properties":{"village_number":"535"},"geometry":{"type":"Point","coordinates":[14.1421357,55.9811177]}},{"type":"Feature","properties":{"village_number":"536"},"geometry":{"type":"Point","coordinates":[14.1426982,55.9811448]}},{"type":"Feature","properties":{"village_number":"537"},"geometry":{"type":"Point","coordinates":[14.1440014,55.981184]}},{"type":"Feature","properties":{"village_number":"538"},"geometry":{"type":"Point","coordinates":[14.144578,55.9812045]}},{"type":"Feature","properties":{"village_number":"539"},"geometry":{"type":"Point","coordinates":[14.1451296,55.9812241]}},{"type":"Feature","properties":{"village_number":"540"},"geometry":{"type":"Point","coordinates":[14.1456484,55.9812425]}},{"type":"Feature","properties":{"village_number":"541"},"geometry":{"type":"Point","coordinates":[14.1461277,55.9812595]}},{"type":"Feature","properties":{"village_number":"542"},"geometry":{"type":"Point","coordinates":[14.1464589,55.9812713]}},{"type":"Feature","properties":{"village_number":"543"},"geometry":{"type":"Point","coordinates":[14.1461942,55.9809256]}},{"type":"Feature","properties":{"village_number":"544"},"geometry":{"type":"Point","coordinates":[14.1458171,55.9809122]}},{"type":"Feature","properties":{"village_number":"545"},"geometry":{"type":"Point","coordinates":[14.1454211,55.9808982]}},{"type":"Feature","properties":{"village_number":"546"},"geometry":{"type":"Point","coordinates":[14.1449511,55.9808815]}},{"type":"Feature","properties":{"village_number":"547"},"geometry":{"type":"Point","coordinates":[14.1445515,55.9808673]}},{"type":"Feature","properties":{"village_number":"548"},"geometry":{"type":"Point","coordinates":[14.1441746,55.9808539]}},{"type":"Feature","properties":{"village_number":"549"},"geometry":{"type":"Point","coordinates":[14.1432534,55.9808211]}},{"type":"Feature","properties":{"village_number":"550"},"geometry":{"type":"Point","coordinates":[14.1428082,55.9808053]}},{"type":"Feature","properties":{"village_number":"551"},"geometry":{"type":"Point","coordinates":[14.1423133,55.9807877]}},{"type":"Feature","properties":{"village_number":"552"},"geometry":{"type":"Point","coordinates":[14.142793,55.9804324]}},{"type":"Feature","properties":{"village_number":"553"},"geometry":{"type":"Point","coordinates":[14.1434578,55.9804033]}},{"type":"Feature","properties":{"village_number":"554"},"geometry":{"type":"Point","coordinates":[14.1443067,55.9804862]}},{"type":"Feature","properties":{"village_number":"555"},"geometry":{"type":"Point","coordinates":[14.1447846,55.9805908]}},{"type":"Feature","properties":{"village_number":"201"},"geometry":{"type":"Point","coordinates":[14.1266235,55.9766853]}},{"type":"Feature","properties":{"village_number":"202"},"geometry":{"type":"Point","coordinates":[14.1277107,55.9767792]}},{"type":"Feature","properties":{"village_number":"203"},"geometry":{"type":"Point","coordinates":[14.1281829,55.9767985]}},{"type":"Feature","properties":{"village_number":"204"},"geometry":{"type":"Point","coordinates":[14.1287904,55.9768352]}},{"type":"Feature","properties":{"village_number":"205"},"geometry":{"type":"Point","coordinates":[14.1296537,55.9769311]}},{"type":"Feature","properties":{"village_number":"206"},"geometry":{"type":"Point","coordinates":[14.1305786,55.9771274]}},{"type":"Feature","properties":{"village_number":"207"},"geometry":{"type":"Point","coordinates":[14.1310839,55.9772252]}},{"type":"Feature","properties":{"village_number":"208"},"geometry":{"type":"Point","coordinates":[14.1315735,55.9773648]}},{"type":"Feature","properties":{"village_number":"210"},"geometry":{"type":"Point","coordinates":[14.13212,55.977587]}},{"type":"Feature","properties":{"village_number":"211"},"geometry":{"type":"Point","coordinates":[14.1318343,55.9778619]}},{"type":"Feature","properties":{"village_number":"212"},"geometry":{"type":"Point","coordinates":[14.1308569,55.9775847]}},{"type":"Feature","properties":{"village_number":"213"},"geometry":{"type":"Point","coordinates":[14.1301437,55.9774445]}},{"type":"Feature","properties":{"village_number":"215"},"geometry":{"type":"Point","coordinates":[14.1294049,55.9773938]}},{"type":"Feature","properties":{"village_number":"216"},"geometry":{"type":"Point","coordinates":[14.1288675,55.9772588]}},{"type":"Feature","properties":{"village_number":"217"},"geometry":{"type":"Point","coordinates":[14.128356,55.9772545]}},{"type":"Feature","properties":{"village_number":"214"},"geometry":{"type":"Point","coordinates":[14.129858,55.9774117]}},{"type":"Feature","properties":{"village_number":"218"},"geometry":{"type":"Point","coordinates":[14.127779,55.9773016]}},{"type":"Feature","properties":{"village_number":"219"},"geometry":{"type":"Point","coordinates":[14.1268551,55.9770162]}},{"type":"Feature","properties":{"village_number":"220"},"geometry":{"type":"Point","coordinates":[14.1271815,55.977311]}},{"type":"Feature","properties":{"village_number":"221"},"geometry":{"type":"Point","coordinates":[14.1274205,55.9776021]}},{"type":"Feature","properties":{"village_number":"222"},"geometry":{"type":"Point","coordinates":[14.1276715,55.9778244]}},{"type":"Feature","properties":{"village_number":"223"},"geometry":{"type":"Point","coordinates":[14.1279869,55.9776125]}},{"type":"Feature","properties":{"village_number":"224"},"geometry":{"type":"Point","coordinates":[14.1282815,55.9776237]}},{"type":"Feature","properties":{"village_number":"225"},"geometry":{"type":"Point","coordinates":[14.1286468,55.9775849]}},{"type":"Feature","properties":{"village_number":"226"},"geometry":{"type":"Point","coordinates":[14.1292142,55.9776837]}},{"type":"Feature","properties":{"village_number":"227"},"geometry":{"type":"Point","coordinates":[14.129975,55.9777406]}},{"type":"Feature","properties":{"village_number":"228"},"geometry":{"type":"Point","coordinates":[14.1313809,55.978019]}},{"type":"Feature","properties":{"village_number":"229"},"geometry":{"type":"Point","coordinates":[14.1306455,55.97812]}},{"type":"Feature","properties":{"village_number":"230"},"geometry":{"type":"Point","coordinates":[14.1300368,55.9780782]}},{"type":"Feature","properties":{"village_number":"231"},"geometry":{"type":"Point","coordinates":[14.1293721,55.9780665]}},{"type":"Feature","properties":{"village_number":"232"},"geometry":{"type":"Point","coordinates":[14.128603,55.9780345]}},{"type":"Feature","properties":{"village_number":"233"},"geometry":{"type":"Point","coordinates":[14.127755,55.977987]}},{"type":"Feature","properties":{"village_number":"209"},"geometry":{"type":"Point","coordinates":[14.1321093,55.9782009]}},{"type":"Feature","properties":{"village_number":"234"},"geometry":{"type":"Point","coordinates":[14.1279476,55.9783023]}},{"type":"Feature","properties":{"village_number":"235"},"geometry":{"type":"Point","coordinates":[14.1281789,55.9785637]}},{"type":"Feature","properties":{"village_number":"236"},"geometry":{"type":"Point","coordinates":[14.1286455,55.9783476]}},{"type":"Feature","properties":{"village_number":"237"},"geometry":{"type":"Point","coordinates":[14.1292038,55.9784299]}},{"type":"Feature","properties":{"village_number":"238"},"geometry":{"type":"Point","coordinates":[14.1298929,55.9784818]}},{"type":"Feature","properties":{"village_number":"239"},"geometry":{"type":"Point","coordinates":[14.1302083,55.9787085]}},{"type":"Feature","properties":{"village_number":"240"},"geometry":{"type":"Point","coordinates":[14.1306036,55.9793239]}},{"type":"Feature","properties":{"village_number":"244"},"geometry":{"type":"Point","coordinates":[14.1290391,55.9787451]}},{"type":"Feature","properties":{"village_number":"241"},"geometry":{"type":"Point","coordinates":[14.1307206,55.9796196]}},{"type":"Feature","properties":{"village_number":"242"},"geometry":{"type":"Point","coordinates":[14.1300103,55.9795842]}},{"type":"Feature","properties":{"village_number":"243"},"geometry":{"type":"Point","coordinates":[14.1298451,55.9790606]}},{"type":"Feature","properties":{"village_number":"245"},"geometry":{"type":"Point","coordinates":[14.1291645,55.979145]}},{"type":"Feature","properties":{"village_number":"246"},"geometry":{"type":"Point","coordinates":[14.1293611,55.9794497]}},{"type":"Feature","properties":{"village_number":"247"},"geometry":{"type":"Point","coordinates":[14.1286061,55.9795487]}},{"type":"Feature","properties":{"village_number":"301"},"geometry":{"type":"Point","coordinates":[14.1422825,55.9833786]}},{"type":"Feature","properties":{"village_number":"302"},"geometry":{"type":"Point","coordinates":[14.1428977,55.9834]}},{"type":"Feature","properties":{"village_number":"303"},"geometry":{"type":"Point","coordinates":[14.1438967,55.9835345]}},{"type":"Feature","properties":{"village_number":"304"},"geometry":{"type":"Point","coordinates":[14.1440369,55.9831633]}},{"type":"Feature","properties":{"village_number":"305"},"geometry":{"type":"Point","coordinates":[14.1432414,55.9830753]}},{"type":"Feature","properties":{"village_number":"306"},"geometry":{"type":"Point","coordinates":[14.1425624,55.9831013]}},{"type":"Feature","properties":{"village_number":"307"},"geometry":{"type":"Point","coordinates":[14.142178,55.9830821]}},{"type":"Feature","properties":{"village_number":"308"},"geometry":{"type":"Point","coordinates":[14.1417022,55.9830951]}},{"type":"Feature","properties":{"village_number":"309"},"geometry":{"type":"Point","coordinates":[14.1412493,55.983157]}},{"type":"Feature","properties":{"village_number":"310"},"geometry":{"type":"Point","coordinates":[14.1407473,55.9830706]}},{"type":"Feature","properties":{"village_number":"314"},"geometry":{"type":"Point","coordinates":[14.1423236,55.982317]}},{"type":"Feature","properties":{"village_number":"311"},"geometry":{"type":"Point","coordinates":[14.1411543,55.9826144]}},{"type":"Feature","properties":{"village_number":"312"},"geometry":{"type":"Point","coordinates":[14.1417851,55.9826298]}},{"type":"Feature","properties":{"village_number":"313"},"geometry":{"type":"Point","coordinates":[14.1422346,55.9826896]}},{"type":"Feature","properties":{"village_number":"315"},"geometry":{"type":"Point","coordinates":[14.141863,55.982317]}},{"type":"Feature","properties":{"village_number":"316"},"geometry":{"type":"Point","coordinates":[14.1413988,55.9822162]}},{"type":"Feature","properties":{"village_number":"317"},"geometry":{"type":"Point","coordinates":[14.1415326,55.9818919]}},{"type":"Feature","properties":{"village_number":"318"},"geometry":{"type":"Point","coordinates":[14.1418475,55.9818505]}},{"type":"Feature","properties":{"village_number":"319"},"geometry":{"type":"Point","coordinates":[14.1421659,55.9818997]}},{"type":"Feature","properties":{"village_number":"320"},"geometry":{"type":"Point","coordinates":[14.1424824,55.981911]}},{"type":"Feature","properties":{"village_number":"321"},"geometry":{"type":"Point","coordinates":[14.1424432,55.9816241]}},{"type":"Feature","properties":{"village_number":"322"},"geometry":{"type":"Point","coordinates":[14.1424812,55.9814543]}},{"type":"Feature","properties":{"village_number":"323"},"geometry":{"type":"Point","coordinates":[14.1418971,55.9815415]}},{"type":"Feature","properties":{"village_number":"324"},"geometry":{"type":"Point","coordinates":[14.1408221,55.9821506]}},{"type":"Feature","properties":{"village_number":"325"},"geometry":{"type":"Point","coordinates":[14.1402338,55.9820242]}},{"type":"Feature","properties":{"village_number":"326"},"geometry":{"type":"Point","coordinates":[14.1397542,55.981939]}},{"type":"Feature","properties":{"village_number":"327"},"geometry":{"type":"Point","coordinates":[14.1395757,55.9817831]}},{"type":"Feature","properties":{"village_number":"328"},"geometry":{"type":"Point","coordinates":[14.1398054,55.9823113]}},{"type":"Feature","properties":{"village_number":"329"},"geometry":{"type":"Point","coordinates":[14.139957,55.982791]}},{"type":"Feature","properties":{"village_number":"330"},"geometry":{"type":"Point","coordinates":[14.1392839,55.9826401]}},{"type":"Feature","properties":{"village_number":"331"},"geometry":{"type":"Point","coordinates":[14.1387135,55.9825155]}},{"type":"Feature","properties":{"village_number":"332"},"geometry":{"type":"Point","coordinates":[14.1380284,55.982366]}},{"type":"Feature","properties":{"village_number":"333"},"geometry":{"type":"Point","coordinates":[14.1374654,55.9822644]}},{"type":"Feature","properties":{"village_number":"334"},"geometry":{"type":"Point","coordinates":[14.1366025,55.9818635]}},{"type":"Feature","properties":{"village_number":"335"},"geometry":{"type":"Point","coordinates":[14.1371493,55.9818906]}},{"type":"Feature","properties":{"village_number":"336"},"geometry":{"type":"Point","coordinates":[14.1378025,55.9819351]}},{"type":"Feature","properties":{"village_number":"337"},"geometry":{"type":"Point","coordinates":[14.1386265,55.9820839]}},{"type":"Feature","properties":{"village_number":"338"},"geometry":{"type":"Point","coordinates":[14.1391192,55.9821521]}},{"type":"Feature","properties":{"village_number":"339"},"geometry":{"type":"Point","coordinates":[14.1382687,55.9816177]}},{"type":"Feature","properties":{"village_number":"340"},"geometry":{"type":"Point","coordinates":[14.1375587,55.9815682]}},{"type":"Feature","properties":{"village_number":"341"},"geometry":{"type":"Point","coordinates":[14.1370344,55.9815423]}},{"type":"Feature","properties":{"village_number":"342"},"geometry":{"type":"Point","coordinates":[14.1365327,55.9815175]}},{"type":"Feature","properties":{"village_number":"345"},"geometry":{"type":"Point","coordinates":[14.1367545,55.9811498]}},{"type":"Feature","properties":{"village_number":"346"},"geometry":{"type":"Point","coordinates":[14.1373597,55.9811798]}},{"type":"Feature","properties":{"village_number":"347"},"geometry":{"type":"Point","coordinates":[14.1378767,55.9812053]}},{"type":"Feature","properties":{"village_number":"348"},"geometry":{"type":"Point","coordinates":[14.1384818,55.9812352]}},{"type":"Feature","properties":{"village_number":"349"},"geometry":{"type":"Point","coordinates":[14.1376046,55.9808447]}},{"type":"Feature","properties":{"village_number":"350"},"geometry":{"type":"Point","coordinates":[14.137043,55.9807576]}}]}