{"type":"FeatureCollection","name":"districts","crs":{"type":"name","properties":{"name":"urn:ogc:def:crs:OGC:1.3:CRS84"}},"xy_coordinate_resolution":1e-7,"features":[{"type":"Feature","properties":{"name":"Himalaya","color":"#E9ABB7"},"geometry":{"type":"Polygon","coordinates":[[[14.1359896,55.9783652],[14.1408567,55.9784574],[14.1411765,55.979974],[14.1408249,55.9811371],[14.1416475,55.9813093],[14.1411864,55.9820327],[14.1406133,55.9819135],[14.1387843,55.9814288],[14.1387049,55.9810884],[14.1379213,55.9810227],[14.137972,55.9807006],[14.1371285,55.9806219],[14.136205,55.9804894],[14.1362385,55.9796979],[14.1360255,55.9791273],[14.1359896,55.9783652]]]}},{"type":"Feature","properties":{"name":"Stora Barriärrevet","color":"#BA2F4B"},"geometry":{"type":"Polygon","coordinates":[[[14.1253734,55.976324],[14.1268065,55.9781172],[14.1280785,55.9801347],[14.1301537,55.9799028],[14.1304076,55.9798956],[14.1312093,55.9799364],[14.1309705,55.9794526],[14.1306287,55.9787987],[14.1303491,55.9782677],[14.1324328,55.9783409],[14.1328289,55.9775353],[14.1295075,55.9765728],[14.1253734,55.976324]]]}},{"type":"Feature","properties":{"name":"Amazonas","color":"#165B57"},"geometry":{"type":"Polygon","coordinates":[[[14.1324422,55.9826838],[14.1319529,55.9827232],[14.1288757,55.9822659],[14.1280785,55.9801347],[14.1301537,55.9799028],[14.1304076,55.9798956],[14.1312093,55.9799364],[14.1309705,55.9794526],[14.1306287,55.9787987],[14.1303491,55.9782677],[14.1324328,55.9783409],[14.1328289,55.9775353],[14.1359896,55.9783652],[14.1360255,55.9791273],[14.1362385,55.9796979],[14.136205,55.9804894],[14.1330451,55.9802982],[14.1324422,55.9826838]]]}},{"type":"Feature","properties":{"name":"Östersjön","color":"#6099C5"},"geometry":{"type":"Polygon","coordinates":[[[14.1400727,55.9830651],[14.135656,55.9821494],[14.1355904,55.9812128],[14.135967,55.9812054],[14.1359599,55.9804746],[14.136205,55.9804894],[14.1371285,55.9806219],[14.137972,55.9807006],[14.1379213,55.9810227],[14.1387049,55.9810884],[14.1387843,55.9814288],[14.1406133,55.9819135],[14.1411864,55.9820327],[14.1416475,55.9813093],[14.1427978,55.9813259],[14.1427261,55.98179],[14.1426149,55.9825288],[14.1422432,55.9828934],[14.1443655,55.9829583],[14.1443785,55.9837444],[14.1403713,55.9834585],[14.1400727,55.9830651]]]}},{"type":"Feature","properties":{"name":"Sahara","color":"#E58E27"},"geometry":{"type":"Polygon","coordinates":[[[14.1416475,55.9813093],[14.1425069,55.9801604],[14.1476986,55.9802984],[14.1468023,55.9830593],[14.1443655,55.9829583],[14.1422432,55.9828934],[14.1426149,55.9825288],[14.1427261,55.98179],[14.1427978,55.9813259],[14.1416475,55.9813093]]]}}]}