{
"type": "FeatureCollection",
"name": "program",
"crs": { "type": "name", "properties": { "name": "urn:ogc:def:crs:OGC:1.3:CRS84" } },
"xy_coordinate_resolution": 1e-07,
"features": [
{ "type": "Feature", "properties": { "fid": 39, "handle": 2315, "block": -1, "etype": 18, "space": 0, "layer": "J26_Program", "olinetype": "BYLAYER", "linetype": "", "color": "0,0,255,255", "ocolor": 5, "color24": -1, "transparency": 0, "lweight": -1, "linewidth": 0.0, "ltscale": 1.0, "visible": 1, "width": 0.0, "thickness": 0.0, "ext": "(3:0,0,0.1)", "name": "Labyrint" }, "geometry": { "type": "LineString", "coordinates": [ [ 14.1277802, 55.9818914, 0.0 ], [ 14.1281939, 55.9819443, 0.0 ], [ 14.1289637, 55.9821365, 0.0 ], [ 14.1294544, 55.9823325, 0.0 ], [ 14.1303813, 55.9841147, 0.0 ], [ 14.1268901, 55.9846552, 0.0 ], [ 14.1261124, 55.983066, 0.0 ], [ 14.1244709, 55.982954, 0.0 ], [ 14.1227178, 55.983249, 0.0 ], [ 14.1212843, 55.9807127, 0.0 ], [ 14.1213481, 55.9806296, 0.0 ], [ 14.1246322, 55.9807384, 0.0 ], [ 14.1252574, 55.9815834, 0.0 ], [ 14.1269799, 55.9817951, 0.0 ], [ 14.1277802, 55.9818914, 0.0 ] ] } },
{ "type": "Feature", "properties": { "fid": 140, "handle": 2626, "block": -1, "etype": 18, "space": 0, "layer": "J26_Program", "olinetype": "BYLAYER", "linetype": "", "color": "0,0,255,255", "ocolor": 5, "color24": -1, "transparency": 0, "lweight": -1, "linewidth": 0.0, "ltscale": 1.0, "visible": 0, "width": 0.0, "thickness": 0.0, "ext": "(3:0,0,0.1)", "name": "Vågorna" }, "geometry": { "type": "LineString", "coordinates": [ [ 14.1355357, 55.9820047, 0.0 ], [ 14.1357469, 55.9820565, 0.0 ], [ 14.1365095, 55.9822514, 0.0 ], [ 14.1380486, 55.9825853, 0.0 ], [ 14.1385089, 55.9826893, 0.0 ], [ 14.1368813, 55.9836341, 0.0 ], [ 14.1366726, 55.9835673, 0.0 ], [ 14.1324411, 55.9826838, 0.0 ], [ 14.1323403, 55.9826292, 0.0 ], [ 14.131935, 55.9816414, 0.0 ], [ 14.1319545, 55.9815883, 0.0 ], [ 14.1319948, 55.9815586, 0.0 ], [ 14.1320713, 55.9815382, 0.0 ], [ 14.1322332, 55.9815265, 0.0 ], [ 14.1324329, 55.9815225, 0.0 ], [ 14.1326457, 55.9815191, 0.0 ], [ 14.1329178, 55.9815147, 0.0 ], [ 14.133144, 55.9815222, 0.0 ], [ 14.1335243, 55.9815437, 0.0 ], [ 14.1338779, 55.981594, 0.0 ], [ 14.1355357, 55.9820047, 0.0 ] ] } },
{ "type": "Feature", "properties": { "fid": 141, "handle": 2627, "block": -1, "etype": 18, "space": 0, "layer": "J26_Program", "olinetype": "BYLAYER", "linetype": "", "color": "0,0,255,255", "ocolor": 5, "color24": -1, "transparency": 0, "lweight": -2, "linewidth": 0.0, "ltscale": 1.0, "visible": 1, "width": 0.0, "thickness": 0.0, "ext": "(3:0,0,0.1)", "name": "Riktningens Borg" }, "geometry": { "type": "LineString", "coordinates": [ [ 14.1408505, 55.9811187, 0.0 ], [ 14.1416337, 55.9812742, 0.0 ], [ 14.1418373, 55.9809519, 0.0 ], [ 14.1424604, 55.9801547, 0.0 ], [ 14.142594, 55.9798535, 0.0 ], [ 14.1428728, 55.9789188, 0.0 ], [ 14.1428332, 55.9787733, 0.0 ], [ 14.1427833, 55.9787322, 0.0 ], [ 14.1408776, 55.9786788, 0.0 ], [ 14.1408162, 55.9787091, 0.0 ], [ 14.1407855, 55.9787344, 0.0 ], [ 14.140764, 55.9787845, 0.0 ], [ 14.1407576, 55.9788734, 0.0 ], [ 14.1407743, 55.9790326, 0.0 ], [ 14.140843, 55.9794267, 0.0 ], [ 14.1409452, 55.9798623, 0.0 ], [ 14.1410468, 55.9801967, 0.0 ], [ 14.1410637, 55.9804478, 0.0 ], [ 14.1410301, 55.9806221, 0.0 ], [ 14.1409714, 55.9807972, 0.0 ], [ 14.1408782, 55.9810218, 0.0 ], [ 14.1408505, 55.9811187, 0.0 ] ] } },
{ "type": "Feature", "properties": { "fid": null, "handle": null, "block": null, "etype": null, "space": null, "layer": null, "olinetype": null, "linetype": null, "color": null, "ocolor": null, "color24": null, "transparency": null, "lweight": null, "linewidth": null, "ltscale": null, "visible": null, "width": null, "thickness": null, "ext": null, "name": "Karantän" }, "geometry": { "type": "LineString", "coordinates": [ [ 14.1246322, 55.9807384, 0.0 ], [ 14.1288329, 55.980895, 0.0 ], [ 14.1289416, 55.9812931, 0.0 ], [ 14.1290128, 55.9813982, 0.0 ], [ 14.129082, 55.9816362, 0.0 ], [ 14.1290848, 55.9818103, 0.0 ], [ 14.1290302, 55.9819664, 0.0 ], [ 14.12897, 55.98204, 0.0 ], [ 14.1287937, 55.982094, 0.0 ], [ 14.1281939, 55.9819443, 0.0 ], [ 14.1252574, 55.9815834, 0.0 ], [ 14.1246322, 55.9807384, 0.0 ] ] } }
]
}
