{"type":"FeatureCollection","name":"tents","features":[{"type":"Feature","properties":{},"geometry":{"type":"Polygon","coordinates":[[[14.142079347751904,55.983827724975875],[14.14210345219458,55.983739375221106],[14.14210354404189,55.98373923354479],[14.142103813172591,55.98373922689748],[14.14241702269425,55.98376612711489],[14.142418275817258,55.98376609625429],[14.142419412466653,55.983765799499864],[14.142420259639296,55.98376528201892],[14.142420688391724,55.98376462257441],[14.142432351892914,55.983722175078434],[14.14243244394063,55.983722033506616],[14.1424327129662,55.98372202688801],[14.142590700000003,55.9837356],[14.14259070000262,55.98373559999048],[14.142590700293608,55.98373560002523],[14.142748787121906,55.983749173136964],[14.14274904016834,55.98374922458],[14.142749052169918,55.98374937504864],[14.142725321570081,55.98383622415074],[14.142725377679755,55.983836925462846],[14.142725909401731,55.98383756134159],[14.142726835735555,55.98383803491968],[14.142728015567105,55.983838274054044],[14.142882886678796,55.98385147329669],[14.142883139997197,55.98385152465705],[14.142883151847354,55.98385167524427],[14.142871048107155,55.9838957249217],[14.142870956059188,55.9838958664935],[14.142870687032634,55.983895873112324],[14.14271591122522,55.983882575885445],[14.142714657399722,55.98388260680547],[14.14271352026032,55.983882903906164],[14.142712673078682,55.983883421916765],[14.142712244944164,55.983884081905394],[14.142700647867192,55.98392652481616],[14.142700555981467,55.983926666467056],[14.142700286878464,55.983926673116066],[14.142542200007542,55.983913100000656],[14.142384112904958,55.983899526865805],[14.142383859846525,55.983899475417466],[14.142383847875262,55.983899324939856],[14.142395457791226,55.98385687219749],[14.142395402039583,55.98385617132518],[14.142394871237771,55.98385553570054],[14.142393946142878,55.9838550620286],[14.142392767500365,55.983854822374525],[14.142079612821224,55.98382792686728],[14.142079359803052,55.983827875427366],[14.142079347751904,55.983827724975875]]]}},{"type":"Feature","properties":{},"geometry":{"type":"Polygon","coordinates":[[[14.142557369524942,55.98422868535626],[14.14255743063458,55.98422853863801],[14.142636669179469,55.984130661592616],[14.14263682619463,55.98413053904052],[14.14263708857682,55.98413057352791],[14.142709512138476,55.98414902665457],[14.14270973061758,55.984149114560395],[14.14270966939351,55.984149261163935],[14.142630430729584,55.984247038685076],[14.142630273843997,55.9842471611144],[14.142630011602247,55.98424712691301],[14.142557588431632,55.98422877309582],[14.142557369524942,55.98422868535626]]]}},{"type":"Feature","properties":{},"geometry":{"type":"Polygon","coordinates":[[[14.142098500707135,55.98404157666453],[14.142098598806893,55.98403833937252],[14.142098607343124,55.98403826083667],[14.142099195262283,55.984035125267845],[14.142099207280676,55.984035074922105],[14.142100091950532,55.98403202772596],[14.142100111127519,55.98403197260918],[14.142101386781802,55.984028832537106],[14.142101417493251,55.98402876810056],[14.142103082181483,55.984025732492576],[14.14210312215304,55.9840256683528],[14.142105177688517,55.98402273187355],[14.142105226579412,55.9840226691679],[14.14210767880704,55.98401982458385],[14.142107723819391,55.98401977618063],[14.142110476101378,55.98401702389864],[14.142110526454061,55.98401697695938],[14.142113567625756,55.98401432819692],[14.142113636036866,55.984014273229775],[14.142117067981426,55.98401172378525],[14.142117134761524,55.98401167745199],[14.142120762021095,55.98400932463495],[14.142120841062075,55.98400927696519],[14.142124860780935,55.98400702200096],[14.142124941840647,55.984006979566196],[14.142129150524754,55.98400492416235],[14.142129252834922,55.9840048781769],[14.142133770603422,55.984003012142075],[14.14213383035258,55.9840029886178],[14.142138546954946,55.98400121989189],[14.142138655699329,55.98400118252571],[14.142143656143624,55.98399961375884],[14.142143745307914,55.983999587801705],[14.142148832422336,55.983998218194],[14.142148970313245,55.9839981854067],[14.142154169086302,55.98399710641605],[14.142154231358095,55.983997094298545],[14.142159627818577,55.983996113123894],[14.142159774071457,55.983996090741066],[14.142165273450317,55.983995403318715],[14.142165326735201,55.983995397185765],[14.142170927169044,55.98399480766641],[14.142171073783356,55.98399479611666],[14.142176650015761,55.98399450263077],[14.142176750180582,55.98399449911965],[14.142182325341327,55.98399440130982],[14.142182474553875,55.98399440257083],[14.14218817413104,55.98399459910798],[14.142188225803663,55.983994601358106],[14.142193826216735,55.983994896116656],[14.142193972831045,55.98399490766641],[14.142199545974451,55.98399549431311],[14.142199653204939,55.9839955077389],[14.142205053425542,55.98399629322552],[14.142205145766132,55.98399630832113],[14.142210546227641,55.98399729022321],[14.142210652411269,55.9839973118667],[14.14221583180955,55.98399848456065],[14.142215965383285,55.98399851886057],[14.142221068916335,55.983999991033556],[14.142221130357429,55.984000009714364],[14.142226043671592,55.9840015819749],[14.142226153546856,55.98400162050731],[14.14223075287295,55.984003381951354],[14.142230844718167,55.98400341987473],[14.142235270839489,55.984005387039794],[14.142235328056467,55.98400541370198],[14.142239550681918,55.98400747591442],[14.142239645652383,55.98400752625011],[14.142243555087417,55.98400977417529],[14.142243641074064,55.984009827752764],[14.142247269261748,55.98401227923091],[14.142247328458216,55.984012321762165],[14.142250671215816,55.98401487798857],[14.142250726346367,55.984014922946855],[14.142253760567213,55.984017565655314],[14.14225383370601,55.98401763620277],[14.142256482698622,55.984020481417026],[14.142256515735422,55.98402051901362],[14.142258874123502,55.984023368732565],[14.142258921522487,55.98402343228372],[14.142260878684178,55.98402636802626],[14.14226091692166,55.984026432785726],[14.142262483430024,55.98402946789567],[14.142262512263958,55.98402953270389],[14.142263691628122,55.984032677674996],[14.142263706337634,55.984032722533804],[14.142264589223831,55.984035861684745],[14.142264604836523,55.98403593869217],[14.142264997065428,55.984039076523416],[14.142265000735325,55.98403912353031],[14.142265098773343,55.98404226074688],[14.142265095104568,55.98404233916347],[14.142264702913273,55.98404547669387],[14.142264694927185,55.984045523190034],[14.14226400666073,55.98404866955098],[14.142263989644798,55.98404873012424],[14.142262913831527,55.984051859762836],[14.142262879681919,55.98405193936628],[14.142261313248303,55.98405497433144],[14.142261284050658,55.98405502518318],[14.142259413101383,55.984057979313604],[14.142259385110268,55.98405802030417],[14.142257227728981,55.98406096218776],[14.142257166251477,55.984061036248406],[14.142254522603317,55.98406387572234],[14.14225447479837,55.984063923463594],[14.14225162429278,55.984066577382606],[14.142251573378148,55.984066621781515],[14.14224834166444,55.98406926591092],[14.142248252923787,55.98406933180826],[14.142244634588161,55.984071776629634],[14.14224456267416,55.98407182201268],[14.142240732774797,55.98407408067129],[14.142240665236926,55.984074118209236],[14.142236527115454,55.98407628579667],[14.142236471740738,55.984076313487364],[14.142232164838095,55.984078369054565],[14.142232029672961,55.98407842693375],[14.14222743595071,55.984080186231644],[14.142227362768622,55.98408021265868],[14.142222442642417,55.984081885501595],[14.142222355831985,55.98408191299059],[14.142217350392347,55.98408338517873],[14.142217247859127,55.98408341278928],[14.14221206887001,55.984084683107355],[14.142211928610703,55.984084713220234],[14.142206626788136,55.98408569503924],[14.142206572917383,55.98408570443169],[14.14220117606737,55.984086587552625],[14.142201022111957,55.98408660819876],[14.142195448346262,55.98408719491093],[14.142195351188018,55.9840872034254],[14.142189749572632,55.984087596521235],[14.14218965013741,55.98408760174957],[14.142184050254425,55.98408779823669],[14.142183949647244,55.98408780000001],[14.142178250352641,55.9840878],[14.142178149745458,55.98408779823669],[14.142172574537087,55.98408760261534],[14.142172426217783,55.984087593527896],[14.14216685106194,55.984087104479144],[14.142166749558513,55.984087093694825],[14.142161250787348,55.98408640634841],[14.142161150053509,55.984086391826935],[14.142155749870442,55.98408550816062],[14.142155651176106,55.98408549005439],[14.142150348345776,55.98408440984821],[14.142150252879373,55.9840843884421],[14.14214507832665,55.984083119212215],[14.142144925762352,55.98408307624397],[14.142140024790303,55.9840815079329],[14.142139975729165,55.98408149157951],[14.14213514825312,55.98407981674088],[14.14213505397904,55.98407978139579],[14.142130452496755,55.9840779212221],[14.142130350726466,55.984077876483106],[14.142126035617519,55.98407581699929],[14.142125966211799,55.98407578186974],[14.142121947193079,55.984073625323134],[14.142121856641134,55.98407357261545],[14.142118124922456,55.984071215740514],[14.142118076420303,55.98407118362521],[14.142114546728944,55.984068732450694],[14.142114458838549,55.98406866527004],[14.142111326801988,55.98406602261418],[14.142111275684316,55.9840659765228],[14.14210842427991,55.98406322344268],[14.142108378287405,55.98406317578211],[14.142105828830166,55.98406033215674],[14.142105775855281,55.98406026665731],[14.142103716474077,55.98405742274993],[14.14210368576913,55.98405737678121],[14.142101821601146,55.984054335243975],[14.142101783686336,55.984054263876885],[14.14210041464877,55.98405123243659],[14.14210038970128,55.98405116704412],[14.142099407101643,55.98404802272528],[14.142099394990824,55.98404797710094],[14.142098708477864,55.984044838755956],[14.142098697561172,55.984044760978776],[14.142098501457786,55.984041623324586],[14.142098500707135,55.98404157666453]]]}},{"type":"Feature","properties":{},"geometry":{"type":"Polygon","coordinates":[[[14.141765801884684,55.98422406230628],[14.141765998435098,55.98422013129807],[14.141766005453231,55.9842200688387],[14.141766694620005,55.98421613074285],[14.141766709139127,55.984216069536245],[14.141767892107312,55.98421212630899],[14.141767910667069,55.98421207399901],[14.141769485599418,55.984208235101434],[14.141769519373826,55.984208165655495],[14.14177168333905,55.98420432953534],[14.141771720254654,55.984204271176075],[14.141774284918784,55.98420062146173],[14.14177431702779,55.98420057899908],[14.14177727203344,55.98419693449211],[14.141777333053913,55.984196866946085],[14.141780776270823,55.98419342372919],[14.141780826248953,55.9841933771163],[14.141784663022877,55.98419003223647],[14.141784741745058,55.98418996963997],[14.141789068653,55.984186822797824],[14.141789133887553,55.98418677836966],[14.14179376948202,55.98418381947958],[14.141793832471961,55.98418378153557],[14.141798853262449,55.98418092657628],[14.14179895051101,55.9841808756799],[14.141804272132273,55.9841783134178],[14.141804328934901,55.98417828730927],[14.141809946395009,55.98417582351097],[14.141810056969414,55.984175779111226],[14.141815942345659,55.98417362113994],[14.141816060678945,55.98417358170001],[14.141822275386197,55.98417170742323],[14.141822325060318,55.98417169306024],[14.141828726376717,55.984169920388],[14.141828876956934,55.98416988391944],[14.141835457781792,55.98416850882174],[14.1418355430354,55.984168492515614],[14.141842360556014,55.98416730685983],[14.141842440021781,55.98416729428261],[14.141849322029985,55.98416631113858],[14.141849479569581,55.98416629327581],[14.141856460609969,55.984165703328735],[14.141856539636697,55.98416569776694],[14.141863539574057,55.984165303404275],[14.14186366071288,55.984165299156764],[14.14187074018032,55.98416520083083],[14.141870859764357,55.984165201660126],[14.141877959250932,55.984165398868086],[14.14187804059388,55.984165402286976],[14.141885040749552,55.98416579666195],[14.141885158646279,55.984165805782034],[14.141892140167755,55.98416649410107],[14.14189225886538,55.98416650840935],[14.141899138252809,55.984167491178965],[14.141899260304749,55.984167511528845],[14.141905949900881,55.984168790422224],[14.141906048863541,55.984168811401496],[14.141911966957416,55.984170192290065],[14.141912032396482,55.984170208525384],[14.141913892097808,55.984170697920476],[14.141913907914772,55.98417070205354],[14.142101600000002,55.98421940000001],[14.142101601097245,55.98421939867653],[14.142101641403753,55.98421941176184],[14.142101653139294,55.9842194147155],[14.14210805431958,55.98422118735005],[14.142108144155582,55.98422121424375],[14.14211426021702,55.98422318716679],[14.142114338408323,55.984223214083066],[14.142120237238224,55.984225376987354],[14.142120358654386,55.984225426184985],[14.142125864917347,55.98422788433808],[14.142125933465671,55.98422791673284],[14.142131255593108,55.984230577796566],[14.142131341347042,55.984230623981304],[14.142136258419242,55.98423347588315],[14.142136338256396,55.98423352578148],[14.142140861950551,55.98423657435799],[14.142140934551454,55.98423662714758],[14.142145077519721,55.98423988233691],[14.142145120932238,55.98423991824861],[14.142148968429018,55.98424327247658],[14.142149027912884,55.98424332873387],[14.14215236753684,55.984246766582025],[14.142152427301205,55.984246834832575],[14.142155280449654,55.98425047505645],[14.14215531681562,55.98425052555976],[14.142157781587963,55.9842542720137],[14.142157815056509,55.98425432860734],[14.142159784969659,55.984258071442355],[14.142159811620525,55.984258129051305],[14.142161385747677,55.9842620643692],[14.142161409040016,55.98426213616007],[14.142162393850004,55.984266075400015],[14.142162403712868,55.98426612475244],[14.142162995312617,55.98427006875078],[14.1421630007839,55.984270131355984],[14.142163099057933,55.984274062317326],[14.142163095300681,55.98427413759457],[14.142162603106355,55.98427807514917],[14.142162594438796,55.984278124716475],[14.142161706840655,55.984282069597114],[14.142161689474882,55.9842821300718],[14.142160311233475,55.984286067904364],[14.142160284627453,55.98428613155418],[14.142158415547373,55.984289968086976],[14.142158380302567,55.9842900311876],[14.142156016292665,55.98429377420329],[14.142155980933618,55.984293825194875],[14.142153222993333,55.98429746961597],[14.14215317308729,55.98429752935931],[14.142149926782855,55.98430107078236],[14.142149869478533,55.98430112804676],[14.142146225304568,55.984304476747155],[14.142146172227003,55.98430452235388],[14.14214213920305,55.98430776844633],[14.142142056126508,55.98430782956693],[14.142137524393794,55.9843108835607],[14.142137474238046,55.98431091577263],[14.142132644626919,55.98431387267739],[14.142132551509285,55.98431392517787],[14.142127432654188,55.984316583044965],[14.142127365717034,55.9843166159171],[14.142121852041551,55.984319175837854],[14.142121744513263,55.98431922163043],[14.142115937557522,55.984321485358926],[14.142115861013727,55.9843215134215],[14.142109858752537,55.984323579773694],[14.142109738364624,55.98432361733495],[14.142103440884204,55.98432538850133],[14.14210335801291,55.9843254101787],[14.142096841508318,55.98432698993739],[14.142096757545946,55.98432700874055],[14.142090074807502,55.98432838459845],[14.142089922834536,55.984328411183405],[14.142083142594885,55.98432939382685],[14.142083056865697,55.98432940486021],[14.142076057946571,55.98433019347081],[14.142075941352822,55.98433020413009],[14.142068940580172,55.98433069714224],[14.14206885921215,55.984330701699506],[14.14206175959974,55.98433099751669],[14.14206164023507,55.984331000000005],[14.142054580693685,55.98433099999999],[14.142054419712405,55.984330995476746],[14.142047419878626,55.98433060111992],[14.142047380175807,55.98433059860394],[14.142040377854787,55.984330105482734],[14.142040223470792,55.98433009029912],[14.142033242950268,55.9843292054444],[14.142033157647255,55.98432919324811],[14.142026361740218,55.984328109842636],[14.142026239860002,55.98432808743343],[14.14201965574454,55.98432671164814],[14.142019545948129,55.984326686077544],[14.142013045961424,55.98432501183855],[14.142012955460947,55.98432498656758],[14.142012889329832,55.98432496662326],[14.142012716538597,55.98432491820291],[14.141829883923844,55.98427747367772],[14.141829882435783,55.984277473072794],[14.141829270787,55.984277277766545],[14.141824063082883,55.98427601529282],[14.141823939482686,55.984275981748745],[14.141817755332676,55.98427411668763],[14.141817647166626,55.98427408094534],[14.141811643394071,55.98427191565034],[14.14181155849121,55.984271882823954],[14.141805829384474,55.98426951215909],[14.141805771633514,55.98426948710616],[14.141800352394293,55.984267023815605],[14.141800251361177,55.98426697380987],[14.141795143091036,55.984264223202885],[14.14179506011118,55.984264175069505],[14.141790339893111,55.984261224933206],[14.14179026353063,55.984261173476824],[14.141785923666909,55.98425801721228],[14.141785877845793,55.98425798216856],[14.141781839113943,55.984254731481954],[14.141781765819795,55.98425466676926],[14.141778224328204,55.98425122365242],[14.14177817828056,55.98425117556566],[14.141775029752479,55.984247633471554],[14.141774975317853,55.98424756526218],[14.141772319336052,55.98424382721372],[14.14177228387054,55.98424377214005],[14.141770114994307,55.98424002589926],[14.141770087834166,55.984239973640705],[14.141768314636197,55.98423613171177],[14.141768289527374,55.984236067776536],[14.141767009839493,55.984232130275394],[14.141766993883829,55.984232069419164],[14.141766204963895,55.984228124819474],[14.141766197506458,55.98422807506462],[14.141765803764958,55.9842241376496],[14.141765801884684,55.98422406230628]]]}},{"type":"Feature","properties":{},"geometry":{"type":"Polygon","coordinates":[[[14.1417214478015,55.98406962495865],[14.14176989971256,55.983892201052555],[14.141769900028772,55.983892200359826],[14.141818452043225,55.983714875152046],[14.141818543992077,55.98371473352716],[14.141818813072792,55.98371472689718],[14.141976487145564,55.98372827312201],[14.141976740174893,55.98372832457489],[14.141976752172846,55.98372847503836],[14.141928300031022,55.98390579988648],[14.141879847843764,55.98408322480387],[14.141879755973061,55.98408336646376],[14.141879486860198,55.98408337311447],[14.14172171286296,55.98406982686217],[14.141721459822428,55.98406977542193],[14.1417214478015,55.98406962495865]]]}},{"type":"Feature","properties":{},"geometry":{"type":"Polygon","coordinates":[[[14.135715599999997,55.97876300505867],[14.135715600598402,55.978763001691874],[14.135716099404416,55.978614976745256],[14.135716152242159,55.97861482923619],[14.135716415901015,55.978614799706016],[14.135823182581266,55.97861470029569],[14.13582344713876,55.97861472955824],[14.135823499280994,55.9786148775963],[14.135822900715405,55.97876272329607],[14.135822847797678,55.97876287077531],[14.135822584175429,55.97876290029443],[14.135750819255469,55.97876296717684],[14.135749588357932,55.97876310548863],[14.13574854601397,55.97876349703427],[14.135747851202414,55.978764082095005],[14.135747609896297,55.9787647714371],[14.13574764020723,55.978770197094114],[14.135747889520612,55.97877088599305],[14.135748591685665,55.97877146883039],[14.135749639473472,55.97877185659997],[14.135750872874397,55.978771990084766],[14.135779674070571,55.97877190008104],[14.135779691189661,55.97877190100051],[14.13581138346573,55.97877190000994],[14.135811647468834,55.97877192939121],[14.135811700000001,55.97877207715066],[14.135811700000003,55.97878072284936],[14.135811647468838,55.97878087060883],[14.135811383376494,55.97878090000008],[14.13574770000195,55.97878090000001],[14.13573161795245,55.978780900000025],[14.135731582043201,55.97878090011223],[14.135715918869533,55.978780998007096],[14.13571565312927,55.978780969940296],[14.1357156,55.9787808215814],[14.135715599999997,55.97876300505867]]]}},{"type":"Feature","properties":{},"geometry":{"type":"Polygon","coordinates":[[[14.135164000690553,55.979099022824386],[14.135164699309652,55.97891977712489],[14.135164752404773,55.978919629441954],[14.135165016578442,55.9789196003467],[14.135805083392265,55.9789202996549],[14.135805347374792,55.97892032933152],[14.135805399408218,55.97892047714137],[14.13580480059185,55.97909972284075],[14.135804747562485,55.97909987054926],[14.135804483358841,55.97909989965493],[14.135164316670592,55.97909920034676],[14.135164052658064,55.97909917065973],[14.135164000690553,55.979099022824386]]]}},{"type":"Feature","properties":{},"geometry":{"type":"Polygon","coordinates":[[[14.13538100289144,55.97877767716657],[14.135381053019833,55.97877752913373],[14.135381316652255,55.97877749841864],[14.135700983601584,55.978775901580924],[14.135701248050388,55.978775929620596],[14.135701303156425,55.97877607702316],[14.135702496840457,55.97884302280247],[14.135702446920526,55.97884317087449],[14.13570218329099,55.97884320168082],[14.135382416680367,55.97884489832014],[14.135382152067793,55.97884487032081],[14.135382097108286,55.978844722817065],[14.13538100289144,55.97877767716657]]]}},{"type":"Feature","properties":{},"geometry":{"type":"Polygon","coordinates":[[[14.135556900690759,55.978759722771265],[14.135557599309855,55.97858047707173],[14.13555765237933,55.97858032941413],[14.135557916480874,55.97858030026366],[14.135677383238098,55.9785803997364],[14.135677647317376,55.978580429368165],[14.135677699309246,55.97858057722893],[14.135677000690148,55.978759822928474],[14.135676947620519,55.97875997058599],[14.135676683517978,55.97875999973664],[14.135557216762955,55.978759900263896],[14.135556952682776,55.97875987063195],[14.135556900690759,55.978759722771265]]]}},{"type":"Feature","properties":{},"geometry":{"type":"Polygon","coordinates":[[[14.13503214858928,55.97855492499979],[14.135044351416962,55.97851097497815],[14.135044443820576,55.978510833513496],[14.135044712769556,55.97851082706873],[14.135202387037738,55.97852447291503],[14.135202640021506,55.97852452455936],[14.135202651493987,55.978524675095095],[14.135190448521104,55.97856872485088],[14.135190356106015,55.978568866403705],[14.135190086994395,55.97856887271356],[14.135032412755873,55.97855512726509],[14.135032159940732,55.97855507549337],[14.13503214858928,55.97855492499979]]]}},{"type":"Feature","properties":{},"geometry":{"type":"Polygon","coordinates":[[[14.134607148383463,55.97901722497069],[14.134638951581637,55.978902175156634],[14.134639043913612,55.97890203358745],[14.134639313025815,55.978902027226425],[14.134762418912924,55.9789127346868],[14.134763672479727,55.978912705082465],[14.134764810316465,55.97891240925826],[14.134765659100127,55.97891189227615],[14.134766089538237,55.97891123288635],[14.134777851478836,55.978868775149756],[14.134777943894607,55.978868633596576],[14.134778213008925,55.97886862728715],[14.134935887310053,55.97888237274108],[14.134936140097476,55.978882424499666],[14.134936151528319,55.97888257497113],[14.134924397599866,55.978925003785854],[14.134924450903608,55.978925704747795],[14.134924979463365,55.97892634097259],[14.134925902856281,55.97892681565566],[14.134927080583754,55.9789270565717],[14.135050287258853,55.97893777279868],[14.135050540095428,55.97893782451446],[14.13505055158476,55.978937974993556],[14.135018748442262,55.97905292490985],[14.135018656114678,55.979053066444855],[14.1350183870679,55.97905307285851],[14.13460741281642,55.97901742713259],[14.134607159918845,55.97901737546566],[14.134607148383463,55.97901722497069]]]}},{"type":"Feature","properties":{},"geometry":{"type":"Polygon","coordinates":[[[14.134796624103672,55.97879732350328],[14.134817975859542,55.97864097676754],[14.134818048428887,55.978640831616616],[14.134818315908968,55.97864081371242],[14.134937484489706,55.978645986305224],[14.134937743652024,55.97864602700943],[14.134937775778011,55.97864617653961],[14.134916324248262,55.978802523270375],[14.134916251604217,55.97880266839177],[14.134915984150336,55.97880268627906],[14.13479691542472,55.978797513702816],[14.134796656305179,55.97879747300332],[14.134796624103672,55.97879732350328]]]}},{"type":"Feature","properties":{},"geometry":{"type":"Polygon","coordinates":[[[14.134662647600566,55.97950002485158],[14.134698799901368,55.97936700036293],[14.134734852477003,55.979233975348635],[14.134734944128544,55.97923383357814],[14.13473521332204,55.97923382690141],[14.13475550467438,55.97923556908822],[14.134756759333403,55.979235537952114],[14.134757896928738,55.979235240239056],[14.134758743842758,55.97923472138544],[14.134759170821079,55.97923406057769],[14.134765852561785,55.97920937525798],[14.134765944108203,55.97920923351959],[14.134766213200592,55.97920922670449],[14.134778584237003,55.9792102814981],[14.134779837237424,55.97921024985259],[14.134780973224474,55.979209952349954],[14.134781819271709,55.97920943427776],[14.134782246588989,55.979208774499924],[14.134786552238852,55.97919297525585],[14.134786644055813,55.979192833558386],[14.134786913184604,55.97919282692371],[14.134865387523506,55.979199573137414],[14.134865640368325,55.979199624537564],[14.13486565273191,55.97919977489215],[14.134853700671359,55.979243997515994],[14.13485369993033,55.97924399914749],[14.134817500125292,55.979377099539334],[14.134781447478595,55.97951012481646],[14.134781355925613,55.97951026651492],[14.134781086901501,55.97951027338152],[14.134662913054965,55.97950022661508],[14.134662659838806,55.97950017535584],[14.134662647600566,55.97950002485158]]]}},{"type":"Feature","properties":{},"geometry":{"type":"Polygon","coordinates":[[[14.134633251577196,55.97970682539359],[14.134664548353793,55.97960087484102],[14.13466464328301,55.97960073382489],[14.134664912473557,55.97960072899094],[14.13485398767215,55.97961827102307],[14.134854239602316,55.97961832418345],[14.134854248265269,55.97961847474891],[14.134822851780385,55.979724525097865],[14.134822756716018,55.979724666125755],[14.134822487449584,55.97972467082227],[14.134633512003052,55.97970702912711],[14.134633260286472,55.979706975877576],[14.134633251577196,55.97970682539359]]]}},{"type":"Feature","properties":{},"geometry":{"type":"Polygon","coordinates":[[[14.134156969913928,55.97830558617416],[14.134157036199523,55.97830544023014],[14.134294863581696,55.97814376002803],[14.13429502480242,55.97814363926792],[14.134295285836899,55.97814367653593],[14.13472831468924,55.978259623606405],[14.134728530127601,55.97825971382212],[14.134728463913886,55.978259859754],[14.13459073635529,55.97842153993151],[14.134590575177244,55.97842166072361],[14.134590314114094,55.97842162347007],[14.134157185389299,55.978305676398485],[14.134156969913928,55.97830558617416]]]}},{"type":"Feature","properties":{},"geometry":{"type":"Polygon","coordinates":[[[14.134344124554692,55.97881172338534],[14.134393875436706,55.978453876679794],[14.134393948323662,55.978453731616085],[14.134394215765312,55.978453713841105],[14.13471298442173,55.978467686167924],[14.134713243567994,55.97846772699658],[14.13471327539545,55.97846787657257],[14.134663424608359,55.97882562340342],[14.134663351718128,55.978825768423015],[14.13466308436272,55.97882578625987],[14.134344415664938,55.97881191374218],[14.134344156445609,55.97881187297794],[14.134344124554692,55.97881172338534]]]}},{"type":"Feature","properties":{},"geometry":{"type":"Polygon","coordinates":[[[14.134311153935602,55.979123425595304],[14.134324745894343,55.979079474955014],[14.134324842929443,55.979079334198765],[14.134325112506714,55.97907933089433],[14.134403388838892,55.979087069238936],[14.134403639490195,55.97908712376781],[14.13440364600901,55.97908727419001],[14.134397397292252,55.979107434283414],[14.13439742802197,55.97910813543474],[14.134397935704822,55.979108776704265],[14.134398843145997,55.97910926058486],[14.1344000123661,55.9791095135009],[14.134472578485806,55.97911659536555],[14.13447383323944,55.97911657866712],[14.134474980934803,55.97911629442778],[14.134475846630387,55.979115785973725],[14.134476298369508,55.97911513080787],[14.134482545864788,55.97909497465532],[14.134482642817096,55.97909483404342],[14.134482912112361,55.97909483045974],[14.134561188279532,55.97910246957874],[14.13456143933446,55.97910252388471],[14.134561445932844,55.97910267443587],[14.134547854135237,55.97914652534493],[14.134547757182883,55.97914666595667],[14.134547487887428,55.97914666954046],[14.13446890000378,55.97913900000038],[14.13439,55.979131300000006],[14.134389999999991,55.97913130000005],[14.13438999999625,55.97913129999964],[14.13431141164438,55.979123630414065],[14.134311160622362,55.97912357612274],[14.134311153935602,55.979123425595304]]]}},{"type":"Feature","properties":{},"geometry":{"type":"Polygon","coordinates":[[[14.134066845770397,55.97898222481018],[14.134084154192031,55.97891597533425],[14.134084244396506,55.978915833359274],[14.134084513361888,55.97891582570182],[14.13424743021369,55.97892918796706],[14.13424868349492,55.97892915225531],[14.13424981685144,55.97892885080549],[14.134250657581601,55.97892832955272],[14.134251077574373,55.97892766792589],[14.134262154280808,55.97888517538849],[14.134262244431067,55.97888503337713],[14.134262513436791,55.97888502572408],[14.134341399581828,55.97889149996569],[14.134420386848458,55.978897974331964],[14.13442064048106,55.97889802480694],[14.134420654323646,55.97889817522412],[14.134409576895639,55.97894067052967],[14.134409641350759,55.97894137107396],[14.134410179848427,55.978942004547136],[14.134411110482691,55.978942474597375],[14.134412291703278,55.97894270972962],[14.134495986679777,55.97894957430192],[14.134496240382415,55.978949624821674],[14.134496254008228,55.97894977529466],[14.134478845993726,55.9790161246985],[14.13447875564532,55.979016266635305],[14.134478486691906,55.97901627422105],[14.134067113080164,55.97898242576126],[14.134066859517466,55.97898237521641],[14.134066845770397,55.97898222481018]]]}},{"type":"Feature","properties":{},"geometry":{"type":"Polygon","coordinates":[[[14.133985552083711,55.97977542520413],[14.133998647946825,55.97973147469383],[14.133998743164609,55.97973133379848],[14.133999012261393,55.979731329052306],[14.134106124698405,55.97974129457637],[14.134107380130084,55.97974127220603],[14.134108524415506,55.97974098239539],[14.134109382871747,55.97974046938601],[14.134109824449647,55.97973981149224],[14.134117048559096,55.97971517542678],[14.134117143529542,55.97971503411025],[14.134117413263425,55.979715029740284],[14.134164494607985,55.97971949948812],[14.134164505391787,55.97971950050132],[14.134322287735381,55.97973417096615],[14.134322539613065,55.97973422416705],[14.134322548235064,55.97973437471912],[14.13431527284384,55.979758930896615],[14.134315312984205,55.97975963210388],[14.134315829541144,55.97976027137799],[14.134316743924655,55.97976075145846],[14.134317917018564,55.97976099930489],[14.134472387822331,55.979775370955835],[14.134472639655026,55.97977542415547],[14.134472648344579,55.979775574682684],[14.134433451710263,55.97990812513306],[14.134433356717375,55.97990826615332],[14.134433087492669,55.97990827092509],[14.134325971013332,55.979898305024655],[14.134324716630537,55.97989832725638],[14.134323573044952,55.97989861649766],[14.134322714537747,55.97989912866845],[14.13432227194448,55.97989978571446],[14.134309751686782,55.97994212521206],[14.134309656742364,55.979942266198115],[14.134309387596348,55.97994227106163],[14.13426251260254,55.97993792895696],[14.134262260534177,55.979937875782355],[14.134262252103866,55.979937725136395],[14.13426956740966,55.97991317452668],[14.134269528256066,55.97991247289485],[14.134269012054856,55.97991183308383],[14.134268097433077,55.97991135254873],[14.134266923704605,55.97991110448392],[14.13411241217798,55.97989672904462],[14.134112160345053,55.97989667584469],[14.13411215165575,55.9798965253173],[14.13414304026319,55.979792069949674],[14.134142999773827,55.97979136883844],[14.134142483017802,55.97979072971306],[14.134141568595345,55.97979024978647],[14.134140395592974,55.97979000205703],[14.133985812448921,55.97977562905144],[14.133985560491483,55.979775575814806],[14.133985552083711,55.97977542520413]]]}},{"type":"Feature","properties":{},"geometry":{"type":"Polygon","coordinates":[[[14.134364501973058,55.979616576588896],[14.134364552592888,55.97961642891688],[14.13436481561249,55.97961639802749],[14.13442818301515,55.979616001981256],[14.134428447862739,55.97961602977424],[14.134428502955874,55.97961617735253],[14.134428797045802,55.9796338227482],[14.1344287469278,55.97963397082744],[14.134428483186339,55.979634001482836],[14.134365017047832,55.979634298516245],[14.134364752314708,55.97963427029963],[14.134364698018024,55.979634122612936],[14.134364501973058,55.979616576588896]]]}},{"type":"Feature","properties":{},"geometry":{"type":"Polygon","coordinates":[[[14.134136265121185,55.97845868019749],[14.134136289479983,55.978458530251345],[14.13414971044743,55.978433069886634],[14.134149835519322,55.97843293648817],[14.134150103660458,55.97843295006131],[14.134241696442642,55.97844804995598],[14.13424193485617,55.97844811987633],[14.134241910796032,55.97844826988123],[14.134228489396257,55.97847382975285],[14.134228364351689,55.9784739633474],[14.134228095948774,55.97847394954479],[14.134136503254254,55.97845875032324],[14.134136265121185,55.97845868019749]]]}},{"type":"Feature","properties":{},"geometry":{"type":"Polygon","coordinates":[[[14.134000001854362,55.97878076291276],[14.134000198434878,55.97877683130242],[14.134000205453987,55.97877676883436],[14.134000894619282,55.97877283074697],[14.134000909140331,55.978772769532256],[14.134002092106304,55.97876882631231],[14.134002110668366,55.97876877399586],[14.13400368559777,55.97876493510545],[14.134003719375922,55.97876486565178],[14.134005883337423,55.978761029538205],[14.134005920256469,55.978760971173486],[14.134008484917613,55.9787573214634],[14.134008517029075,55.97875727899748],[14.134011472031737,55.9787536344942],[14.134011533055514,55.978753566944484],[14.134014976270091,55.97875012372994],[14.134015026249658,55.97875007711568],[14.134018863022641,55.97874673223668],[14.134018941744854,55.97874666964011],[14.134023268653847,55.97874352279721],[14.134023333886482,55.97874347837033],[14.134027969483537,55.97874051947861],[14.134028032470018,55.97874048153667],[14.134033053266108,55.978737626574194],[14.13403315050643,55.97873757568208],[14.134038460120756,55.97873501920112],[14.134038542038743,55.97873498229946],[14.134044158251324,55.97873261757839],[14.134044243701352,55.978732583976175],[14.13405015696167,55.978730415780724],[14.134050244754562,55.978730385792204],[14.134056444888063,55.97872841749585],[14.134056557403138,55.97872838498689],[14.134062958759909,55.97872671078587],[14.134063042265653,55.97872669053752],[14.1340696408501,55.97872521324252],[14.134069760838413,55.97872518941941],[14.134076542055004,55.978724010077386],[14.134076659138094,55.97872399239655],[14.134083559696744,55.97872310518185],[14.13408364072636,55.97872309598473],[14.134090641369545,55.97872240578046],[14.134090759234056,55.97872239666288],[14.134097739590949,55.97872200340331],[14.13409786069591,55.978721999156996],[14.13410494019723,55.978721900830614],[14.134105059747652,55.97872190165968],[14.134112159262243,55.97872209886838],[14.134112240582496,55.97872210228635],[14.134119221320924,55.97872249556738],[14.134119377520634,55.97872250873472],[14.13412635961169,55.978723295449214],[14.134126439918012,55.978723305702594],[14.134133356746055,55.978724293820875],[14.13413344257416,55.978724307513104],[14.134140120778286,55.9787254860197],[14.134140276221542,55.978725518477944],[14.134146779055294,55.97872709492249],[14.13414682067836,55.97872710540819],[14.134153222009447,55.978728779602484],[14.134153373646978,55.97872882494495],[14.134159475414355,55.97873089167262],[14.134159524038303,55.97873090881405],[14.134165437247313,55.97873307699069],[14.134165558646773,55.97873312618159],[14.13417106492119,55.97873558433982],[14.134171133462207,55.97873561673111],[14.134176455596966,55.9787382777985],[14.134176541344086,55.97873832397959],[14.134181458421441,55.97874117588446],[14.134181538254792,55.978741225780404],[14.134186069454282,55.97874427941485],[14.134186128304002,55.97874432156497],[14.134190264521608,55.97874747296888],[14.134190331780248,55.97874752843498],[14.13419406901407,55.97875087227575],[14.13419412730438,55.9787509289105],[14.134197477380182,55.9787544760496],[14.134197520001772,55.978754524668844],[14.134200478599167,55.978758173605634],[14.13420051831802,55.97875822711068],[14.134202976687973,55.978761865498214],[14.13420301818173,55.97876193545438],[14.13420498807732,55.978765776750784],[14.13420500967148,55.97876582357425],[14.134206584416678,55.97876966201566],[14.134206609649107,55.97876973859643],[14.134207593849165,55.97877367539664],[14.134207603713376,55.97877372475582],[14.134208194371539,55.97877766247691],[14.134208200000002,55.978777737654994],[14.134208200000002,55.978781774866086],[14.134208197490537,55.978781825094664],[14.134207803113254,55.9787857688675],[14.134207793039174,55.978785830937014],[14.134206907326664,55.97878976743706],[14.134206888449159,55.978789832177355],[14.134205510747094,55.97879367006167],[14.134205485647033,55.97879372946135],[14.134203615549055,55.97879756808353],[14.134203580300609,55.978797631190695],[14.134201216294155,55.97880137420093],[14.134201180932079,55.97880142519689],[14.134198422994908,55.97880506961387],[14.134198373085615,55.97880512936114],[14.134195122092045,55.97880867589961],[14.134195075355258,55.978808723312596],[14.134191434647313,55.978812167225534],[14.134191360522866,55.97881223101778],[14.134187229524352,55.97881547680232],[14.134187167910849,55.97881552210588],[14.134182729537313,55.978818579652085],[14.134182668394095,55.978818619350555],[14.134177844624032,55.978821572679166],[14.13417775151287,55.97882162517602],[14.13417264396461,55.97882427717223],[14.134172553116054,55.97882432093033],[14.134167028156103,55.9788267874303],[14.134166970865147,55.97882681185149],[14.134161150090868,55.978829179624064],[14.134161047254477,55.97882921815831],[14.134155058742332,55.97883127977723],[14.134154938376453,55.97883131733161],[14.134148640875498,55.97883308850378],[14.134148558021405,55.97883311017665],[14.134142058718883,55.97883468576514],[14.134141939443948,55.978834711576894],[14.134135239302589,55.97883599248627],[14.13413516005594,55.97883600636791],[14.134128360951648,55.97883709028307],[14.134128237869698,55.9788371070006],[14.134121257930905,55.97883789347259],[14.134121141368942,55.978837904128945],[14.134114140569064,55.97883839714304],[14.134114059223805,55.97883840169901],[14.134106979483725,55.97883869668819],[14.134106820320856,55.97883869889335],[14.134099740622453,55.9788386005642],[14.134099659480128,55.97883859828791],[14.13409265809083,55.978838302454555],[14.134092542379543,55.9788382951983],[14.134085442638954,55.97883770355325],[14.134085357762585,55.97883769517288],[14.13407847866137,55.978836908989855],[14.134078323332439,55.97883688666652],[14.134071543024866,55.97883570748259],[14.13407145779141,55.978835691180294],[14.134064838732296,55.97883430809332],[14.13406476206215,55.978834290802965],[14.134058263069809,55.97883271528964],[14.134058139494437,55.97883268175231],[14.134051955322995,55.97883081668472],[14.134051847175567,55.978830780948556],[14.134045829729668,55.97882861072219],[14.134045771142393,55.97882858855646],[14.134040055709571,55.978826322091734],[14.13403994784162,55.97882627534332],[14.134034539727168,55.97882371878012],[14.13403446252666,55.97882367982204],[14.134029343088095,55.978820923201276],[14.134029260113468,55.978820875070916],[14.13402453989157,55.978817924932244],[14.13402446353153,55.978817873477496],[14.134020123666833,55.978814717212245],[14.134020077846005,55.97881468216874],[14.134016039114503,55.97881143148241],[14.134015965818945,55.97881136676845],[14.134012424329288,55.97880792365348],[14.134012378279513,55.97880787556446],[14.134009226445025,55.97880432975065],[14.134009177552295,55.978804269238324],[14.134006520937204,55.978800628691715],[14.134006482643667,55.9788005705697],[14.134004220022561,55.9787967339513],[14.134004184859647,55.97879666526626],[14.134002510442192,55.978792823955615],[14.134002491920072,55.97879277576021],[14.134001210749387,55.978788932248186],[14.134001193479847,55.978788867399274],[14.134000405086194,55.97878492543097],[14.134000397507153,55.978784874448344],[14.134000003614302,55.9787808370466],[14.134000001854362,55.97878076291276]]]}},{"type":"Feature","properties":{},"geometry":{"type":"Polygon","coordinates":[[[14.13398055120182,55.97992972538879],[14.133988248559046,55.97990347542697],[14.133988343529865,55.97990333411032],[14.133988613265238,55.97990332974043],[14.13403569418218,55.97990779944769],[14.134035705807854,55.979907800539124],[14.13408278787869,55.979912171026754],[14.134083039713817,55.9799122241602],[14.134083048590236,55.9799123746615],[14.13407535148923,55.979938525068754],[14.134075256658559,55.979938666147184],[14.134074987396417,55.979938670982015],[14.134027900002293,55.979934300000195],[14.133980812000663,55.979929928962164],[14.133980560217932,55.97992987585181],[14.13398055120182,55.97992972538879]]]}},{"type":"Feature","properties":{},"geometry":{"type":"Polygon","coordinates":[[[14.133862900628658,55.9786006748537],[14.1338629990866,55.978596736536],[14.133863006210191,55.978596663626035],[14.133863694248639,55.97859263368657],[14.133863710261327,55.978592566650704],[14.133864893224432,55.978588722020596],[14.133864908722048,55.97858867819488],[14.133866483658718,55.97858474085322],[14.133866523057451,55.97858466017351],[14.133868687034301,55.97858092239531],[14.133868715042416,55.97858087801494],[14.133871279689538,55.97857712968454],[14.13387132400659,55.978577071192085],[14.13387427492573,55.97857353008914],[14.133874328972517,55.9785734710275],[14.13387777172922,55.978570028270795],[14.133877831834168,55.97856997294097],[14.133881772368264,55.97856662348698],[14.13388183020065,55.97856657752512],[14.133886071589748,55.978563421142546],[14.133886130582894,55.97856337982831],[14.13389075249411,55.97856033133367],[14.133890852416961,55.97856027122208],[14.133895873241519,55.978557514690955],[14.133895927954281,55.97855748602286],[14.133901249555137,55.97855482522242],[14.133901354055846,55.978554777239665],[14.133906953400189,55.97855241962099],[14.133907049019598,55.97855238232082],[14.133913066511882,55.9785502120777],[14.133913134516522,55.978550188865654],[14.133919240302381,55.9785482192573],[14.133919362425472,55.97854818367335],[14.13392574186119,55.97854651520555],[14.133925860121003,55.978546487437434],[14.133932457792199,55.978545108819546],[14.133932543024907,55.978545092517415],[14.133939360565876,55.978543906858114],[14.133939440011122,55.97854389428416],[14.133946322050894,55.978542911135584],[14.133946479547465,55.978542893277684],[14.133953460621015,55.9785423033278],[14.133953539625287,55.97854229776759],[14.133960539591653,55.9785419034033],[14.133960660695502,55.978541899157015],[14.13396776011799,55.97854180055394],[14.133967839881976,55.978541800553934],[14.133974919327185,55.978541898879556],[14.133975080065767,55.97854190563845],[14.133982060755201,55.9785423972363],[14.133982138954352,55.978542403840585],[14.133989140183981,55.978543094102655],[14.133989258849425,55.97854310840709],[14.133996138268758,55.97854409118125],[14.133996260289594,55.97854411152594],[14.134002960925558,55.97854539252991],[14.134003038336864,55.97854540858291],[14.134009636447926,55.97854688577194],[14.1340097611587,55.978546917200894],[14.134016058917467,55.97854868844555],[14.134016139834701,55.9785487128499],[14.13402224590852,55.97855068255114],[14.134022351508225,55.978550719744824],[14.134028264874559,55.97855298653524],[14.134028333801481,55.97855301448636],[14.134033851733522,55.978555379314365],[14.134033945334455,55.978555422667235],[14.134039255597045,55.978558077798525],[14.134039341343945,55.97855812397949],[14.13404425842146,55.97856097588444],[14.134044338254691,55.97856102578033],[14.134048861951396,55.97856407435856],[14.134048934551037,55.97856412714724],[14.134053077519578,55.978567382336806],[14.134053120932453,55.97856741824881],[14.13405696842817,55.978570772475855],[14.13405702791395,55.978570828734966],[14.134060367535008,55.978574266580154],[14.134060427303012,55.97857433483488],[14.134063280448027,55.97857797505438],[14.134063316817084,55.97857802556199],[14.134065779652662,55.97858176907204],[14.13406581624538,55.978581831678476],[14.134067788077276,55.97858567675068],[14.134067809671519,55.97858572357433],[14.134069384416616,55.978589562015515],[14.134069409649147,55.9785896385966],[14.134070393849136,55.97859357539654],[14.134070403713393,55.97859362475596],[14.134070995311939,55.97859756874626],[14.134071000784015,55.97859763136055],[14.134071099057795,55.97860156231182],[14.134071095299998,55.97860163760004],[14.1340706031068,55.97860557514562],[14.134070594438008,55.97860562471997],[14.13406970684159,55.97860956959295],[14.134069689473472,55.978609630075816],[14.134068311234882,55.97861356790036],[14.13406828462558,55.97861363155805],[14.134066415549105,55.97861746808344],[14.134066380300535,55.978617531190835],[14.13406401629419,55.978621274200904],[14.134063980932012,55.97862132519701],[14.134061222994944,55.97862496961383],[14.134061173085541,55.978625029361226],[14.134057926784081,55.97862857078102],[14.134057869477397,55.978628628047794],[14.13405422530513,55.97863197674665],[14.134054172226756,55.97863202235408],[14.13405013206423,55.97863527419221],[14.134050064792726,55.97863532449205],[14.134045540287,55.97863847197428],[14.134045455840177,55.97863852613541],[14.134040626081712,55.978641384563915],[14.134040572644757,55.97864141472977],[14.134035453733615,55.97864417106654],[14.134035341706836,55.97864422602374],[14.134029840788651,55.97864668179078],[14.134029757185717,55.97864671669032],[14.13402393755145,55.97864898536128],[14.134023861019976,55.978649013419364],[14.134017858741629,55.97865107977745],[14.134017738376455,55.978651117331644],[14.134011440875353,55.97865288850382],[14.13401135802181,55.978652910176535],[14.134004841498635,55.97865448993976],[14.134004757555761,55.97865450873854],[14.133998074788936,55.97865588460229],[14.133997922854546,55.9786559111805],[14.133991142583294,55.97865689382853],[14.133991056877349,55.978656904858894],[14.133984038466508,55.97865769566577],[14.133983961201283,55.97865770327878],[14.133976979721847,55.97865829326296],[14.133976819473254,55.97865830223685],[14.133969739820719,55.978658498893886],[14.133969660130166,55.97865850000003],[14.133962560586085,55.97865850000003],[14.133962439586245,55.97865849744732],[14.133955459735027,55.978658202524024],[14.13395534076689,55.97865819499439],[14.133948357930969,55.97865760489559],[14.133948242860061,55.97865759275692],[14.133941242938462,55.9786567054429],[14.133941157658143,55.97865669324986],[14.13393436172475,55.978655609840196],[14.133934239875032,55.978655587436585],[14.133927655731544,55.97865421164539],[14.133927545960177,55.97865418608065],[14.133921045951807,55.97865251183609],[14.13392095546984,55.97865248657028],[14.133914740478872,55.97865061220792],[14.13391466083534,55.97865058651708],[14.133908658327215,55.978648520079865],[14.13390854493835,55.97864847721586],[14.13390284183286,55.97864611731015],[14.13390276025601,55.978646081211934],[14.133897339726996,55.978643518780025],[14.133897262526716,55.97864347982207],[14.133892143087987,55.97864072320123],[14.133892060113533,55.97864067507096],[14.13388733163212,55.97863771977009],[14.133887270506758,55.97863767922069],[14.133882938795919,55.97863462733349],[14.133882865108674,55.97863457106576],[14.133878832069625,55.978631226594324],[14.133878771399795,55.97863117219428],[14.133875224329389,55.97862772365358],[14.133875178279531,55.978627675564475],[14.133872026445061,55.978624129750706],[14.133871977552225,55.97862406923825],[14.133869322595627,55.97862043096438],[14.133869281578976,55.978620368181865],[14.133867114995942,55.9786166259021],[14.133867087832787,55.978616573637716],[14.13386531463799,55.978612731715664],[14.133865289526033,55.97861266777244],[14.133864009840815,55.97860873027945],[14.133863993882986,55.97860866941494],[14.133863206212027,55.97860473106013],[14.133863197658012,55.978604668773485],[14.1338629018845,55.97860072512665],[14.133862900628658,55.9786006748537]]]}},{"type":"Feature","properties":{},"geometry":{"type":"Polygon","coordinates":[[[14.133956751692123,55.97987292519423],[14.133982848326436,55.97978467474383],[14.13398294324346,55.979784533776886],[14.133983212343859,55.979784528862254],[14.134061587545043,55.97979177112767],[14.134061839577784,55.9797918242145],[14.134061848308079,55.97979197480593],[14.134035751673762,55.97988022525632],[14.134035656756504,55.979880366223185],[14.13403538765554,55.9798803711379],[14.133957012455308,55.979873128872576],[14.133956760422283,55.97987307578559],[14.133956751692123,55.97987292519423]]]}},{"type":"Feature","properties":{},"geometry":{"type":"Polygon","coordinates":[[[14.133900051322664,55.97891052497667],[14.133907748800425,55.97888427460381],[14.133907843266654,55.9788841336432],[14.133908112167367,55.97888412831904],[14.133954887082371,55.97888837161303],[14.133955139525705,55.97888842434585],[14.133955148677387,55.97888857502341],[14.133947451199628,55.978914825396274],[14.13394735673335,55.97891496635685],[14.133947087832468,55.97891497168107],[14.133900312917632,55.97891072838711],[14.133900060474293,55.978910675654205],[14.133900051322664,55.97891052497667]]]}},{"type":"Feature","properties":{},"geometry":{"type":"Polygon","coordinates":[[[14.133889750496047,55.9789459255592],[14.133897349265409,55.97891967526508],[14.133897443582942,55.978919533935034],[14.133897713074276,55.97891952900065],[14.13394458791985,55.978923871091595],[14.133944839759051,55.97892392416677],[14.13394484878683,55.978924074650166],[14.13393715132024,55.978950324984964],[14.133937056602257,55.978950466123926],[14.133936787285254,55.9789504709717],[14.133890011584526,55.978946128923525],[14.13388975998561,55.97894607589229],[14.133889750496047,55.9789459255592]]]}},{"type":"Feature","properties":{},"geometry":{"type":"Polygon","coordinates":[[[14.133720551908855,55.97976432521845],[14.133728348107262,55.979738074727564],[14.133728443202493,55.979737933796024],[14.133728712312667,55.97973792899111],[14.133772652585824,55.97974200783498],[14.13377390665923,55.979741985382134],[14.133775049855542,55.97974169606089],[14.13377590803383,55.97974118394304],[14.13377635046943,55.97974052703847],[14.133792748326387,55.979685074743834],[14.133792843243292,55.97968493377684],[14.133793112342897,55.97968492886217],[14.13387148754563,55.979692171127745],[14.133871739577865,55.979692224214524],[14.133871748308055,55.979692374806014],[14.13384565167373,55.979780625256424],[14.133845556756668,55.979780766223215],[14.133845287657309,55.97978077113796],[14.13383296382546,55.9797796323535],[14.133831709297809,55.97977965538397],[14.13383056615697,55.979779945434466],[14.133829708670376,55.97978045828793],[14.133829267558587,55.979781115761746],[14.133825951320475,55.97979242498407],[14.133825856600838,55.97979256612358],[14.133825587277189,55.97979257097095],[14.133778811999727,55.979788228962065],[14.133778560217813,55.97978817585176],[14.133778551201836,55.97978802538867],[14.13378186296467,55.97977673142819],[14.133781820848897,55.97977603050211],[14.13378130281729,55.97977539187038],[14.133780387629255,55.97977491262797],[14.133779214426216,55.97977466563687],[14.133766912453938,55.979773528872336],[14.133766660422204,55.97977347578554],[14.133766651692127,55.97977332519382],[14.133767434155361,55.979770679154015],[14.133767393618518,55.97976997792697],[14.1337668766642,55.97976933872385],[14.133765961948937,55.97976885880179],[14.13376478865004,55.9797686111827],[14.133720812409393,55.9797645290001],[14.133720560449818,55.97976447581108],[14.133720551908855,55.97976432521845]]]}},{"type":"Feature","properties":{},"geometry":{"type":"Polygon","coordinates":[[[14.133669152083849,55.97921402520365],[14.133682247947,55.97917007469322],[14.13368234316367,55.97916993379823],[14.133682612255429,55.979169929051814],[14.133839987825962,55.97918457095618],[14.133840239655454,55.97918462415565],[14.133840248344308,55.97918477468321],[14.133827251706558,55.97922872514523],[14.13382715672212,55.97922886616012],[14.133826887513653,55.97922887094552],[14.133669412445473,55.97921422905114],[14.13366916049104,55.979214175814626],[14.133669152083849,55.97921402520365]]]}},{"type":"Feature","properties":{},"geometry":{"type":"Polygon","coordinates":[[[14.133726851267904,55.97872352516344],[14.13373454874568,55.978697274790505],[14.133734643325923,55.97869713374881],[14.133734912414752,55.97869712864089],[14.133829187502466,55.97870577135178],[14.133829439642698,55.97870582425615],[14.13382944873212,55.978705974836735],[14.133821751254349,55.97873222520966],[14.133821656674089,55.97873236625129],[14.133821387585156,55.978732371359364],[14.133727112497331,55.97872372864849],[14.133726860357243,55.97872367574396],[14.133726851267904,55.97872352516344]]]}},{"type":"Feature","properties":{},"geometry":{"type":"Polygon","coordinates":[[[14.133695851909064,55.978835925217695],[14.133703648107543,55.97880967472664],[14.133703743200968,55.97880953379563],[14.133704012303854,55.978809528990354],[14.13379818759625,55.97881827100063],[14.133798439550889,55.97881832418925],[14.133798448090964,55.978818474782464],[14.13379065189249,55.97884472527353],[14.13379055679906,55.97884486620445],[14.133790287696048,55.9788448710099],[14.133696112403598,55.97883612899963],[14.133695860449054,55.97883607581083],[14.133695851909064,55.978835925217695]]]}},{"type":"Feature","properties":{},"geometry":{"type":"Polygon","coordinates":[[[14.13370615127438,55.97879442527289],[14.13371904867035,55.97875047491586],[14.133719143359754,55.97875033382469],[14.133719412580083,55.978750328884075],[14.133797788043768,55.97875757117378],[14.133798039857181,55.978757624165844],[14.133798049156638,55.97875777460183],[14.133785250978633,55.97880172493406],[14.13378515652919,55.97880186614001],[14.133784887203635,55.97880187113269],[14.13370641225362,55.97879462881745],[14.133706160296251,55.978794575798815],[14.13370615127438,55.97879442527289]]]}},{"type":"Feature","properties":{},"geometry":{"type":"Polygon","coordinates":[[[14.133343951057537,55.97895682524668],[14.133363248912152,55.97889077485769],[14.133363343377308,55.97889063376334],[14.133363612513293,55.978890628626495],[14.133758187631274,55.97892677138781],[14.133758439725966,55.978926824246955],[14.13375844901067,55.97892697478331],[14.133739151035227,55.978993125059965],[14.133739056584034,55.97899326619969],[14.133738787373185,55.97899327128506],[14.13334421230477,55.97895702868642],[14.133343960270025,55.978956975772235],[14.133343951057537,55.97895682524668]]]}},{"type":"Feature","properties":{},"geometry":{"type":"Polygon","coordinates":[[[14.133555951619254,55.97971672544063],[14.133582048260397,55.97962847496714],[14.133582143314058,55.979628333903584],[14.133582412638146,55.979628329248165],[14.13366119798102,55.979635699811126],[14.133661201977759,55.97963570018359],[14.133755687591153,55.97964447100015],[14.13375593955023,55.97964452418901],[14.133755948091162,55.97964467478177],[14.133748151892744,55.97967092527268],[14.133748056797682,55.979671066204084],[14.133747787688241,55.97967107100916],[14.133656474899587,55.97966259471642],[14.133655221309105,55.979662617106335],[14.133654078436543,55.97966290616844],[14.133653220239278,55.97966341790439],[14.133652777344096,55.97966407442256],[14.13363495191834,55.97972412509668],[14.133634856737624,55.97972426610759],[14.13363458745379,55.97972427072363],[14.133556211899446,55.97971692921601],[14.133555960267715,55.97971687590354],[14.133555951619254,55.97971672544063]]]}},{"type":"Feature","properties":{},"geometry":{"type":"Polygon","coordinates":[[[14.133339050454383,55.978710925249445],[14.133358149469009,55.97864477501651],[14.13335825151877,55.97864462177212],[14.133358452124074,55.97864393536744],[14.133358451544032,55.97864392538175],[14.133377948385395,55.97857787485794],[14.133378043292861,55.978577733830036],[14.133378312489189,55.9785777289955],[14.133614787662143,55.97859967101916],[14.133615039592668,55.9785997241849],[14.133615048230151,55.978599874756384],[14.133595401077077,55.97866619636417],[14.133595398949758,55.978666203637566],[14.133576202169786,55.97873269248486],[14.133576197943743,55.97873270752604],[14.133545948169752,55.97884342369605],[14.133545855620833,55.9788435658312],[14.133545585417037,55.97884357118472],[14.133348610317439,55.97882552842508],[14.133348359121861,55.97882547595879],[14.133348347474818,55.97882532608283],[14.133378064486305,55.978716461782845],[14.133378010189363,55.97871576496563],[14.13337748618672,55.978715132097],[14.13337657127492,55.97871465834419],[14.133375403033172,55.97871441494737],[14.133339312270602,55.97871112843617],[14.133339060153272,55.978711075735866],[14.133339050454383,55.978710925249445]]]}},{"type":"Feature","properties":{},"geometry":{"type":"Polygon","coordinates":[[[14.13322785165592,55.97926002531707],[14.133280148293672,55.97908317485504],[14.133280243277813,55.97908303384003],[14.133280512485475,55.979083029054856],[14.133437987739342,55.979097670966496],[14.133438239613572,55.97909772416726],[14.133438248234945,55.9790978747202],[14.13338585179597,55.97927472517707],[14.13338575674794,55.979274866165696],[14.133385487559613,55.97927487093142],[14.133228112174084,55.97926022904426],[14.13322786034455,55.97926017584449],[14.13322785165592,55.97926002531707]]]}},{"type":"Feature","properties":{},"geometry":{"type":"Polygon","coordinates":[[[14.133231851655726,55.97980542531754],[14.133271048290048,55.979672874867106],[14.133271143282418,55.97967273384677],[14.133271412506234,55.97967272907516],[14.133428787822899,55.97968737095588],[14.133429039655098,55.97968742415549],[14.133429048344558,55.97968757468277],[14.133389851710236,55.97982012513315],[14.133389756717518,55.97982026615336],[14.133389487492916,55.97982027092519],[14.133232112177414,55.97980562904457],[14.133231860344962,55.979805575844665],[14.133231851655726,55.97980542531754]]]}},{"type":"Feature","properties":{},"geometry":{"type":"Polygon","coordinates":[[[14.133141251740826,55.979552425296866],[14.133206748221571,55.97933127483214],[14.133206843258277,55.97933113383698],[14.133207112453912,55.97933112907028],[14.133364487775955,55.97934577095152],[14.133364739627547,55.97934582416044],[14.133364748259696,55.97934597470342],[14.133299251778947,55.979567125168124],[14.133299156741579,55.97956726616315],[14.133298887544631,55.979567270929984],[14.133141512225192,55.97955262904903],[14.133141260372666,55.979552575839705],[14.133141251740826,55.979552425296866]]]}},{"type":"Feature","properties":{},"geometry":{"type":"Polygon","coordinates":[[[14.132817351908903,55.97954952521824],[14.132825147985365,55.97952327513801],[14.13282524333198,55.979523134029215],[14.132825512852062,55.979523129701214],[14.132872594182025,55.97952759944768],[14.132872605807481,55.979527600539086],[14.132919687469785,55.9795319709888],[14.132919939481082,55.97953202420113],[14.132919947880193,55.9795321748324],[14.132912152062888,55.97955832535879],[14.132912056856316,55.97955846622807],[14.132911787811345,55.97955847102052],[14.132864700002349,55.97955410000022],[14.132817612408097,55.97954972899998],[14.132817360449645,55.979549675811036],[14.132817351908903,55.97954952521824]]]}}]}